lon,lat,name,address,pname,cityname,business_area,type
116.134010,39.916030,四道桥(地铁站),S1线,北京市,北京市,永定,交通设施服务;地铁站;地铁站
116.125809,39.912383,桥户营(地铁站),S1线,北京市,北京市,永定,交通设施服务;地铁站;地铁站
116.123254,39.895780,栗园庄(地铁站),S1线,北京市,北京市,永定,交通设施服务;地铁站;地铁站
116.122225,39.905138,上岸(地铁站),S1线,北京市,北京市,永定,交通设施服务;地铁站;地铁站
116.114443,39.890465,小园(地铁站),S1线,北京市,北京市,永定,交通设施服务;地铁站;地铁站
116.100334,39.889378,石厂(地铁站),S1线,北京市,北京市,永定,交通设施服务;地铁站;地铁站
116.615579,40.052544,T3航站楼(地铁站),首都机场线,北京市,北京市,,交通设施服务;地铁站;地铁站
116.555127,40.070030,国展(地铁站),15号线,北京市,北京市,,交通设施服务;地铁站;地铁站
116.557593,40.084436,花梨坎(地铁站),15号线,北京市,北京市,后沙峪,交通设施服务;地铁站;地铁站
116.564211,40.114127,后沙峪(地铁站),15号线,北京市,北京市,后沙峪,交通设施服务;地铁站;地铁站
116.609535,40.128478,南法信(地铁站),15号线,北京市,北京市,南法信,交通设施服务;地铁站;地铁站
116.641117,40.129802,石门(地铁站),15号线,北京市,北京市,仁和,交通设施服务;地铁站;地铁站
116.657023,40.129994,顺义(地铁站),15号线,北京市,北京市,光明,交通设施服务;地铁站;地铁站
116.684732,40.132573,俸伯(地铁站),15号线,北京市,北京市,,交通设施服务;地铁站;地铁站
117.000023,40.052818,马坊(地铁站),(在建)平谷线,北京市,北京市,,交通设施服务;地铁站;地铁站
117.022864,40.143686,马昌营(地铁站),(在建)平谷线,北京市,北京市,,交通设施服务;地铁站;地铁站
117.095622,40.150056,平谷(地铁站),(在建)平谷线,北京市,北京市,,交通设施服务;地铁站;地铁站
116.461841,39.909104,国贸(地铁站),10号线;1号线,北京市,北京市,国贸,交通设施服务;地铁站;地铁站
116.457983,39.866417,十里河(地铁站),(在建)17号线南段;10号线;14号线东段,北京市,北京市,十八里店,交通设施服务;地铁站;地铁站
116.469409,39.998521,望京(地铁站),14号线东段;15号线,北京市,北京市,望京,交通设施服务;地铁站;地铁站
116.435806,39.908501,建国门(地铁站),1号线;2号线,北京市,北京市,朝阳门,交通设施服务;地铁站;地铁站
116.450872,39.876233,潘家园西(地铁站),(在建)17号线中段;(在建)17号线南段,北京市,北京市,广渠门,交通设施服务;地铁站;地铁站
116.464455,39.918256,京广桥(地铁站),(规划)28号线,北京市,北京市,呼家楼,交通设施服务;地铁站;地铁站
116.469547,39.909845,核心区(地铁站),(规划)28号线,北京市,北京市,大望路,交通设施服务;地铁站;地铁站
116.434584,39.924499,朝阳门(地铁站),2号线;6号线,北京市,北京市,朝阳门,交通设施服务;地铁站;地铁站
116.469555,39.913574,光华路(地铁站),(规划)28号线,北京市,北京市,大望路,交通设施服务;地铁站;地铁站
116.450330,39.908472,永安里(地铁站),(在建)17号线中段;1号线,北京市,北京市,建外大街,交通设施服务;地铁站;地铁站
116.486026,39.902304,北京东站(地铁站),(规划)28号线,北京市,北京市,南磨房,交通设施服务;地铁站;地铁站
116.451657,39.923054,东大桥(地铁站),(在建)17号线中段;(在建)平谷线;(规划)28号线;6号线,北京市,北京市,呼家楼,交通设施服务;地铁站;地铁站
116.489807,39.915550,慈云寺桥(地铁站),(在建)平谷线,北京市,北京市,慈云寺,交通设施服务;地铁站;地铁站
116.450366,39.933758,工人体育场(地铁站),(在建)17号线中段;(在建)3号线,北京市,北京市,,交通设施服务;地铁站;地铁站
116.461743,39.916838,金台夕照(地铁站),(在建)平谷线;10号线,北京市,北京市,呼家楼,交通设施服务;地铁站;地铁站
116.463738,39.893352,双井(地铁站),10号线;7号线,北京市,北京市,双井,交通设施服务;地铁站;地铁站
116.461618,39.923337,呼家楼(地铁站),10号线;6号线,北京市,北京市,呼家楼,交通设施服务;地铁站;地铁站
116.461325,39.884387,劲松(地铁站),10号线,北京市,北京市,劲松,交通设施服务;地铁站;地铁站
116.508662,39.893076,广渠路(地铁站),(规划)28号线,北京市,北京市,百子湾,交通设施服务;地铁站;地铁站
116.508774,39.887362,广渠东路(地铁站),(规划)28号线,北京市,北京市,百子湾,交通设施服务;地铁站;地铁站
116.461806,39.933747,团结湖(地铁站),(在建)3号线;10号线,北京市,北京市,,交通设施服务;地铁站;地铁站
116.460926,39.875387,潘家园(地铁站),10号线,北京市,北京市,潘家园,交通设施服务;地铁站;地铁站
116.484631,39.848390,十八里店(地铁站),(在建)17号线南段,北京市,北京市,十八里店,交通设施服务;地铁站;地铁站
116.475783,39.908287,大望路(地铁站),(规划)28号线;14号线东段;1号线,北京市,北京市,大望路,交通设施服务;地铁站;地铁站
116.518396,39.916597,甘露园(地铁站),(在建)平谷线,北京市,北京市,高碑店村,交通设施服务;地铁站;地铁站
116.461724,39.941344,农业展览馆(地铁站),10号线,北京市,北京市,,交通设施服务;地铁站;地铁站
116.478064,39.915605,红庙(地铁站),(在建)平谷线;14号线东段,北京市,北京市,红庙,交通设施服务;地铁站;地铁站
116.432728,39.958157,柳芳(地铁站),13号线,北京市,北京市,柳芳,交通设施服务;地铁站;地铁站
116.478695,39.893222,九龙山(地铁站),14号线东段;7号线,北京市,北京市,百子湾,交通设施服务;地铁站;地铁站
116.477307,39.885275,平乐园(地铁站),14号线东段,北京市,北京市,南磨房,交通设施服务;地铁站;地铁站
116.478115,39.923556,金台路(地铁站),14号线东段;6号线,北京市,北京市,姚家园,交通设施服务;地铁站;地铁站
116.494624,39.844026,朝阳港(地铁站),(在建)17号线南段,北京市,北京市,十八里店,交通设施服务;地铁站;地铁站
116.461794,39.949415,亮马桥(地铁站),10号线,北京市,北京市,燕莎,交通设施服务;地铁站;地铁站
116.477318,39.875437,北工大西门(地铁站),14号线东段,北京市,北京市,南磨房,交通设施服务;地铁站;地铁站
116.478291,39.933492,朝阳公园(地铁站),(在建)3号线;14号线东段,北京市,北京市,甜水园,交通设施服务;地铁站;地铁站
116.394655,39.968507,安华桥(地铁站),(在建)12号线;8号线,北京市,北京市,安定门,交通设施服务;地铁站;地铁站
116.417975,39.968386,和平西桥(地铁站),(在建)12号线;5号线,北京市,北京市,安定门,交通设施服务;地铁站;地铁站
116.487935,39.893183,大郊亭(地铁站),(规划)28号线;7号线,北京市,北京市,南磨房,交通设施服务;地铁站;地铁站
116.474947,39.944132,枣营(地铁站),14号线东段,北京市,北京市,,交通设施服务;地铁站;地铁站
116.431761,39.968337,光熙门(地铁站),(在建)12号线;13号线,北京市,北京市,和平里,交通设施服务;地铁站;地铁站
116.441541,39.966297,西坝河(地铁站),(在建)12号线;(在建)17号线中段,北京市,北京市,,交通设施服务;地铁站;地铁站
116.447531,39.845874,成寿寺(地铁站),10号线,北京市,北京市,成寿寺社区,交通设施服务;地铁站;地铁站
116.456997,39.961508,三元桥(地铁站),(在建)12号线;10号线;首都机场线,北京市,北京市,,交通设施服务;地铁站;地铁站
116.495456,39.908749,四惠(地铁站),1号线;八通线,北京市,北京市,高碑店村,交通设施服务;地铁站;地铁站
116.405954,39.977005,安贞门(地铁站),10号线,北京市,北京市,小关,交通设施服务;地铁站;地铁站
116.497768,39.892530,百子湾(地铁站),7号线,北京市,北京市,南磨房,交通设施服务;地铁站;地铁站
116.394193,39.976953,北土城(地铁站),10号线;8号线,北京市,北京市,,交通设施服务;地铁站;地铁站
116.417537,39.977121,惠新西街南口(地铁站),10号线;5号线,北京市,北京市,小关,交通设施服务;地铁站;地铁站
116.381353,39.976723,健德门(地铁站),10号线,北京市,北京市,祁家豁子,交通设施服务;地铁站;地铁站
116.447469,39.972678,太阳宫(地铁站),(在建)17号线中段;10号线,北京市,北京市,太阳宫村,交通设施服务;地铁站;地铁站
116.435914,39.977636,芍药居(地铁站),10号线;13号线,北京市,北京市,太阳宫村,交通设施服务;地铁站;地铁站
116.502045,39.923076,十里堡(地铁站),6号线,北京市,北京市,,交通设施服务;地铁站;地铁站
116.560938,39.915990,定福庄(地铁站),(在建)平谷线,北京市,北京市,二外,交通设施服务;地铁站;地铁站
116.498326,39.935073,石佛营(地铁站),(在建)3号线,北京市,北京市,姚家园,交通设施服务;地铁站;地铁站
116.503439,39.887369,化工(地铁站),7号线,北京市,北京市,百子湾,交通设施服务;地铁站;地铁站
116.448364,39.834217,肖村(地铁站),亦庄线,北京市,北京市,小红门,交通设施服务;地铁站;地铁站
116.501084,39.874578,南楼梓庄(地铁站),7号线,北京市,北京市,,交通设施服务;地铁站;地铁站
116.393759,39.985837,奥体中心(地铁站),8号线,北京市,北京市,北辰,交通设施服务;地铁站;地铁站
116.553759,39.848979,黄厂(地铁站),7号线,北京市,北京市,豆各庄村,交通设施服务;地铁站;地铁站
116.485919,39.958375,东风北桥(地铁站),14号线东段,北京市,北京市,亮马桥,交通设施服务;地铁站;地铁站
116.500067,39.866505,欢乐谷景区(地铁站),7号线,北京市,北京市,南磨房,交通设施服务;地铁站;地铁站
116.417028,39.987836,惠新西街北口(地铁站),5号线,北京市,北京市,小关,交通设施服务;地铁站;地铁站
116.515664,39.908495,四惠东(地铁站),1号线;八通线,北京市,北京市,高碑店村,交通设施服务;地铁站;地铁站
116.569826,39.856496,郎辛庄(地铁站),7号线,北京市,北京市,,交通设施服务;地铁站;地铁站
116.459226,39.827951,小红门(地铁站),亦庄线,北京市,北京市,小红门,交通设施服务;地铁站;地铁站
116.517429,39.923168,青年路(地铁站),6号线,北京市,北京市,,交通设施服务;地铁站;地铁站
116.508638,39.947098,星火(地铁站),(在建)3号线,北京市,北京市,姚家园,交通设施服务;地铁站;地铁站
116.489496,39.971109,将台(地铁站),14号线东段,北京市,北京市,酒仙桥,交通设施服务;地铁站;地铁站
116.511821,39.860728,垡头(地铁站),7号线,北京市,北京市,垡头,交通设施服务;地铁站;地铁站
116.484078,39.976327,芳园里(地铁站),(在建)12号线,北京市,北京市,大山子,交通设施服务;地铁站;地铁站
116.531421,39.909448,高碑店(地铁站),八通线,北京市,北京市,高碑店村,交通设施服务;地铁站;地铁站
116.449884,39.995724,望京西(地铁站),(在建)17号线中段;(在建)17号线北段;13号线;15号线,北京市,北京市,望京,交通设施服务;地铁站;地铁站
116.407845,40.002619,安立路(地铁站),15号线,北京市,北京市,北辰,交通设施服务;地铁站;地铁站
116.391758,40.002207,奥林匹克公园(地铁站),15号线;8号线,北京市,北京市,北辰,交通设施服务;地铁站;地铁站
116.430947,40.001134,关庄(地铁站),15号线,北京市,北京市,,交通设施服务;地铁站;地铁站
116.599119,39.858725,黑庄户(地铁站),7号线,北京市,北京市,,交通设施服务;地铁站;地铁站
116.481634,39.984634,望京南(地铁站),14号线东段,北京市,北京市,望京,交通设施服务;地铁站;地铁站
116.488543,39.980572,高家园(地铁站),(在建)12号线;14号线东段,北京市,北京市,大山子,交通设施服务;地铁站;地铁站
116.417377,40.003841,大屯路东(地铁站),15号线;5号线,北京市,北京市,,交通设施服务;地铁站;地铁站
116.471740,39.991699,阜通(地铁站),14号线东段,北京市,北京市,望京,交通设施服务;地铁站;地铁站
116.526836,39.859691,双合(地铁站),7号线,北京市,北京市,,交通设施服务;地铁站;地铁站
116.530109,39.948907,体育中心(地铁站),(在建)3号线,北京市,北京市,姚家园,交通设施服务;地铁站;地铁站
116.392600,40.010122,森林公园南门(地铁站),8号线,北京市,北京市,,交通设施服务;地铁站;地铁站
116.504206,39.980450,酒仙桥(地铁站),(在建)12号线,北京市,北京市,酒仙桥,交通设施服务;地铁站;地铁站
116.537247,39.855488,焦化厂(地铁站),7号线,北京市,北京市,,交通设施服务;地铁站;地铁站
116.554639,39.909215,传媒大学(地铁站),八通线,北京市,北京市,高碑店村,交通设施服务;地铁站;地铁站
116.467412,40.010670,东湖渠(地铁站),14号线东段,北京市,北京市,望京,交通设施服务;地铁站;地铁站
116.487105,40.003200,望京东(地铁站),15号线,北京市,北京市,望京,交通设施服务;地铁站;地铁站
116.547040,39.950520,平房村(地铁站),(在建)3号线,北京市,北京市,东坝,交通设施服务;地铁站;地铁站
116.372998,40.021906,林萃桥(地铁站),8号线,北京市,北京市,林萃,交通设施服务;地铁站;地铁站
116.537208,39.975898,北岗子(地铁站),(在建)12号线,北京市,北京市,,交通设施服务;地铁站;地铁站
116.563961,39.924021,褡裢坡(地铁站),6号线,北京市,北京市,常营,交通设施服务;地铁站;地铁站
116.547126,39.965732,东坝中街(地铁站),(在建)3号线,北京市,北京市,东坝,交通设施服务;地铁站;地铁站
116.466994,40.020588,来广营(地铁站),14号线东段,北京市,北京市,来广营,交通设施服务;地铁站;地铁站
116.418089,40.030436,北苑路北(地铁站),5号线,北京市,北京市,,交通设施服务;地铁站;地铁站
116.441678,40.032471,勇士营(地铁站),(在建)17号线北段,北京市,北京市,来广营,交通设施服务;地铁站;地铁站
116.576760,39.910140,双桥(地铁站),八通线,北京市,北京市,,交通设施服务;地铁站;地铁站
116.553278,39.975761,东风(地铁站),(在建)12号线;(在建)3号线,北京市,北京市,东坝,交通设施服务;地铁站;地铁站
116.478195,40.027160,善各庄(地铁站),14号线东段,北京市,北京市,来广营,交通设施服务;地铁站;地铁站
116.578266,39.924201,黄渠(地铁站),6号线,北京市,北京市,常营,交通设施服务;地铁站;地铁站
116.492968,40.022201,崔各庄(地铁站),15号线,北京市,北京市,来广营,交通设施服务;地铁站;地铁站
116.414496,40.041956,立水桥南(地铁站),5号线,北京市,北京市,立水桥,交通设施服务;地铁站;地铁站
116.434518,40.042997,北苑(地铁站),13号线,北京市,北京市,来广营,交通设施服务;地铁站;地铁站
116.570732,39.976863,管庄路西口(地铁站),(在建)12号线;(在建)3号线,北京市,北京市,,交通设施服务;地铁站;地铁站
116.412350,40.053032,立水桥(地铁站),13号线;5号线,北京市,北京市,立水桥,交通设施服务;地铁站;地铁站
116.441977,40.051119,清河营(地铁站),(在建)17号线北段,北京市,北京市,来广营,交通设施服务;地铁站;地铁站
116.503480,40.033721,马泉营(地铁站),15号线,北京市,北京市,,交通设施服务;地铁站;地铁站
116.599002,39.909090,管庄(地铁站),(在建)平谷线;八通线,北京市,北京市,管庄,交通设施服务;地铁站;地铁站
116.599722,39.925696,常营(地铁站),6号线,北京市,北京市,常营,交通设施服务;地铁站;地铁站
116.581332,39.978571,楼梓庄桥西(地铁站),(在建)3号线,北京市,北京市,,交通设施服务;地铁站;地铁站
116.592616,39.978517,楼梓庄(地铁站),(在建)3号线,北京市,北京市,,交通设施服务;地铁站;地铁站
116.615574,39.924477,草房(地铁站),6号线,北京市,北京市,常营,交通设施服务;地铁站;地铁站
116.618658,39.906121,八里桥(地铁站),八通线,北京市,北京市,,交通设施服务;地铁站;地铁站
116.606860,39.980903,高辛庄(地铁站),(在建)3号线,北京市,北京市,,交通设施服务;地铁站;地铁站
116.534700,40.045113,孙河(地铁站),15号线,北京市,北京市,,交通设施服务;地铁站;地铁站
116.600999,39.992208,曹各庄北(地铁站),(在建)3号线,北京市,北京市,,交通设施服务;地铁站;地铁站
116.592808,40.079311,T2航站楼(地铁站),首都机场线,北京市,北京市,,交通设施服务;地铁站;地铁站
116.401216,39.907780,天安门东(地铁站),1号线,北京市,北京市,,交通设施服务;地铁站;地铁站
116.427287,39.904983,北京站(地铁站),2号线,北京市,北京市,,交通设施服务;地铁站;地铁站
116.411057,39.915281,金鱼胡同(地铁站),(在建)8号线二期,北京市,北京市,东单,交通设施服务;地铁站;地铁站
116.411571,39.908069,王府井(地铁站),(在建)8号线二期;1号线,北京市,北京市,王府井,交通设施服务;地铁站;地铁站
116.410803,39.923705,中国美术馆(地铁站),(在建)8号线二期;8号线,北京市,北京市,王府井,交通设施服务;地铁站;地铁站
116.397937,39.900192,前门(地铁站),(在建)8号线二期;2号线,北京市,北京市,,交通设施服务;地铁站;地铁站
116.417093,39.901063,崇文门(地铁站),2号线;5号线,北京市,北京市,,交通设施服务;地铁站;地铁站
116.418480,39.908325,东单(地铁站),1号线;5号线,北京市,北京市,东单,交通设施服务;地铁站;地铁站
116.408464,39.892725,桥湾(地铁站),7号线,北京市,北京市,珠市口,交通设施服务;地铁站;地铁站
116.398372,39.891334,珠市口(地铁站),(在建)8号线二期;7号线;8号线南段,北京市,北京市,珠市口,交通设施服务;地铁站;地铁站
116.417783,39.917113,灯市口(地铁站),5号线,北京市,北京市,东四,交通设施服务;地铁站;地铁站
116.419940,39.893172,磁器口(地铁站),5号线;7号线,北京市,北京市,,交通设施服务;地铁站;地铁站
116.417493,39.924370,东四(地铁站),5号线;6号线,北京市,北京市,东四,交通设施服务;地铁站;地铁站
116.398712,39.881920,天桥(地铁站),8号线南段,北京市,北京市,,交通设施服务;地铁站;地铁站
116.433877,39.893673,广渠门内(地铁站),7号线,北京市,北京市,广渠门,交通设施服务;地铁站;地铁站
116.420833,39.882558,天坛东门(地铁站),5号线,北京市,北京市,体育馆路,交通设施服务;地铁站;地铁站
116.404192,39.933848,南锣鼓巷(地铁站),6号线;8号线,北京市,北京市,,交通设施服务;地铁站;地铁站
116.417156,39.933592,张自忠路(地铁站),5号线,北京市,北京市,东四,交通设施服务;地铁站;地铁站
116.442117,39.949568,香河园(地铁站),(在建)17号线中段,北京市,北京市,左家庄,交通设施服务;地铁站;地铁站
116.448998,39.893648,广渠门外(地铁站),(在建)17号线中段;7号线,北京市,北京市,广渠门,交通设施服务;地铁站;地铁站
116.434133,39.933801,东四十条(地铁站),(在建)3号线;2号线,北京市,北京市,东四,交通设施服务;地铁站;地铁站
116.416884,39.940782,北新桥(地铁站),(在建)首都机场线;5号线,北京市,北京市,东直门,交通设施服务;地铁站;地铁站
116.399369,39.867435,永定门外(地铁站),14号线东段;8号线南段,北京市,北京市,,交通设施服务;地铁站;地铁站
116.387167,39.868791,陶然桥(地铁站),14号线东段,北京市,北京市,,交通设施服务;地铁站;地铁站
116.411026,39.865250,景泰(地铁站),14号线东段,北京市,北京市,蒲黄榆,交通设施服务;地铁站;地铁站
116.435842,39.941626,东直门(地铁站),(在建)首都机场线;13号线;2号线;首都机场线,北京市,北京市,东直门,交通设施服务;地铁站;地铁站
116.408240,39.949180,安定门(地铁站),2号线,北京市,北京市,安定门,交通设施服务;地铁站;地铁站
116.417069,39.949336,雍和宫(地铁站),2号线;5号线,北京市,北京市,安定门,交通设施服务;地铁站;地铁站
116.395145,39.957227,安德里北街(地铁站),8号线,北京市,北京市,安定门,交通设施服务;地铁站;地铁站
116.418504,39.958734,和平里北街(地铁站),5号线,北京市,北京市,安定门,交通设施服务;地铁站;地铁站
116.407446,39.968916,安贞桥(地铁站),(在建)12号线,北京市,北京市,安贞,交通设施服务;地铁站;地铁站
116.178314,39.925829,苹果园(地铁站),(在建)1号线;(在建)S1线;6号线,北京市,北京市,石景山,交通设施服务;地铁站;地铁站
116.206932,39.933605,西黄村(地铁站),6号线,北京市,北京市,石景山,交通设施服务;地铁站;地铁站
116.164909,39.915076,北辛安(地铁站),(在建)11号线西段(在建),北京市,北京市,,交通设施服务;地铁站;地铁站
116.164817,39.907527,新首钢(地铁站),(在建)11号线西段(在建),北京市,北京市,,交通设施服务;地铁站;地铁站
116.162586,39.923298,金安桥(地铁站),(在建)11号线西段(在建);(在建)S1线;6号线;S1线,北京市,北京市,石景山,交通设施服务;地铁站;地铁站
116.252888,39.907433,玉泉路(地铁站),1号线,北京市,北京市,,交通设施服务;地铁站;地铁站
116.156714,39.932626,模式口(地铁站),(在建)11号线西段(在建),北京市,北京市,金顶街,交通设施服务;地铁站;地铁站
116.235948,39.907440,八宝山(地铁站),1号线,北京市,北京市,石景山,交通设施服务;地铁站;地铁站
116.212684,39.907442,八角游乐园(地铁站),1号线,北京市,北京市,石景山,交通设施服务;地铁站;地铁站
116.190337,39.907450,古城(地铁站),(在建)1号线;1号线,北京市,北京市,古城,交通设施服务;地铁站;地铁站
116.187004,39.927850,杨庄(地铁站),6号线,北京市,北京市,石景山,交通设施服务;地铁站;地铁站
116.319932,39.670342,天宫院(地铁站),4号线/大兴线,北京市,北京市,,交通设施服务;地铁站;地铁站
116.460789,39.806910,旧宫(地铁站),亦庄线,北京市,北京市,亦庄,交通设施服务;地铁站;地铁站
116.480307,39.803011,亦庄桥(地铁站),亦庄线,北京市,北京市,亦庄,交通设施服务;地铁站;地铁站
116.490632,39.806890,亦庄文化园(地铁站),亦庄线,北京市,北京市,亦庄,交通设施服务;地铁站;地铁站
116.423903,39.785046,五福堂(地铁站),8号线南段,北京市,北京市,,交通设施服务;地铁站;地铁站
116.505446,39.802921,万源街(地铁站),亦庄线,北京市,北京市,亦庄,交通设施服务;地铁站;地铁站
116.328689,39.789800,西红门(地铁站),4号线/大兴线,北京市,北京市,西红门,交通设施服务;地铁站;地铁站
116.441467,39.772649,德茂(地铁站),8号线南段,北京市,北京市,,交通设施服务;地铁站;地铁站
116.513390,39.793132,荣京东街(地铁站),亦庄线,北京市,北京市,亦庄,交通设施服务;地铁站;地铁站
116.330787,39.773547,高米店北(地铁站),4号线/大兴线,北京市,北京市,西红门,交通设施服务;地铁站;地铁站
116.448982,39.760713,瀛海(地铁站),8号线南段,北京市,北京市,,交通设施服务;地铁站;地铁站
116.521737,39.782799,荣昌东街(地铁站),亦庄线,北京市,北京市,亦庄,交通设施服务;地铁站;地铁站
116.331605,39.763489,高米店南(地铁站),4号线/大兴线,北京市,北京市,清源,交通设施服务;地铁站;地铁站
116.332204,39.753458,枣园(地铁站),4号线/大兴线,北京市,北京市,清源,交通设施服务;地铁站;地铁站
116.365522,39.735583,大兴新城(地铁站),大兴机场线,北京市,北京市,兴丰,交通设施服务;地铁站;地铁站
116.332513,39.742724,清源路(地铁站),4号线/大兴线,北京市,北京市,兴丰,交通设施服务;地铁站;地铁站
116.332631,39.731769,黄村西大街(地铁站),4号线/大兴线,北京市,北京市,黄村,交通设施服务;地铁站;地铁站
116.332611,39.722966,黄村火车站(地铁站),4号线/大兴线,北京市,北京市,黄村,交通设施服务;地铁站;地铁站
116.319079,39.712387,义和庄(地铁站),4号线/大兴线,北京市,北京市,,交通设施服务;地铁站;地铁站
116.321662,39.686510,生物医药基地(地铁站),4号线/大兴线,北京市,北京市,,交通设施服务;地铁站;地铁站
116.686349,39.871926,土桥(地铁站),八通线,北京市,北京市,梨园,交通设施服务;地铁站;地铁站
116.747434,39.902652,潞城(地铁站),6号线,北京市,北京市,潞城,交通设施服务;地铁站;地铁站
116.552619,39.820598,北神树(地铁站),(在建)17号线南段,北京市,北京市,,交通设施服务;地铁站;地铁站
116.575841,39.810528,次渠北(地铁站),(在建)17号线南段,北京市,北京市,,交通设施服务;地铁站;地铁站
116.632160,39.863328,万盛西(地铁站),7号线,北京市,北京市,梨园,交通设施服务;地铁站;地铁站
116.642666,39.913147,永顺(地铁站),(在建)平谷线,北京市,北京市,永顺,交通设施服务;地铁站;地铁站
116.608880,39.792912,亦庄站前区南(地铁站),(在建)17号线南段,北京市,北京市,,交通设施服务;地铁站;地铁站
116.657379,39.863491,万盛东(地铁站),7号线,北京市,北京市,梨园,交通设施服务;地铁站;地铁站
116.670792,39.863515,群芳(地铁站),7号线,北京市,北京市,梨园,交通设施服务;地铁站;地铁站
116.683628,39.912746,运河商务中心(地铁站),(在建)平谷线,北京市,北京市,,交通设施服务;地铁站;地铁站
116.684340,39.863154,高楼金(地铁站),7号线,北京市,北京市,梨园,交通设施服务;地铁站;地铁站
116.703931,39.903186,副中心(地铁站),(在建)平谷线,北京市,北京市,,交通设施服务;地铁站;地铁站
116.695495,39.856722,花庄(地铁站),7号线;八通线,北京市,北京市,张家湾,交通设施服务;地铁站;地铁站
116.724017,39.910253,政务中心(地铁站),(在建)平谷线,北京市,北京市,潞城,交通设施服务;地铁站;地铁站
116.738808,39.910634,政务中心东(地铁站),(在建)平谷线,北京市,北京市,潞城,交通设施服务;地铁站;地铁站
116.539835,39.772900,同济南路(地铁站),亦庄线,北京市,北京市,,交通设施服务;地铁站;地铁站
116.562245,39.783587,经海路(地铁站),亦庄线,北京市,北京市,,交通设施服务;地铁站;地铁站
116.581357,39.795118,次渠南(地铁站),亦庄线,北京市,北京市,,交通设施服务;地铁站;地铁站
116.591502,39.803500,次渠(地铁站),(在建)17号线南段;亦庄线,北京市,北京市,,交通设施服务;地铁站;地铁站
116.601913,39.812607,亦庄火车站(地铁站),亦庄线,北京市,北京市,,交通设施服务;地铁站;地铁站
116.637252,39.903864,通州北苑(地铁站),八通线,北京市,北京市,通州西门,交通设施服务;地铁站;地铁站
116.639316,39.926801,物资学院路(地铁站),6号线,北京市,北京市,永顺,交通设施服务;地铁站;地铁站
116.646621,39.893329,果园(地铁站),八通线,北京市,北京市,通州西门,交通设施服务;地铁站;地铁站
116.657533,39.890278,九棵树(地铁站),八通线,北京市,北京市,九棵树,交通设施服务;地铁站;地铁站
116.661131,39.917962,通州北关(地铁站),(在建)平谷线;6号线,北京市,北京市,通州北关,交通设施服务;地铁站;地铁站
116.668720,39.883677,梨园(地铁站),八通线,北京市,北京市,梨园,交通设施服务;地铁站;地铁站
116.673284,39.910583,通运门(地铁站),6号线,北京市,北京市,,交通设施服务;地铁站;地铁站
116.678811,39.875496,临河里(地铁站),八通线,北京市,北京市,梨园,交通设施服务;地铁站;地铁站
116.679572,39.849148,环球度假区(地铁站),7号线;八通线,北京市,北京市,,交通设施服务;地铁站;地铁站
116.688358,39.903024,北运河西(地铁站),6号线,北京市,北京市,,交通设施服务;地铁站;地铁站
116.707056,39.903268,北运河东(地铁站),6号线,北京市,北京市,潞城,交通设施服务;地铁站;地铁站
116.717826,39.903195,郝家府(地铁站),6号线,北京市,北京市,,交通设施服务;地铁站;地铁站
116.733850,39.903147,东夏园(地铁站),6号线,北京市,北京市,潞城,交通设施服务;地铁站;地铁站
116.336116,40.070800,回龙观(地铁站),13号线,北京市,北京市,回龙观,交通设施服务;地铁站;地铁站
116.412890,40.075248,天通苑(地铁站),5号线,北京市,北京市,东小口,交通设施服务;地铁站;地铁站
116.288865,40.148278,沙河(地铁站),昌平线,北京市,北京市,沙河,交通设施服务;地铁站;地铁站
116.412684,40.066612,天通苑南(地铁站),5号线,北京市,北京市,立水桥,交通设施服务;地铁站;地铁站
116.442154,40.068580,天通苑东(地铁站),(在建)17号线北段,北京市,北京市,天通苑,交通设施服务;地铁站;地铁站
116.360286,40.071857,霍营(地铁站),13号线;8号线,北京市,北京市,回龙观,交通设施服务;地铁站;地铁站
116.319429,40.070882,龙泽(地铁站),13号线,北京市,北京市,回龙观,交通设施服务;地铁站;地铁站
116.412888,40.083668,天通苑北(地铁站),5号线,北京市,北京市,东小口,交通设施服务;地铁站;地铁站
116.363025,40.081175,回龙观东大街(地铁站),8号线,北京市,北京市,回龙观,交通设施服务;地铁站;地铁站
116.350425,40.090607,平西府(地铁站),8号线,北京市,北京市,回龙观,交通设施服务;地铁站;地铁站
116.326992,40.087863,育知路(地铁站),8号线,北京市,北京市,回龙观,交通设施服务;地铁站;地铁站
116.294230,40.094790,生命科学园(地铁站),昌平线,北京市,北京市,回龙观,交通设施服务;地铁站;地铁站
116.313698,40.104297,朱辛庄(地铁站),8号线;昌平线,北京市,北京市,回龙观,交通设施服务;地铁站;地铁站
116.467920,40.112789,未来科技城南(地铁站),(在建)17号线北段,北京市,北京市,北七家,交通设施服务;地铁站;地铁站
116.469014,40.127820,未来科技城北(地铁站),(在建)17号线北段,北京市,北京市,,交通设施服务;地铁站;地铁站
116.293979,40.130900,巩华城(地铁站),昌平线,北京市,北京市,,交通设施服务;地铁站;地铁站
116.280465,40.164666,沙河高教园(地铁站),昌平线,北京市,北京市,,交通设施服务;地铁站;地铁站
116.287534,40.207484,南邵(地铁站),昌平线,北京市,北京市,南邵,交通设施服务;地铁站;地铁站
116.281949,40.222001,北邵洼(地铁站),昌平线,北京市,北京市,,交通设施服务;地铁站;地铁站
116.262059,40.221726,昌平东关(地铁站),昌平线,北京市,北京市,,交通设施服务;地铁站;地铁站
116.233590,40.220550,昌平(地铁站),昌平线,北京市,北京市,,交通设施服务;地铁站;地铁站
116.207637,40.240214,十三陵景区(地铁站),昌平线,北京市,北京市,,交通设施服务;地铁站;地铁站
116.195369,40.244629,昌平西山口(地铁站),昌平线,北京市,北京市,,交通设施服务;地铁站;地铁站
116.212692,39.763871,长阳(地铁站),房山线,北京市,北京市,,交通设施服务;地铁站;地铁站
116.218840,39.794885,稻田(地铁站),房山线,北京市,北京市,,交通设施服务;地铁站;地铁站
116.189486,39.760636,篱笆房(地铁站),房山线,北京市,北京市,,交通设施服务;地铁站;地铁站
116.184985,39.747930,广阳城(地铁站),房山线,北京市,北京市,,交通设施服务;地铁站;地铁站
116.183480,39.729906,良乡大学城北(地铁站),房山线,北京市,北京市,,交通设施服务;地铁站;地铁站
116.176541,39.723159,良乡大学城(地铁站),房山线,北京市,北京市,,交通设施服务;地铁站;地铁站
116.156282,39.723157,良乡大学城西(地铁站),房山线,北京市,北京市,良乡,交通设施服务;地铁站;地铁站
116.140804,39.723202,良乡南关(地铁站),房山线,北京市,北京市,良乡,交通设施服务;地铁站;地铁站
116.125306,39.723188,苏庄(地铁站),房山线,北京市,北京市,良乡,交通设施服务;地铁站;地铁站
116.100817,39.729028,阎村东(地铁站),房山线;燕房线,北京市,北京市,,交通设施服务;地铁站;地铁站
116.086720,39.724606,紫草坞(地铁站),燕房线,北京市,北京市,,交通设施服务;地铁站;地铁站
116.080165,39.716731,阎村(地铁站),燕房线,北京市,北京市,,交通设施服务;地铁站;地铁站
116.061370,39.713681,星城(地铁站),燕房线,北京市,北京市,,交通设施服务;地铁站;地铁站
116.039906,39.709893,大石河东(地铁站),燕房线,北京市,北京市,,交通设施服务;地铁站;地铁站
116.016606,39.705103,马各庄(地铁站),燕房线,北京市,北京市,,交通设施服务;地铁站;地铁站
116.006103,39.701471,饶乐府(地铁站),(在建)燕房线支线;燕房线,北京市,北京市,,交通设施服务;地铁站;地铁站
115.989599,39.706061,房山城关(地铁站),燕房线,北京市,北京市,房山城关,交通设施服务;地铁站;地铁站
115.973395,39.719615,燕山(地铁站),燕房线,北京市,北京市,燕山,交通设施服务;地铁站;地铁站
115.987957,39.693188,老城区(地铁站),(在建)燕房线支线,北京市,北京市,房山城关,交通设施服务;地铁站;地铁站
115.977654,39.681906,顾册(地铁站),(在建)燕房线支线,北京市,北京市,,交通设施服务;地铁站;地铁站
115.958678,39.676356,周口店镇(地铁站),(在建)燕房线支线,北京市,北京市,,交通设施服务;地铁站;地铁站
116.374072,39.907383,西单(地铁站),1号线;4号线/大兴线,北京市,北京市,西单,交通设施服务;地铁站;地铁站
116.355426,39.940474,西直门(地铁站),13号线;2号线;4号线/大兴线,北京市,北京市,西直门,交通设施服务;地铁站;地铁站
116.391278,39.907472,天安门西(地铁站),1号线,北京市,北京市,,交通设施服务;地铁站;地铁站
116.384209,39.900098,和平门(地铁站),2号线,北京市,北京市,,交通设施服务;地铁站;地铁站
116.384596,39.889486,虎坊桥(地铁站),7号线,北京市,北京市,,交通设施服务;地铁站;地铁站
116.374314,39.899765,宣武门(地铁站),2号线;4号线/大兴线,北京市,北京市,,交通设施服务;地铁站;地铁站
116.373746,39.915912,灵境胡同(地铁站),4号线/大兴线,北京市,北京市,,交通设施服务;地铁站;地铁站
116.374425,39.889296,菜市口(地铁站),4号线/大兴线;7号线,北京市,北京市,,交通设施服务;地铁站;地铁站
116.373332,39.924206,西四(地铁站),4号线/大兴线,北京市,北京市,,交通设施服务;地铁站;地铁站
116.386829,39.933247,北海北(地铁站),6号线,北京市,北京市,,交通设施服务;地铁站;地铁站
116.363234,39.908627,金融街(地铁站),(在建)19号线一期,北京市,北京市,金融街,交通设施服务;地铁站;地铁站
116.363355,39.899433,长椿街(地铁站),2号线,北京市,北京市,,交通设施服务;地铁站;地铁站
116.334550,39.915044,玉渊潭东门(地铁站),(在建)16号线南段;(在建)地铁16号线南段,北京市,北京市,,交通设施服务;地铁站;地铁站
116.396219,39.937583,什刹海(地铁站),8号线,北京市,北京市,,交通设施服务;地铁站;地铁站
116.374383,39.878470,陶然亭(地铁站),4号线/大兴线,北京市,北京市,,交通设施服务;地铁站;地铁站
116.336977,39.877629,红莲南里(地铁站),(在建)16号线南段;(在建)地铁16号线南段,北京市,北京市,红莲,交通设施服务;地铁站;地铁站
116.363540,39.889253,牛街(地铁站),(在建)19号线一期,北京市,北京市,牛街,交通设施服务;地铁站;地铁站
116.356866,39.907242,复兴门(地铁站),1号线;2号线,北京市,北京市,复兴门,交通设施服务;地铁站;地铁站
116.372883,39.933949,平安里(地铁站),(在建)19号线一期;4号线/大兴线;6号线,北京市,北京市,,交通设施服务;地铁站;地铁站
116.358239,39.889418,广安门内(地铁站),7号线,北京市,北京市,广内大街,交通设施服务;地铁站;地铁站
116.352583,39.907234,南礼士路(地铁站),1号线,北京市,北京市,复兴门,交通设施服务;地铁站;地铁站
116.356009,39.923686,阜成门(地铁站),2号线,北京市,北京市,金融街,交通设施服务;地铁站;地铁站
116.393776,39.948972,鼓楼大街(地铁站),2号线;8号线,北京市,北京市,,交通设施服务;地铁站;地铁站
116.367742,39.940667,新街口(地铁站),4号线/大兴线,北京市,北京市,西直门,交通设施服务;地铁站;地铁站
116.354357,39.932397,车公庄(地铁站),2号线;6号线,北京市,北京市,展览路,交通设施服务;地铁站;地铁站
116.373126,39.948653,积水潭(地铁站),(在建)19号线一期;2号线,北京市,北京市,德胜门,交通设施服务;地铁站;地铁站
116.337583,39.907379,木樨地(地铁站),(在建)16号线南段;(在建)地铁16号线南段;1号线,北京市,北京市,月坛,交通设施服务;地铁站;地铁站
116.344082,39.932466,车公庄西(地铁站),6号线,北京市,北京市,展览路,交通设施服务;地铁站;地铁站
116.336455,39.889884,达官营(地铁站),(在建)16号线南段;(在建)地铁16号线南段;7号线,北京市,北京市,广外大街,交通设施服务;地铁站;地铁站
116.339031,39.938250,动物园(地铁站),4号线/大兴线,北京市,北京市,西直门,交通设施服务;地铁站;地铁站
116.327753,39.889954,湾子(地铁站),7号线,北京市,北京市,广安门,交通设施服务;地铁站;地铁站
116.333517,39.933844,二里沟(地铁站),16号线;6号线,北京市,北京市,动物园,交通设施服务;地铁站;地铁站
116.380788,39.968193,马甸(地铁站),(在建)12号线,北京市,北京市,马甸,交通设施服务;地铁站;地铁站
116.321262,39.894763,北京西站(地铁站),7号线;9号线,北京市,北京市,太平桥,交通设施服务;地铁站;地铁站
116.379008,39.865012,北京南站(地铁站),(在建)14号线中段;14号线东段;4号线/大兴线,北京市,北京市,,交通设施服务;地铁站;地铁站
116.423720,39.865621,蒲黄榆(地铁站),14号线东段;5号线,北京市,北京市,方庄,交通设施服务;地铁站;地铁站
116.399839,39.859262,木樨园(地铁站),8号线南段,北京市,北京市,,交通设施服务;地铁站;地铁站
116.440244,39.865868,方庄(地铁站),14号线东段,北京市,北京市,方庄,交通设施服务;地铁站;地铁站
116.422119,39.857521,刘家窑(地铁站),5号线,北京市,北京市,方庄,交通设施服务;地铁站;地铁站
116.365805,39.862723,景风门(地铁站),(在建)14号线中段;(在建)19号线一期,北京市,北京市,右安门,交通设施服务;地铁站;地铁站
116.400301,39.851805,海户屯(地铁站),8号线南段,北京市,北京市,大红门,交通设施服务;地铁站;地铁站
116.371361,39.853109,马家堡(地铁站),4号线/大兴线,北京市,北京市,角门,交通设施服务;地铁站;地铁站
116.354360,39.861117,西铁营(地铁站),(在建)14号线中段,北京市,北京市,右安门,交通设施服务;地铁站;地铁站
116.414103,39.845905,石榴庄(地铁站),10号线,北京市,北京市,大红门,交通设施服务;地铁站;地铁站
116.344609,39.868062,菜户营(地铁站),(在建)14号线中段,北京市,北京市,菜户营,交通设施服务;地铁站;地铁站
116.399154,39.845383,大红门(地铁站),10号线;8号线南段,北京市,北京市,大红门,交通设施服务;地铁站;地铁站
116.385649,39.845135,角门东(地铁站),10号线,北京市,北京市,大红门,交通设施服务;地铁站;地铁站
116.428368,39.845849,宋家庄(地铁站),10号线;5号线;亦庄线,北京市,北京市,宋家庄,交通设施服务;地铁站;地铁站
116.371154,39.845850,角门西(地铁站),10号线;4号线/大兴线,北京市,北京市,角门,交通设施服务;地铁站;地铁站
116.336174,39.867957,丽泽商务区(地铁站),(在建)14号线中段;(在建)16号线南段;(在建)地铁16号线南段,北京市,北京市,太平桥,交通设施服务;地铁站;地铁站
116.453976,39.852227,分钟寺(地铁站),10号线,北京市,北京市,小红门,交通设施服务;地铁站;地铁站
116.401045,39.836715,大红门南(地铁站),8号线南段,北京市,北京市,大红门,交通设施服务;地铁站;地铁站
116.315024,39.887125,六里桥东(地铁站),9号线,北京市,北京市,太平桥,交通设施服务;地铁站;地铁站
116.351387,39.845869,草桥(地铁站),(在建)19号线一期;10号线;大兴机场线,北京市,北京市,草桥,交通设施服务;地铁站;地铁站
116.285798,39.836150,富丰桥(地铁站),(在建)16号线南段;(在建)地铁16号线南段,北京市,北京市,,交通设施服务;地铁站;地铁站
116.370796,39.836135,公益西桥(地铁站),4号线/大兴线,北京市,北京市,角门,交通设施服务;地铁站;地铁站
116.321190,39.867765,东管头(地铁站),(在建)14号线中段,北京市,北京市,太平桥,交通设施服务;地铁站;地铁站
116.272750,39.834950,看丹(地铁站),(在建)16号线南段;(在建)地铁16号线南段,北京市,北京市,,交通设施服务;地铁站;地铁站
116.323101,39.855393,东管头南(地铁站),(在建)16号线南段;(在建)地铁16号线南段;房山线,北京市,北京市,,交通设施服务;地铁站;地铁站
116.333381,39.844433,纪家庙(地铁站),10号线,北京市,北京市,纪家庙村,交通设施服务;地铁站;地铁站
116.302808,39.880239,六里桥(地铁站),10号线;9号线,北京市,北京市,,交通设施服务;地铁站;地铁站
116.258841,39.839114,榆树庄(地铁站),(在建)16号线南段;(在建)地铁16号线南段,北京市,北京市,,交通设施服务;地铁站;地铁站
116.303819,39.866770,西局(地铁站),(在建)14号线中段;10号线;14号线西段,北京市,北京市,,交通设施服务;地铁站;地铁站
116.320202,39.844463,首经贸(地铁站),10号线;房山线,北京市,北京市,纪家庙村,交通设施服务;地铁站;地铁站
116.402073,39.814838,和义(地铁站),8号线南段,北京市,北京市,大红门,交通设施服务;地铁站;地铁站
116.304173,39.858609,泥洼(地铁站),10号线,北京市,北京市,,交通设施服务;地铁站;地铁站
116.230033,39.848410,宛平城(地铁站),(在建)16号线南段;(在建)地铁16号线南段,北京市,北京市,,交通设施服务;地铁站;地铁站
116.346281,39.823792,新发地(地铁站),(在建)19号线一期,北京市,北京市,新发地,交通设施服务;地铁站;地铁站
116.294292,39.866773,七里庄(地铁站),14号线西段;9号线,北京市,北京市,,交通设施服务;地铁站;地铁站
116.304540,39.849639,丰台站(地铁站),(在建)16号线南段;(在建)地铁16号线南段;10号线,北京市,北京市,,交通设施服务;地铁站;地铁站
116.365549,39.812592,新宫(地铁站),(在建)19号线一期;4号线/大兴线,北京市,北京市,南苑,交通设施服务;地铁站;地铁站
116.293857,39.855111,丰台东大街(地铁站),9号线,北京市,北京市,,交通设施服务;地铁站;地铁站
116.320198,39.830030,花乡东桥(地铁站),房山线,北京市,北京市,,交通设施服务;地铁站;地铁站
116.409427,39.805074,东高地(地铁站),8号线南段,北京市,北京市,南苑,交通设施服务;地铁站;地铁站
116.296748,39.840444,丰台南路(地铁站),(在建)16号线南段;(在建)地铁16号线南段;9号线,北京市,北京市,,交通设施服务;地铁站;地铁站
116.418627,39.799287,火箭万源(地铁站),8号线南段,北京市,北京市,东高地,交通设施服务;地铁站;地铁站
116.276061,39.865226,大井(地铁站),14号线西段,北京市,北京市,,交通设施服务;地铁站;地铁站
116.297432,39.832480,科怡路(地铁站),9号线,北京市,北京市,,交通设施服务;地铁站;地铁站
116.313391,39.819590,白盆窑(地铁站),房山线,北京市,北京市,,交通设施服务;地铁站;地铁站
116.297176,39.825233,丰台科技园(地铁站),9号线,北京市,北京市,科技园区,交通设施服务;地铁站;地铁站
116.301889,39.814322,郭公庄(地铁站),9号线;房山线,北京市,北京市,,交通设施服务;地铁站;地铁站
116.253068,39.864841,郭庄子(地铁站),14号线西段,北京市,北京市,,交通设施服务;地铁站;地铁站
116.291681,39.807810,大葆台(地铁站),房山线,北京市,北京市,,交通设施服务;地铁站;地铁站
116.240480,39.859470,大瓦窑(地铁站),14号线西段,北京市,北京市,,交通设施服务;地铁站;地铁站
116.201643,39.861328,园博园(地铁站),14号线西段,北京市,北京市,,交通设施服务;地铁站;地铁站
116.187193,39.858100,张郭庄(地铁站),14号线西段,北京市,北京市,,交通设施服务;地铁站;地铁站
116.337742,39.992894,五道口(地铁站),13号线,北京市,北京市,五道口,交通设施服务;地铁站;地铁站
116.306295,40.053034,西二旗(地铁站),(在建)昌平线南延线;13号线;昌平线,北京市,北京市,西二旗,交通设施服务;地铁站;地铁站
116.273987,39.907456,五棵松(地铁站),1号线,北京市,北京市,五棵松,交通设施服务;地铁站;地铁站
116.334534,39.923392,甘家口(地铁站),(在建)16号线南段;(在建)地铁16号线南段;16号线,北京市,北京市,三里河,交通设施服务;地铁站;地铁站
116.325762,39.923818,白堆子(地铁站),9号线,北京市,北京市,,交通设施服务;地铁站;地铁站
116.321459,39.907422,军事博物馆(地铁站),1号线;9号线,北京市,北京市,,交通设施服务;地铁站;地铁站
116.325680,39.933022,白石桥南(地铁站),6号线;9号线,北京市,北京市,车公庄,交通设施服务;地铁站;地铁站
116.370131,39.967898,北太平庄(地铁站),(在建)12号线;(在建)19号线一期,北京市,北京市,,交通设施服务;地铁站;地铁站
116.325190,39.943114,国家图书馆(地铁站),16号线;4号线/大兴线;9号线,北京市,北京市,北下关,交通设施服务;地铁站;地铁站
116.310347,39.897867,莲花桥(地铁站),10号线,北京市,北京市,公主坟,交通设施服务;地铁站;地铁站
116.309919,39.907469,公主坟(地铁站),10号线;1号线,北京市,北京市,公主坟,交通设施服务;地铁站;地铁站
116.354661,39.967710,蓟门桥(地铁站),(在建)12号线;(在建)昌平线南延线,北京市,北京市,北下关,交通设施服务;地铁站;地铁站
116.369844,39.976603,牡丹园(地铁站),(在建)19号线一期;10号线,北京市,北京市,牡丹园,交通设施服务;地铁站;地铁站
116.345139,39.966612,大钟寺(地铁站),(在建)12号线;13号线,北京市,北京市,北下关,交通设施服务;地铁站;地铁站
116.252914,39.929503,田村(地铁站),6号线,北京市,北京市,,交通设施服务;地铁站;地铁站
116.310683,39.932340,花园桥(地铁站),6号线,北京市,北京市,车公庄,交通设施服务;地铁站;地铁站
116.354098,39.976549,西土城(地铁站),(在建)昌平线南延线;10号线,北京市,北京市,,交通设施服务;地铁站;地铁站
116.323220,39.957904,魏公村(地铁站),4号线/大兴线,北京市,北京市,北下关,交通设施服务;地铁站;地铁站
116.298064,39.923481,西钓鱼台(地铁站),10号线,北京市,北京市,,交通设施服务;地铁站;地铁站
116.309904,39.947773,万寿寺(地铁站),16号线,北京市,北京市,,交通设施服务;地铁站;地铁站
116.294765,39.907474,万寿路(地铁站),1号线,北京市,北京市,五棵松,交通设施服务;地铁站;地铁站
116.339960,39.976476,知春路(地铁站),10号线;13号线,北京市,北京市,,交通设施服务;地铁站;地铁站
116.295467,39.933268,慈寿寺(地铁站),10号线;6号线,北京市,北京市,,交通设施服务;地铁站;地铁站
116.321367,39.966956,人民大学(地铁站),(在建)12号线;4号线/大兴线,北京市,北京市,北下关,交通设施服务;地铁站;地铁站
116.227292,39.932422,廖公庄(地铁站),6号线,北京市,北京市,,交通设施服务;地铁站;地铁站
116.353473,39.986883,学院桥(地铁站),(在建)昌平线南延线,北京市,北京市,五道口,交通设施服务;地铁站;地铁站
116.328709,39.976334,知春里(地铁站),10号线,北京市,北京市,双榆树,交通设施服务;地铁站;地铁站
116.308092,39.962052,苏州桥(地铁站),(在建)12号线;16号线,北京市,北京市,,交通设施服务;地铁站;地铁站
116.293818,39.947923,车道沟(地铁站),10号线,北京市,北京市,世纪城,交通设施服务;地铁站;地铁站
116.314797,40.041090,清河站(地铁站),(在建)昌平线南延线;13号线,北京市,北京市,,交通设施服务;地铁站;地铁站
116.317564,39.975996,海淀黄庄(地铁站),10号线;4号线/大兴线,北京市,北京市,双榆树,交通设施服务;地铁站;地铁站
116.368143,40.001492,北沙滩(地铁站),15号线,北京市,北京市,,交通设施服务;地铁站;地铁站
116.294255,39.958527,长春桥(地铁站),(在建)12号线;10号线,北京市,北京市,,交通设施服务;地铁站;地铁站
116.276531,39.932584,海淀五路居(地铁站),6号线,北京市,北京市,四季青,交通设施服务;地铁站;地铁站
116.306332,39.975642,苏州街(地铁站),10号线;16号线,北京市,北京市,,交通设施服务;地铁站;地铁站
116.352670,40.000958,六道口(地铁站),(在建)昌平线南延线;15号线,北京市,北京市,五道口,交通设施服务;地铁站;地铁站
116.316467,39.983991,中关村(地铁站),4号线/大兴线,北京市,北京市,中关村,交通设施服务;地铁站;地铁站
116.282829,39.957110,远大路(地铁站),(在建)12号线,北京市,北京市,世纪城,交通设施服务;地铁站;地铁站
116.289058,39.965938,火器营(地铁站),10号线,北京市,北京市,世纪城,交通设施服务;地铁站;地铁站
116.274599,39.946104,四季青(地铁站),(在建)12号线,北京市,北京市,四季青,交通设施服务;地铁站;地铁站
116.339530,40.000673,清华东路西口(地铁站),15号线,北京市,北京市,五道口,交通设施服务;地铁站;地铁站
116.293362,39.974408,巴沟(地铁站),10号线;西郊线,北京市,北京市,,交通设施服务;地铁站;地铁站
116.315842,39.992212,北京大学东门(地铁站),4号线/大兴线,北京市,北京市,,交通设施服务;地铁站;地铁站
116.300158,39.985079,万泉河桥(地铁站),16号线,北京市,北京市,万泉河,交通设施服务;地铁站;地铁站
116.352106,40.015273,学清路(地铁站),(在建)昌平线南延线,北京市,北京市,,交通设施服务;地铁站;地铁站
116.310186,39.999662,圆明园(地铁站),4号线/大兴线,北京市,北京市,,交通设施服务;地铁站;地铁站
116.290908,39.998258,西苑(地铁站),16号线;4号线/大兴线,北京市,北京市,西苑,交通设施服务;地铁站;地铁站
116.263248,39.985697,颐和园西门(地铁站),西郊线,北京市,北京市,,交通设施服务;地铁站;地铁站
116.343524,40.034952,上清桥(地铁站),(在建)昌平线南延线,北京市,北京市,清河,交通设施服务;地铁站;地铁站
116.277647,40.002373,北宫门(地铁站),4号线/大兴线,北京市,北京市,,交通设施服务;地铁站;地铁站
116.354580,40.037728,永泰庄(地铁站),8号线,北京市,北京市,永泰,交通设施服务;地铁站;地铁站
116.248100,39.982113,茶棚(地铁站),西郊线,北京市,北京市,,交通设施服务;地铁站;地铁站
116.320193,40.033007,上地(地铁站),13号线,北京市,北京市,上地,交通设施服务;地铁站;地铁站
116.351644,40.046873,西小口(地铁站),8号线,北京市,北京市,西三旗,交通设施服务;地铁站;地铁站
116.269956,40.012195,安河桥北(地铁站),4号线/大兴线,北京市,北京市,马连洼,交通设施服务;地铁站;地铁站
116.282272,40.021398,农大南路(地铁站),16号线,北京市,北京市,马连洼,交通设施服务;地铁站;地铁站
116.231977,39.984001,万安(地铁站),西郊线,北京市,北京市,香山,交通设施服务;地铁站;地铁站
116.347328,40.060039,育新(地铁站),8号线,北京市,北京市,西三旗,交通设施服务;地铁站;地铁站
116.272520,40.032637,马连洼(地铁站),16号线,北京市,北京市,马连洼,交通设施服务;地铁站;地铁站
116.215722,39.993537,植物园(地铁站),西郊线,北京市,北京市,香山,交通设施服务;地铁站;地铁站
116.204491,39.994056,香山(地铁站),西郊线,北京市,北京市,香山,交通设施服务;地铁站;地铁站
116.257923,40.048703,西北旺(地铁站),16号线,北京市,北京市,西北旺,交通设施服务;地铁站;地铁站
116.248154,40.065575,永丰南(地铁站),16号线,北京市,北京市,西北旺,交通设施服务;地铁站;地铁站
116.238481,40.071868,永丰(地铁站),16号线,北京市,北京市,西北旺,交通设施服务;地铁站;地铁站
116.215850,40.068454,屯佃(地铁站),16号线,北京市,北京市,,交通设施服务;地铁站;地铁站
116.188145,40.068936,稻香湖路(地铁站),16号线,北京市,北京市,,交通设施服务;地铁站;地铁站
116.161361,40.068516,温阳路(地铁站),16号线,北京市,北京市,,交通设施服务;地铁站;地铁站
116.130428,40.068128,北安河(地铁站),16号线,北京市,北京市,,交通设施服务;地铁站;地铁站
