lon,lat,name,address,pname,cityname,business_area,type
104.455045,30.334410,天府机场北(地铁站),(在建)18号线临江段;18号线,四川省,成都市,,交通设施服务;地铁站;地铁站
104.387214,30.278444,福田(地铁站),(在建)资阳线;18号线,四川省,成都市,,交通设施服务;地铁站;地铁站
104.474941,30.348016,临江(地铁站),(在建)18号线临江段,四川省,成都市,,交通设施服务;地铁站;地铁站
104.437416,30.257882,吕家咀(地铁站),(在建)资阳线,四川省,成都市,,交通设施服务;地铁站;地铁站
104.317235,30.311344,三岔(地铁站),18号线,四川省,成都市,,交通设施服务;地铁站;地铁站
104.433223,30.287695,天府机场1号2号航站楼(地铁站),(在建)18号线临江段;18号线,四川省,成都市,,交通设施服务;地铁站;地铁站
104.423068,30.268976,天府机场3号4号航站楼(地铁站),18号线,四川省,成都市,,交通设施服务;地铁站;地铁站
103.880912,30.485344,花源(地铁站),10号线,四川省,成都市,,交通设施服务;地铁站;地铁站
103.873243,30.462959,新津站(地铁站),10号线,四川省,成都市,,交通设施服务;地铁站;地铁站
103.857265,30.441677,花桥(地铁站),10号线,四川省,成都市,,交通设施服务;地铁站;地铁站
103.813341,30.423662,五津(地铁站),10号线,四川省,成都市,五津街道,交通设施服务;地铁站;地铁站
103.803093,30.416325,儒林路(地铁站),10号线,四川省,成都市,五津街道,交通设施服务;地铁站;地铁站
103.791370,30.415220,刘家碾(地铁站),10号线,四川省,成都市,,交通设施服务;地铁站;地铁站
103.781522,30.408331,新平(地铁站),10号线,四川省,成都市,,交通设施服务;地铁站;地铁站
103.818887,30.675357,万盛(地铁站),4号线,四川省,成都市,,交通设施服务;地铁站;地铁站
103.889513,30.676944,凤凰大街(地铁站),4号线,四川省,成都市,涌泉,交通设施服务;地铁站;地铁站
103.873069,30.678405,涌泉(地铁站),4号线,四川省,成都市,,交通设施服务;地铁站;地铁站
103.868437,30.658430,明光(地铁站),17号线,四川省,成都市,,交通设施服务;地铁站;地铁站
103.860554,30.684316,光华公园(地铁站),4号线,四川省,成都市,,交通设施服务;地铁站;地铁站
103.855175,30.672593,温泉大道(地铁站),17号线,四川省,成都市,,交通设施服务;地铁站;地铁站
103.851779,30.689571,南熏大道(地铁站),4号线,四川省,成都市,,交通设施服务;地铁站;地铁站
103.843043,30.686109,凤溪河(地铁站),17号线;4号线,四川省,成都市,凤溪大道,交通设施服务;地铁站;地铁站
103.831101,30.680905,杨柳河(地铁站),4号线,四川省,成都市,,交通设施服务;地铁站;地铁站
103.829423,30.698739,市五医院(地铁站),17号线,四川省,成都市,凤溪大道,交通设施服务;地铁站;地铁站
103.813977,30.721646,黄石(地铁站),17号线,四川省,成都市,,交通设施服务;地铁站;地铁站
103.794066,30.756182,金星(地铁站),17号线,四川省,成都市,,交通设施服务;地铁站;地铁站
104.069204,30.546203,天府三街(地铁站),1号线,四川省,成都市,,交通设施服务;地铁站;地铁站
104.029878,30.634704,红牌楼(地铁站),(在建)10号线三期;3号线,四川省,成都市,,交通设施服务;地铁站;地铁站
104.050409,30.644724,武侯祠(地铁站),(在建)10号线三期,四川省,成都市,,交通设施服务;地铁站;地铁站
104.088167,30.639417,九眼桥(地铁站),(在建)13号线一期,四川省,成都市,小天竺,交通设施服务;地铁站;地铁站
104.022015,30.651695,清水河大桥(地铁站),(在建)17号线二期,四川省,成都市,双楠,交通设施服务;地铁站;地铁站
104.066279,30.642821,华西坝(地铁站),(在建)13号线一期;1号线,四川省,成都市,小天竺,交通设施服务;地铁站;地铁站
104.075161,30.644361,新南门(地铁站),(在建)13号线一期;3号线,四川省,成都市,小天竺,交通设施服务;地铁站;地铁站
103.996636,30.649547,阳公桥(地铁站),(在建)17号线二期,四川省,成都市,龙湖金楠天街,交通设施服务;地铁站;地铁站
104.075933,30.637421,磨子桥(地铁站),3号线,四川省,成都市,小天竺,交通设施服务;地铁站;地铁站
104.066606,30.633361,省体育馆(地铁站),(在建)18号线北延段;1号线;3号线,四川省,成都市,小天竺,交通设施服务;地铁站;地铁站
104.052144,30.634486,衣冠庙(地铁站),3号线,四川省,成都市,衣冠庙,交通设施服务;地铁站;地铁站
104.067951,30.588788,金融城北(地铁站),(在建)30号线一期,四川省,成都市,,交通设施服务;地铁站;地铁站
104.060324,30.588603,益州大道(地铁站),(在建)30号线一期,四川省,成都市,,交通设施服务;地铁站;地铁站
104.042545,30.640044,高升桥(地铁站),(在建)10号线三期;3号线;5号线,四川省,成都市,高升桥,交通设施服务;地铁站;地铁站
104.076990,30.588759,府城桥(地铁站),(在建)30号线一期,四川省,成都市,,交通设施服务;地铁站;地铁站
104.037328,30.588027,庆云村(地铁站),(在建)30号线一期,四川省,成都市,石羊/石羊场,交通设施服务;地铁站;地铁站
104.066885,30.624773,倪家桥(地铁站),(在建)18号线北延段;1号线;8号线,四川省,成都市,倪家桥,交通设施服务;地铁站;地铁站
104.075629,30.625187,川大望江校区(地铁站),8号线,四川省,成都市,跳伞塔,交通设施服务;地铁站;地铁站
104.046902,30.628165,永丰(地铁站),8号线,四川省,成都市,肖家河,交通设施服务;地铁站;地铁站
104.052352,30.626041,芳草街(地铁站),8号线,四川省,成都市,玉林,交通设施服务;地铁站;地铁站
103.963200,30.663012,万家湾(地铁站),(在建)13号线一期,四川省,成都市,,交通设施服务;地铁站;地铁站
104.037829,30.628044,科园(地铁站),5号线,四川省,成都市,肖家河,交通设施服务;地铁站;地铁站
104.069417,30.568417,锦城广场东(地铁站),18号线,四川省,成都市,,交通设施服务;地铁站;地铁站
104.067115,30.615310,桐梓林(地铁站),1号线,四川省,成都市,,交通设施服务;地铁站;地铁站
104.039868,30.620681,九兴大道(地铁站),5号线;8号线,四川省,成都市,肖家河,交通设施服务;地铁站;地铁站
104.034900,30.617521,高朋大道(地铁站),7号线;8号线,四川省,成都市,,交通设施服务;地铁站;地铁站
104.008496,30.651345,龙爪堰(地铁站),(在建)17号线二期;7号线,四川省,成都市,,交通设施服务;地铁站;地铁站
104.012928,30.637011,武侯大道(地铁站),7号线,四川省,成都市,双楠,交通设施服务;地铁站;地铁站
104.021580,30.625381,太平园(地铁站),(在建)10号线三期;10号线;3号线;7号线,四川省,成都市,,交通设施服务;地铁站;地铁站
104.048098,30.610057,神仙树(地铁站),5号线;7号线,四川省,成都市,紫荆,交通设施服务;地铁站;地铁站
104.067393,30.605459,火车南站(地铁站),(在建)18号线北延段;18号线;1号线;7号线,四川省,成都市,,交通设施服务;地铁站;地铁站
104.077460,30.604107,三瓦窑(地铁站),7号线,四川省,成都市,桂溪,交通设施服务;地铁站;地铁站
104.034350,30.605928,殷家林(地铁站),8号线,四川省,成都市,,交通设施服务;地铁站;地铁站
104.006465,30.622935,川藏立交(地铁站),3号线,四川省,成都市,,交通设施服务;地铁站;地铁站
104.063847,30.594368,高新(地铁站),1号线,四川省,成都市,,交通设施服务;地铁站;地铁站
104.050842,30.595183,石羊立交(地铁站),5号线,四川省,成都市,,交通设施服务;地铁站;地铁站
104.033988,30.598394,庆安(地铁站),8号线,四川省,成都市,,交通设施服务;地铁站;地铁站
104.008245,30.611182,簇锦(地铁站),10号线,四川省,成都市,,交通设施服务;地铁站;地铁站
103.993420,30.626960,武侯立交(地铁站),3号线,四川省,成都市,,交通设施服务;地铁站;地铁站
104.050548,30.589302,市一医院(地铁站),(在建)30号线一期;5号线,四川省,成都市,,交通设施服务;地铁站;地铁站
103.977194,30.660111,培风(地铁站),(在建)13号线一期;9号线,四川省,成都市,,交通设施服务;地铁站;地铁站
103.978131,30.646026,机投桥(地铁站),(在建)17号线二期;17号线;9号线,四川省,成都市,机投桥/机投,交通设施服务;地铁站;地铁站
104.064147,30.582579,金融城(地铁站),1号线,四川省,成都市,,交通设施服务;地铁站;地铁站
103.985080,30.623124,武青南路(地铁站),3号线;9号线,四川省,成都市,,交通设施服务;地铁站;地铁站
104.050210,30.581854,交子大道(地铁站),5号线,四川省,成都市,,交通设施服务;地铁站;地铁站
104.031122,30.585472,石羊(地铁站),(在建)30号线一期;8号线,四川省,成都市,石羊/石羊场,交通设施服务;地铁站;地铁站
104.012147,30.591331,太平寺(地铁站),9号线,四川省,成都市,,交通设施服务;地铁站;地铁站
104.001114,30.598405,华兴(地铁站),10号线;9号线,四川省,成都市,,交通设施服务;地铁站;地铁站
103.989923,30.607670,簇桥(地铁站),9号线,四川省,成都市,,交通设施服务;地铁站;地铁站
104.064313,30.575873,孵化园(地铁站),18号线;1号线;9号线,四川省,成都市,,交通设施服务;地铁站;地铁站
104.072500,30.575720,心岛(地铁站),9号线,四川省,成都市,,交通设施服务;地铁站;地铁站
104.026702,30.581493,三元(地铁站),8号线;9号线,四川省,成都市,,交通设施服务;地铁站;地铁站
104.050468,30.574165,锦城大道(地铁站),5号线;9号线,四川省,成都市,,交通设施服务;地铁站;地铁站
103.963309,30.640993,白佛桥(地铁站),17号线,四川省,成都市,,交通设施服务;地铁站;地铁站
104.066528,30.567722,锦城广场(地铁站),1号线,四川省,成都市,,交通设施服务;地铁站;地铁站
103.969203,30.615958,双凤桥(地铁站),3号线,四川省,成都市,,交通设施服务;地铁站;地铁站
104.046135,30.563758,锦城湖(地铁站),5号线,四川省,成都市,,交通设施服务;地铁站;地铁站
104.068930,30.554870,世纪城(地铁站),18号线;1号线,四川省,成都市,,交通设施服务;地铁站;地铁站
103.970064,30.591577,金花(地铁站),10号线,四川省,成都市,,交通设施服务;地铁站;地铁站
104.046226,30.549826,大源(地铁站),5号线,四川省,成都市,,交通设施服务;地铁站;地铁站
104.046521,30.540348,民乐(地铁站),5号线,四川省,成都市,,交通设施服务;地铁站;地铁站
104.069510,30.537107,天府五街(地铁站),1号线,四川省,成都市,,交通设施服务;地铁站;地铁站
104.075713,30.510752,广都(地铁站),1号线,四川省,成都市,,交通设施服务;地铁站;地铁站
104.070125,30.516133,四河(地铁站),1号线,四川省,成都市,,交通设施服务;地铁站;地铁站
104.069836,30.525746,华府大道(地铁站),1号线,四川省,成都市,,交通设施服务;地铁站;地铁站
104.018413,30.573996,顺风村(地铁站),(在建)30号线一期,四川省,成都市,,交通设施服务;地铁站;地铁站
103.998558,30.563747,谢家渡(地铁站),(在建)30号线一期,四川省,成都市,,交通设施服务;地铁站;地铁站
103.987988,30.561877,长城路(地铁站),(在建)30号线一期,四川省,成都市,,交通设施服务;地铁站;地铁站
103.976804,30.561285,星月(地铁站),(在建)30号线一期,四川省,成都市,,交通设施服务;地铁站;地铁站
103.964822,30.558759,月儿村(地铁站),(在建)30号线一期,四川省,成都市,,交通设施服务;地铁站;地铁站
103.972721,30.536182,龙港(地铁站),(在建)19号线二期;(在建)8号线二期南延段,四川省,成都市,,交通设施服务;地铁站;地铁站
104.009362,30.497873,温家山(地铁站),(在建)19号线二期,四川省,成都市,,交通设施服务;地铁站;地铁站
104.011149,30.485128,牧华路(地铁站),(在建)19号线二期,四川省,成都市,,交通设施服务;地铁站;地铁站
103.904680,30.535723,应天寺(地铁站),10号线,四川省,成都市,,交通设施服务;地铁站;地铁站
104.041819,30.452590,正兴湾(地铁站),(在建)19号线二期,四川省,成都市,,交通设施服务;地铁站;地铁站
103.891339,30.518980,黄水(地铁站),10号线,四川省,成都市,,交通设施服务;地铁站;地铁站
104.063739,30.433002,红莲(地铁站),(在建)19号线二期,四川省,成都市,,交通设施服务;地铁站;地铁站
104.010964,30.577149,顺风(地铁站),8号线,四川省,成都市,,交通设施服务;地铁站;地铁站
104.104728,30.416489,蓝家店(地铁站),(在建)19号线二期,四川省,成都市,兴隆街道,交通设施服务;地铁站;地铁站
104.096073,30.558558,中和(地铁站),6号线,四川省,成都市,中和,交通设施服务;地铁站;地铁站
104.008139,30.566270,珠江路(地铁站),(在建)30号线一期;8号线,四川省,成都市,白家,交通设施服务;地铁站;地铁站
104.098380,30.550135,张家寺(地铁站),6号线,四川省,成都市,中和,交通设施服务;地铁站;地铁站
104.167745,30.383881,合江(地铁站),(在建)19号线二期,四川省,成都市,,交通设施服务;地铁站;地铁站
104.007095,30.555238,川大江安校区(地铁站),8号线,四川省,成都市,,交通设施服务;地铁站;地铁站
103.943744,30.604427,龙桥路(地铁站),(在建)19号线二期;3号线,四川省,成都市,,交通设施服务;地铁站;地铁站
104.098365,30.537797,陆肖(地铁站),6号线,四川省,成都市,,交通设施服务;地铁站;地铁站
103.921485,30.634527,九江北(地铁站),(在建)19号线二期;17号线,四川省,成都市,九江,交通设施服务;地铁站;地铁站
103.990564,30.550592,文星(地铁站),8号线,四川省,成都市,,交通设施服务;地铁站;地铁站
103.936874,30.591323,航都大街(地铁站),3号线,四川省,成都市,东升,交通设施服务;地铁站;地铁站
104.098372,30.530920,观东(地铁站),6号线,四川省,成都市,,交通设施服务;地铁站;地铁站
103.979376,30.546250,莲花(地铁站),(在建)8号线二期南延段;8号线,四川省,成都市,,交通设施服务;地铁站;地铁站
104.044347,30.525565,骑龙(地铁站),5号线,四川省,成都市,,交通设施服务;地铁站;地铁站
103.934920,30.580647,迎春桥(地铁站),3号线,四川省,成都市,东升,交通设施服务;地铁站;地铁站
104.098444,30.521927,新通大道(地铁站),6号线,四川省,成都市,,交通设施服务;地铁站;地铁站
104.100502,30.515663,新川路(地铁站),6号线,四川省,成都市,,交通设施服务;地铁站;地铁站
104.039691,30.512303,警官学院(地铁站),5号线,四川省,成都市,,交通设施服务;地铁站;地铁站
103.925316,30.571218,东升(地铁站),3号线,四川省,成都市,东升,交通设施服务;地铁站;地铁站
104.101212,30.509023,龙灯山(地铁站),6号线,四川省,成都市,,交通设施服务;地铁站;地铁站
104.070521,30.503167,华阳(地铁站),1号线,四川省,成都市,,交通设施服务;地铁站;地铁站
103.920196,30.564269,双流广场(地铁站),3号线,四川省,成都市,东升,交通设施服务;地铁站;地铁站
104.081369,30.502041,五根松(地铁站),1号线,四川省,成都市,,交通设施服务;地铁站;地铁站
104.098450,30.501634,蒲草塘(地铁站),6号线,四川省,成都市,,交通设施服务;地铁站;地铁站
104.035727,30.499615,二江寺(地铁站),5号线,四川省,成都市,,交通设施服务;地铁站;地铁站
104.099451,30.494865,万安(地铁站),6号线,四川省,成都市,,交通设施服务;地铁站;地铁站
104.071583,30.492778,海昌路(地铁站),18号线;1号线,四川省,成都市,,交通设施服务;地铁站;地铁站
103.914567,30.553562,三里坝(地铁站),3号线,四川省,成都市,,交通设施服务;地铁站;地铁站
103.917258,30.543286,双流西站(地铁站),10号线;3号线,四川省,成都市,,交通设施服务;地铁站;地铁站
104.033106,30.488471,南湖立交(地铁站),5号线,四川省,成都市,,交通设施服务;地铁站;地铁站
104.103418,30.483027,麓山大道(地铁站),6号线,四川省,成都市,万安,交通设施服务;地铁站;地铁站
104.069325,30.478693,广福(地铁站),1号线,四川省,成都市,,交通设施服务;地铁站;地铁站
104.026786,30.471185,怡心湖(地铁站),(在建)19号线二期;5号线,四川省,成都市,,交通设施服务;地铁站;地铁站
104.101504,30.467349,沈阳路(地铁站),6号线,四川省,成都市,,交通设施服务;地铁站;地铁站
104.073007,30.464257,红石公园(地铁站),1号线,四川省,成都市,,交通设施服务;地铁站;地铁站
104.101962,30.458181,青岛路(地铁站),6号线,四川省,成都市,,交通设施服务;地铁站;地铁站
104.073293,30.454527,麓湖(地铁站),1号线,四川省,成都市,,交通设施服务;地铁站;地铁站
104.019840,30.457463,龙马路(地铁站),5号线,四川省,成都市,,交通设施服务;地铁站;地铁站
104.093889,30.448314,昌公堰(地铁站),6号线,四川省,成都市,,交通设施服务;地铁站;地铁站
104.072910,30.441619,武汉路(地铁站),1号线,四川省,成都市,,交通设施服务;地铁站;地铁站
104.011886,30.444594,回龙(地铁站),5号线;6号线,四川省,成都市,,交通设施服务;地铁站;地铁站
104.089327,30.438890,杭州路(地铁站),6号线,四川省,成都市,,交通设施服务;地铁站;地铁站
103.996613,30.443288,兰家沟(地铁站),6号线,四川省,成都市,,交通设施服务;地铁站;地铁站
104.032538,30.436419,钓鱼嘴(地铁站),6号线,四川省,成都市,,交通设施服务;地铁站;地铁站
104.077748,30.432976,天府公园(地铁站),1号线,四川省,成都市,,交通设施服务;地铁站;地铁站
104.037716,30.431577,芦角(地铁站),6号线,四川省,成都市,,交通设施服务;地铁站;地铁站
104.086259,30.430018,天府商务区(地铁站),(在建)19号线二期;6号线,四川省,成都市,,交通设施服务;地铁站;地铁站
104.074399,30.424349,西博城(地铁站),18号线;1号线;6号线,四川省,成都市,,交通设施服务;地铁站;地铁站
104.046579,30.425825,松林(地铁站),6号线,四川省,成都市,,交通设施服务;地铁站;地铁站
104.061844,30.424489,秦皇寺(地铁站),6号线,四川省,成都市,,交通设施服务;地铁站;地铁站
104.077269,30.419021,广州路(地铁站),1号线,四川省,成都市,,交通设施服务;地铁站;地铁站
104.102652,30.409471,兴隆(地铁站),18号线,四川省,成都市,,交通设施服务;地铁站;地铁站
104.076412,30.405196,兴隆湖(地铁站),1号线,四川省,成都市,,交通设施服务;地铁站;地铁站
104.072328,30.391243,科学城(地铁站),1号线,四川省,成都市,,交通设施服务;地铁站;地铁站
104.151016,30.390254,天府新站(地铁站),(在建)19号线二期;18号线,四川省,成都市,,交通设施服务;地铁站;地铁站
103.959257,30.578543,双流机场1航站楼(地铁站),10号线,四川省,成都市,,交通设施服务;地铁站;地铁站
103.955607,30.569892,双流机场2航站楼(地铁站),(在建)19号线二期;(在建)30号线一期;10号线,四川省,成都市,,交通设施服务;地铁站;地铁站
103.970071,30.757860,犀浦(地铁站),2号线;6号线,四川省,成都市,犀浦,交通设施服务;地铁站;地铁站
103.976163,30.745883,天河路(地铁站),2号线,四川省,成都市,犀浦,交通设施服务;地铁站;地铁站
103.878059,30.807224,望丛祠(地铁站),6号线,四川省,成都市,郫筒,交通设施服务;地铁站;地铁站
103.979327,30.733062,百草路(地铁站),2号线,四川省,成都市,,交通设施服务;地铁站;地铁站
103.993321,30.747926,梓潼宫(地铁站),6号线,四川省,成都市,犀浦,交通设施服务;地铁站;地铁站
103.983315,30.758700,交大兴业北街(地铁站),6号线,四川省,成都市,,交通设施服务;地铁站;地铁站
103.954520,30.754129,天宇路(地铁站),6号线,四川省,成都市,犀浦,交通设施服务;地铁站;地铁站
103.937108,30.769421,红高路(地铁站),6号线,四川省,成都市,,交通设施服务;地铁站;地铁站
103.923420,30.777337,尚锦路(地铁站),6号线,四川省,成都市,,交通设施服务;地铁站;地铁站
103.914420,30.784593,檬梓(地铁站),6号线,四川省,成都市,,交通设施服务;地铁站;地铁站
103.903524,30.790999,蜀新大道(地铁站),6号线,四川省,成都市,,交通设施服务;地铁站;地铁站
103.894570,30.796057,郫筒(地铁站),6号线,四川省,成都市,郫筒,交通设施服务;地铁站;地铁站
103.887279,30.800421,和平街(地铁站),6号线,四川省,成都市,郫筒,交通设施服务;地铁站;地铁站
104.074056,30.695517,火车北站(地铁站),(在建)18号线北延段;1号线;7号线,四川省,成都市,,交通设施服务;地铁站;地铁站
104.080606,30.678843,城隍庙(地铁站),(在建)17号线二期,四川省,成都市,驷马桥,交通设施服务;地铁站;地铁站
104.029653,30.707847,花照壁北(地铁站),(在建)27号线一期,四川省,成都市,,交通设施服务;地铁站;地铁站
104.022961,30.704365,金牛公园(地铁站),(在建)27号线一期,四川省,成都市,,交通设施服务;地铁站;地铁站
104.068431,30.717669,王贾桥(地铁站),(在建)27号线一期,四川省,成都市,,交通设施服务;地铁站;地铁站
104.044436,30.717283,新桥(地铁站),(在建)27号线一期,四川省,成都市,,交通设施服务;地铁站;地铁站
104.049589,30.722411,沙河源(地铁站),(在建)27号线一期,四川省,成都市,,交通设施服务;地铁站;地铁站
104.073056,30.684833,人民北路(地铁站),1号线;6号线,四川省,成都市,,交通设施服务;地铁站;地铁站
104.042105,30.677314,抚琴(地铁站),5号线,四川省,成都市,抚琴,交通设施服务;地铁站;地铁站
104.058153,30.685632,西北桥(地铁站),5号线;6号线,四川省,成都市,,交通设施服务;地铁站;地铁站
104.083337,30.682348,梁家巷(地铁站),6号线,四川省,成都市,驷马桥,交通设施服务;地铁站;地铁站
104.047840,30.683479,花牌坊(地铁站),5号线,四川省,成都市,,交通设施服务;地铁站;地铁站
104.088767,30.734051,赖家店(地铁站),(在建)27号线一期,四川省,成都市,,交通设施服务;地铁站;地铁站
104.033278,30.673851,白果林(地铁站),2号线,四川省,成都市,抚琴,交通设施服务;地铁站;地铁站
104.051085,30.689200,沙湾(地铁站),6号线,四川省,成都市,,交通设施服务;地铁站;地铁站
104.066153,30.693759,北站西二路(地铁站),5号线;7号线,四川省,成都市,,交通设施服务;地铁站;地铁站
104.091760,30.741344,白仁店(地铁站),(在建)27号线一期,四川省,成都市,,交通设施服务;地铁站;地铁站
104.057119,30.694640,九里堤(地铁站),7号线,四川省,成都市,九里堤,交通设施服务;地铁站;地铁站
104.049327,30.695066,西南交大(地铁站),6号线;7号线,四川省,成都市,九里堤,交通设施服务;地铁站;地铁站
104.029048,30.682868,蜀汉路东(地铁站),2号线,四川省,成都市,金沙,交通设施服务;地铁站;地铁站
104.066503,30.700600,赛云台(地铁站),5号线,四川省,成都市,五块石,交通设施服务;地铁站;地铁站
104.099567,30.754608,鲤鱼湾(地铁站),(在建)27号线一期,四川省,成都市,天回,交通设施服务;地铁站;地铁站
104.040831,30.696626,花照壁(地铁站),7号线,四川省,成都市,营门口,交通设施服务;地铁站;地铁站
104.100526,30.759186,范家巷(地铁站),(在建)27号线一期,四川省,成都市,,交通设施服务;地铁站;地铁站
104.044112,30.702312,星河(地铁站),6号线,四川省,成都市,九里堤,交通设施服务;地铁站;地铁站
104.030835,30.696229,茶店子(地铁站),7号线,四川省,成都市,,交通设施服务;地铁站;地铁站
104.064554,30.707379,五块石(地铁站),5号线,四川省,成都市,五块石,交通设施服务;地铁站;地铁站
104.019630,30.688942,一品天下(地铁站),2号线;7号线,四川省,成都市,金沙,交通设施服务;地铁站;地铁站
104.101233,30.771416,三圣寺(地铁站),(在建)27号线一期,四川省,成都市,,交通设施服务;地铁站;地铁站
104.101300,30.776158,石门坎(地铁站),(在建)27号线一期,四川省,成都市,天回,交通设施服务;地铁站;地铁站
104.059827,30.714537,福宁路(地铁站),5号线,四川省,成都市,,交通设施服务;地铁站;地铁站
104.012655,30.693913,羊犀立交(地铁站),(在建)27号线一期;2号线,四川省,成都市,黄忠村,交通设施服务;地铁站;地铁站
104.036925,30.711419,金府(地铁站),(在建)27号线一期;6号线,四川省,成都市,,交通设施服务;地铁站;地铁站
104.086860,30.717644,韦家碾(地铁站),(在建)27号线一期;1号线,四川省,成都市,,交通设施服务;地铁站;地铁站
104.058471,30.721527,洞子口(地铁站),(在建)27号线一期;5号线,四川省,成都市,沙河源,交通设施服务;地铁站;地铁站
104.013692,30.705986,茶店子客运站(地铁站),2号线,四川省,成都市,,交通设施服务;地铁站;地铁站
104.031483,30.718427,西华大道(地铁站),6号线,四川省,成都市,,交通设施服务;地铁站;地铁站
104.013528,30.713168,迎宾大道(地铁站),2号线,四川省,成都市,金泉,交通设施服务;地铁站;地铁站
104.058375,30.730369,泉水路(地铁站),5号线,四川省,成都市,沙河源,交通设施服务;地铁站;地铁站
104.025926,30.725551,青杠(地铁站),6号线,四川省,成都市,,交通设施服务;地铁站;地铁站
104.006635,30.720762,金科北路(地铁站),2号线,四川省,成都市,金泉,交通设施服务;地铁站;地铁站
104.021489,30.730787,兴盛(地铁站),6号线,四川省,成都市,,交通设施服务;地铁站;地铁站
104.059091,30.742274,陆家桥(地铁站),5号线,四川省,成都市,,交通设施服务;地铁站;地铁站
103.996175,30.721638,金周路(地铁站),2号线,四川省,成都市,金泉,交通设施服务;地铁站;地铁站
104.004671,30.737026,侯家桥(地铁站),6号线,四川省,成都市,,交通设施服务;地铁站;地铁站
104.114167,30.744748,军区总医院(地铁站),3号线,四川省,成都市,天回,交通设施服务;地铁站;地铁站
104.075258,30.771585,杜家碾(地铁站),5号线,四川省,成都市,,交通设施服务;地铁站;地铁站
104.082896,30.771588,九道堰(地铁站),5号线,四川省,成都市,,交通设施服务;地铁站;地铁站
104.121300,30.763356,植物园(地铁站),3号线,四川省,成都市,天回,交通设施服务;地铁站;地铁站
104.088262,30.776951,幸福桥(地铁站),5号线,四川省,成都市,,交通设施服务;地铁站;地铁站
104.088961,30.791089,北部商贸城(地铁站),5号线,四川省,成都市,,交通设施服务;地铁站;地铁站
104.267966,30.560111,龙泉驿(地铁站),2号线,四川省,成都市,龙泉,交通设施服务;地铁站;地铁站
104.167463,30.612540,洪河东(地铁站),(在建)30号线一期,四川省,成都市,,交通设施服务;地铁站;地铁站
104.178118,30.611704,菱角堰(地铁站),(在建)30号线一期,四川省,成都市,,交通设施服务;地铁站;地铁站
104.195160,30.609876,洪家桥(地铁站),(在建)30号线一期,四川省,成都市,,交通设施服务;地铁站;地铁站
104.178616,30.571230,龙华寺(地铁站),(在建)13号线一期,四川省,成都市,,交通设施服务;地铁站;地铁站
104.193186,30.564388,龙安(地铁站),(在建)13号线一期,四川省,成都市,,交通设施服务;地铁站;地铁站
104.164475,30.646859,来龙(地铁站),4号线,四川省,成都市,,交通设施服务;地铁站;地铁站
104.152086,30.612075,惠王陵(地铁站),(在建)30号线一期;2号线,四川省,成都市,洪河,交通设施服务;地铁站;地铁站
104.172438,30.645829,十陵(地铁站),4号线,四川省,成都市,,交通设施服务;地铁站;地铁站
104.157510,30.605015,洪河(地铁站),2号线,四川省,成都市,,交通设施服务;地铁站;地铁站
104.181182,30.646689,成都大学(地铁站),4号线,四川省,成都市,,交通设施服务;地铁站;地铁站
104.170954,30.596975,成都行政学院(地铁站),2号线,四川省,成都市,,交通设施服务;地铁站;地铁站
104.196346,30.648178,明蜀王陵(地铁站),4号线,四川省,成都市,,交通设施服务;地铁站;地铁站
104.220298,30.647276,西河(地铁站),4号线,四川省,成都市,,交通设施服务;地铁站;地铁站
104.201298,30.592400,大面铺(地铁站),2号线,四川省,成都市,,交通设施服务;地铁站;地铁站
104.212757,30.587580,连山坡(地铁站),2号线,四川省,成都市,,交通设施服务;地铁站;地铁站
104.225134,30.582802,界牌(地铁站),2号线,四川省,成都市,,交通设施服务;地铁站;地铁站
104.242134,30.575626,书房(地铁站),2号线,四川省,成都市,,交通设施服务;地铁站;地铁站
104.258988,30.572923,龙平路(地铁站),2号线,四川省,成都市,龙泉,交通设施服务;地铁站;地铁站
104.138911,30.784689,三河场(地铁站),3号线,四川省,成都市,三河,交通设施服务;地铁站;地铁站
104.104932,30.798863,旃檀寺(地铁站),(在建)27号线一期,四川省,成都市,,交通设施服务;地铁站;地铁站
104.109258,30.809472,兴城大道(地铁站),(在建)27号线一期,四川省,成都市,,交通设施服务;地铁站;地铁站
104.114170,30.818347,慈义(地铁站),(在建)27号线一期,四川省,成都市,,交通设施服务;地铁站;地铁站
104.103004,30.828728,石佛(地铁站),(在建)27号线一期,四川省,成都市,,交通设施服务;地铁站;地铁站
104.059721,30.752331,皇花园(地铁站),5号线,四川省,成都市,,交通设施服务;地铁站;地铁站
104.059768,30.760279,石犀公园(地铁站),5号线,四川省,成都市,,交通设施服务;地铁站;地铁站
104.065109,30.771615,大丰(地铁站),5号线,四川省,成都市,,交通设施服务;地铁站;地铁站
104.125448,30.770408,金华寺东路(地铁站),3号线,四川省,成都市,天回,交通设施服务;地铁站;地铁站
104.090959,30.808360,廖家湾(地铁站),5号线,四川省,成都市,,交通设施服务;地铁站;地铁站
104.153310,30.797452,锦水河(地铁站),3号线,四川省,成都市,,交通设施服务;地铁站;地铁站
104.094232,30.815507,柏水场(地铁站),5号线,四川省,成都市,斑竹园,交通设施服务;地铁站;地铁站
104.158768,30.804386,团结新区(地铁站),3号线,四川省,成都市,,交通设施服务;地铁站;地铁站
104.098314,30.825126,华桂路(地铁站),5号线,四川省,成都市,,交通设施服务;地铁站;地铁站
104.164715,30.813145,马超西路(地铁站),3号线,四川省,成都市,,交通设施服务;地铁站;地铁站
104.175313,30.820962,钟楼(地铁站),3号线,四川省,成都市,,交通设施服务;地铁站;地铁站
104.186600,30.818753,石油大学(地铁站),3号线,四川省,成都市,,交通设施服务;地铁站;地铁站
104.194681,30.816912,成都医学院(地铁站),3号线,四川省,成都市,,交通设施服务;地铁站;地铁站
104.140357,30.629330,成都东客站(地铁站),2号线;7号线,四川省,成都市,,交通设施服务;地铁站;地铁站
104.108637,30.675283,踏水桥(地铁站),(在建)17号线二期,四川省,成都市,建设路,交通设施服务;地铁站;地铁站
104.076405,30.713087,双水碾(地铁站),(在建)27号线一期,四川省,成都市,,交通设施服务;地铁站;地铁站
104.090526,30.671208,红星桥(地铁站),(在建)17号线二期;3号线,四川省,成都市,猛追湾,交通设施服务;地铁站;地铁站
104.134352,30.688059,机车厂(地铁站),(在建)17号线二期,四川省,成都市,,交通设施服务;地铁站;地铁站
104.099315,30.653452,玉双路(地铁站),4号线;6号线,四川省,成都市,双林路,交通设施服务;地铁站;地铁站
104.092124,30.679037,前锋路(地铁站),3号线;6号线,四川省,成都市,李家沱,交通设施服务;地铁站;地铁站
104.102366,30.662072,新鸿路(地铁站),6号线,四川省,成都市,新鸿路,交通设施服务;地铁站;地铁站
104.153575,30.689583,圣灯公园(地铁站),(在建)8号线二期北延段,四川省,成都市,,交通设施服务;地铁站;地铁站
104.153862,30.689604,人民塘(地铁站),(在建)17号线二期,四川省,成都市,,交通设施服务;地铁站;地铁站
104.160768,30.696279,龙潭立交(地铁站),(在建)8号线二期北延段,四川省,成都市,,交通设施服务;地铁站;地铁站
104.166954,30.688687,航天路(地铁站),(在建)17号线二期,四川省,成都市,龙潭寺,交通设施服务;地铁站;地铁站
104.094528,30.689393,李家沱(地铁站),3号线,四川省,成都市,李家沱,交通设施服务;地铁站;地铁站
104.166114,30.703072,龙潭寺(地铁站),(在建)8号线二期北延段,四川省,成都市,龙潭,交通设施服务;地铁站;地铁站
104.114948,30.654810,万年路(地铁站),8号线,四川省,成都市,万年场,交通设施服务;地铁站;地铁站
104.113278,30.646975,双桥路(地铁站),4号线;8号线,四川省,成都市,双桥子,交通设施服务;地铁站;地铁站
104.093329,30.695502,驷马桥(地铁站),3号线;7号线,四川省,成都市,驷马桥,交通设施服务;地铁站;地铁站
104.179493,30.689252,威灵(地铁站),(在建)17号线二期,四川省,成都市,龙潭,交通设施服务;地铁站;地铁站
104.169320,30.711160,同乐(地铁站),(在建)8号线二期北延段,四川省,成都市,龙潭,交通设施服务;地铁站;地铁站
104.119292,30.664170,杉板桥(地铁站),8号线,四川省,成都市,建设路,交通设施服务;地铁站;地铁站
104.083474,30.704625,升仙湖(地铁站),1号线,四川省,成都市,,交通设施服务;地铁站;地铁站
104.119188,30.644231,万年场(地铁站),4号线,四川省,成都市,万年场,交通设施服务;地铁站;地铁站
104.178938,30.716609,桂林(地铁站),(在建)8号线二期北延段,四川省,成都市,龙潭,交通设施服务;地铁站;地铁站
104.107227,30.694472,府青路(地铁站),7号线,四川省,成都市,府青路,交通设施服务;地铁站;地铁站
104.194881,30.690154,高洪(地铁站),(在建)17号线二期,四川省,成都市,,交通设施服务;地铁站;地铁站
104.096821,30.702922,昭觉寺南路(地铁站),3号线,四川省,成都市,驷马桥,交通设施服务;地铁站;地铁站
104.187464,30.718319,桂龙路(地铁站),(在建)8号线二期北延段,四川省,成都市,,交通设施服务;地铁站;地铁站
104.118056,30.687128,八里庄(地铁站),7号线,四川省,成都市,二仙桥,交通设施服务;地铁站;地铁站
104.129064,30.668561,东郊记忆(地铁站),8号线,四川省,成都市,建设路,交通设施服务;地铁站;地铁站
104.126360,30.680880,二仙桥(地铁站),(在建)17号线二期;7号线,四川省,成都市,建设路,交通设施服务;地铁站;地铁站
104.136427,30.665420,崔家店(地铁站),7号线,四川省,成都市,二仙桥,交通设施服务;地铁站;地铁站
104.136956,30.657581,双店路(地铁站),7号线,四川省,成都市,保和,交通设施服务;地铁站;地铁站
104.103142,30.713648,动物园(地铁站),3号线,四川省,成都市,,交通设施服务;地铁站;地铁站
104.137900,30.673375,理工大学(地铁站),7号线;8号线,四川省,成都市,二仙桥,交通设施服务;地铁站;地铁站
104.139309,30.648877,槐树店(地铁站),4号线;7号线,四川省,成都市,保和,交通设施服务;地铁站;地铁站
104.139649,30.638288,迎晖路(地铁站),7号线,四川省,成都市,保和,交通设施服务;地铁站;地铁站
104.133057,30.621601,大观(地铁站),7号线,四川省,成都市,,交通设施服务;地铁站;地铁站
104.144194,30.679527,十里店(地铁站),(在建)8号线二期北延段;8号线,四川省,成都市,二仙桥,交通设施服务;地铁站;地铁站
104.108002,30.725447,熊猫大道(地铁站),3号线,四川省,成都市,,交通设施服务;地铁站;地铁站
104.147432,30.624822,成渝立交(地铁站),2号线,四川省,成都市,,交通设施服务;地铁站;地铁站
104.098845,30.671021,电子科大建设北路(地铁站),(在建)17号线二期;6号线,四川省,成都市,建设路,交通设施服务;地铁站;地铁站
104.080019,30.653389,春熙路(地铁站),2号线;3号线,四川省,成都市,大慈寺,交通设施服务;地铁站;地铁站
104.066053,30.650046,锦江宾馆(地铁站),1号线,四川省,成都市,,交通设施服务;地铁站;地铁站
104.083909,30.660814,市二医院(地铁站),3号线;4号线,四川省,成都市,红星路,交通设施服务;地铁站;地铁站
104.087308,30.648192,东门大桥(地铁站),2号线,四川省,成都市,东门大桥,交通设施服务;地铁站;地铁站
104.103384,30.595496,赵家山(地铁站),(在建)30号线一期,四川省,成都市,,交通设施服务;地铁站;地铁站
104.094539,30.645023,牛王庙(地铁站),2号线;6号线,四川省,成都市,双桥子,交通设施服务;地铁站;地铁站
104.115215,30.596755,皇经楼(地铁站),(在建)30号线一期,四川省,成都市,成龙路,交通设施服务;地铁站;地铁站
104.127044,30.600111,娇子立交(地铁站),(在建)13号线一期;(在建)30号线一期,四川省,成都市,成龙路,交通设施服务;地铁站;地铁站
104.140906,30.611769,航天立交(地铁站),(在建)30号线一期,四川省,成都市,,交通设施服务;地铁站;地铁站
104.137078,30.606170,海桐街南(地铁站),(在建)30号线一期,四川省,成都市,成龙路,交通设施服务;地铁站;地铁站
104.093005,30.635579,顺江路(地铁站),6号线,四川省,成都市,莲桂路,交通设施服务;地铁站;地铁站
104.138497,30.592659,幸福梅林(地铁站),(在建)13号线一期,四川省,成都市,成龙路,交通设施服务;地铁站;地铁站
104.094465,30.628385,三官堂(地铁站),(在建)13号线一期;6号线,四川省,成都市,龙舟路,交通设施服务;地铁站;地铁站
104.107662,30.637912,牛市口(地铁站),2号线,四川省,成都市,,交通设施服务;地铁站;地铁站
104.088291,30.619992,东湖公园(地铁站),8号线,四川省,成都市,,交通设施服务;地铁站;地铁站
104.152270,30.584196,三圣花乡(地铁站),(在建)13号线一期,四川省,成都市,成龙路,交通设施服务;地铁站;地铁站
104.112897,30.633167,东大路(地铁站),2号线;8号线,四川省,成都市,,交通设施服务;地铁站;地铁站
104.098493,30.619577,东光(地铁站),6号线;8号线,四川省,成都市,东光,交通设施服务;地铁站;地铁站
104.104410,30.622617,净居寺(地铁站),(在建)13号线一期;8号线,四川省,成都市,东光,交通设施服务;地铁站;地铁站
104.122922,30.629465,塔子山公园(地铁站),2号线,四川省,成都市,,交通设施服务;地铁站;地铁站
104.098928,30.607634,琉璃场(地铁站),6号线;7号线,四川省,成都市,,交通设施服务;地铁站;地铁站
104.098172,30.600351,琉三路(地铁站),6号线,四川省,成都市,,交通设施服务;地铁站;地铁站
104.116054,30.609368,四川师大(地铁站),(在建)13号线一期;7号线,四川省,成都市,川师/四川师大,交通设施服务;地铁站;地铁站
104.124311,30.615942,狮子山(地铁站),7号线,四川省,成都市,川师/四川师大,交通设施服务;地铁站;地铁站
104.089166,30.590285,金石路(地铁站),(在建)30号线一期;6号线,四川省,成都市,,交通设施服务;地铁站;地铁站
104.084201,30.579744,金融城东(地铁站),6号线;9号线,四川省,成都市,,交通设施服务;地铁站;地铁站
104.050679,30.665381,宽窄巷子(地铁站),4号线,四川省,成都市,,交通设施服务;地铁站;地铁站
104.065751,30.657453,天府广场(地铁站),1号线;2号线,四川省,成都市,人民中路,交通设施服务;地铁站;地铁站
104.057359,30.649143,文翁石室(地铁站),(在建)10号线三期;(在建)13号线一期,四川省,成都市,,交通设施服务;地铁站;地铁站
104.052427,30.652942,小南街(地铁站),(在建)13号线一期;(在建)17号线二期,四川省,成都市,小南街,交通设施服务;地铁站;地铁站
104.058133,30.673099,西大街(地铁站),(在建)17号线二期,四川省,成都市,新华西路,交通设施服务;地铁站;地铁站
104.031798,30.650882,浣花里(地铁站),(在建)17号线二期,四川省,成都市,双楠,交通设施服务;地铁站;地铁站
104.029026,30.662500,杜甫草堂(地铁站),(在建)13号线一期,四川省,成都市,草堂,交通设施服务;地铁站;地铁站
104.065617,30.666514,骡马市(地铁站),(在建)18号线北延段;1号线;4号线,四川省,成都市,人民中路,交通设施服务;地铁站;地铁站
104.056779,30.659324,人民公园(地铁站),(在建)10号线三期;(在建)17号线二期;2号线,四川省,成都市,长顺街,交通设施服务;地铁站;地铁站
104.021676,30.662295,光华村(地铁站),(在建)13号线一期,四川省,成都市,,交通设施服务;地铁站;地铁站
104.076578,30.664767,太升南路(地铁站),4号线,四川省,成都市,顺城大街,交通设施服务;地铁站;地铁站
104.068036,30.672535,文殊院(地铁站),1号线,四川省,成都市,江汉路,交通设施服务;地铁站;地铁站
104.048523,30.662088,通惠门(地铁站),2号线,四川省,成都市,,交通设施服务;地铁站;地铁站
104.008702,30.688772,黄忠(地铁站),(在建)27号线一期,四川省,成都市,金沙,交通设施服务;地铁站;地铁站
104.040773,30.660007,青羊宫(地铁站),(在建)13号线一期;5号线,四川省,成都市,,交通设施服务;地铁站;地铁站
104.002334,30.685659,金沙滨河公园(地铁站),(在建)27号线一期,四川省,成都市,金沙,交通设施服务;地铁站;地铁站
104.040973,30.651835,省骨科医院(地铁站),(在建)17号线二期;5号线,四川省,成都市,,交通设施服务;地铁站;地铁站
104.040612,30.666106,中医大省医院(地铁站),2号线;4号线;5号线,四川省,成都市,抚琴,交通设施服务;地铁站;地铁站
103.992714,30.661349,万寿桥(地铁站),(在建)13号线一期,四川省,成都市,东坡,交通设施服务;地铁站;地铁站
103.994918,30.688594,蜀鑫路(地铁站),(在建)27号线一期,四川省,成都市,,交通设施服务;地铁站;地铁站
103.976595,30.683429,成都西站(地铁站),4号线;9号线,四川省,成都市,,交通设施服务;地铁站;地铁站
104.028185,30.669095,草堂北路(地铁站),4号线,四川省,成都市,抚琴,交通设施服务;地铁站;地铁站
104.020118,30.670471,西南财大(地铁站),4号线,四川省,成都市,金沙,交通设施服务;地铁站;地铁站
103.941597,30.661961,瓦窑滩(地铁站),(在建)13号线一期,四川省,成都市,,交通设施服务;地铁站;地铁站
104.012520,30.677436,金沙博物馆(地铁站),7号线,四川省,成都市,金沙,交通设施服务;地铁站;地铁站
104.007924,30.660867,东坡路(地铁站),(在建)13号线一期;7号线,四川省,成都市,青羊大道,交通设施服务;地铁站;地铁站
104.009413,30.672258,文化宫(地铁站),4号线;7号线,四川省,成都市,金沙,交通设施服务;地铁站;地铁站
103.998588,30.676605,清江西路(地铁站),4号线,四川省,成都市,金沙,交通设施服务;地铁站;地铁站
103.964110,30.673492,中坝(地铁站),4号线,四川省,成都市,,交通设施服务;地铁站;地铁站
103.971492,30.697950,黄田坝(地铁站),9号线,四川省,成都市,,交通设施服务;地铁站;地铁站
103.945088,30.669474,蔡桥(地铁站),4号线,四川省,成都市,,交通设施服务;地铁站;地铁站
103.922478,30.674086,非遗博览园(地铁站),4号线,四川省,成都市,,交通设施服务;地铁站;地铁站
103.913802,30.677424,马厂坝(地铁站),4号线,四川省,成都市,,交通设施服务;地铁站;地铁站
