lon,lat,name,address,pname,cityname,business_area,type
116.575364,40.290582,京粮物流怀柔物流中心(桃山事业部),怀长路南50米,北京市,北京市,桥梓,生活服务;物流速递;物流速递
116.659650,40.307037,兴岳通达物流,怀柔虫高路58号(怀柔建材市场东500米路北),北京市,北京市,,生活服务;物流速递;物流速递
116.713674,40.322773,北京鑫速达物流有限公司,龙芸路与永昌街交叉路口北侧(驸马庄回迁楼),北京市,北京市,北房镇,生活服务;物流速递;物流速递
116.643343,40.277743,北京金福润田物流有限公司,庙城镇霍各庄村2号北800米,北京市,北京市,庙城,生活服务;物流速递;物流速递
116.645398,40.337227,北京航空货运公司(怀柔急件营业厅),泉河街道开放路78号楼一层门脸,北京市,北京市,,生活服务;物流速递;物流速递
116.638022,40.347969,通联物流有限公司,大中富乐村770号,北京市,北京市,,生活服务;物流速递;物流速递
116.645644,40.318118,华尔物流,美丽家园78号楼11门,北京市,北京市,,生活服务;物流速递;物流速递
116.656912,40.280098,德威治物流配送中心,南圈桥(北京怀柔商鲲教育培训学校北侧约150米),北京市,北京市,庙城,生活服务;物流速递;物流速递
116.617718,40.294852,浪潮伟业物流公司,怀柔镇富密路金善名居北300米,北京市,北京市,庙城,生活服务;物流速递;物流速递
116.684398,40.317804,怀柔中通快运,北房镇沙河桥南100米右转到头右转100米,北京市,北京市,,生活服务;物流速递;物流速递
116.638508,40.316578,妈妈驿站(府前东街店),府前东街19号楼底商11号,北京市,北京市,,生活服务;物流速递;物流速递
116.708566,40.326267,安能物流,北房镇幸福东园5栋4单元,北京市,北京市,北房镇,生活服务;物流速递;物流速递
116.681155,40.326815,安来益物流,京密路与北房西桥交叉口东北100米,北京市,北京市,,生活服务;物流速递;物流速递
116.653074,40.290489,北京兴美顺达物流有限公司,庙城镇高两河村西工业大院1号厂房,北京市,北京市,庙城,生活服务;物流速递;物流速递
116.677716,40.290411,北京翔达运输有限责任公司,杨宋镇益田影人峰汇1号楼2单元402,北京市,北京市,杨宋,生活服务;物流速递;物流速递
116.685295,40.347423,伊藤忠物流(中国)有限公司,雁栖开发区乐园大街8号,北京市,北京市,雁栖,生活服务;物流速递;物流速递
116.652152,40.340243,北京京海安达物流有限公司,大中富乐工业园二区G栋,北京市,北京市,,生活服务;物流速递;物流速递|公司企业;公司;公司
116.677802,40.306503,北京熔成兴业物流有限公司(虫高路),杨宋镇张自口西1号,北京市,北京市,,生活服务;物流速递;物流速递
116.656718,40.340901,圆通速递,乐园大街附近,北京市,北京市,,生活服务;物流速递;物流速递
116.651895,40.322872,德邦快递(北京怀柔区营业部),怀柔镇开放东路星东天地购物广场往东20米,北京市,北京市,泉河,生活服务;物流速递;物流速递
116.650586,40.325424,北京金域黄金物资储运公司,开放东路11号,北京市,北京市,泉河,生活服务;物流速递;物流速递
116.616953,40.276023,北京广丰通达物流有限公司,[],北京市,北京市,,生活服务;物流速递;物流速递
116.714765,40.299080,北京鸿利兴达物流,驸张路188号,北京市,北京市,北房镇,生活服务;物流速递;物流速递
116.636558,40.298301,北京恒安顺程物流科技有限公司,庙城路(东亚华欣湾),北京市,北京市,庙城,生活服务;生活服务场所;生活服务场所
116.686122,40.301409,全国物流配送,中高路与开发区北路交叉路口往西南约150米,北京市,北京市,,生活服务;物流速递;物流速递
116.653474,40.340140,北京普田物流有限公司怀柔分公司,[],北京市,北京市,,生活服务;物流速递;物流仓储场地
116.643410,40.277798,北京金吉润利物流科技有限公司,[],北京市,北京市,庙城,生活服务;生活服务场所;生活服务场所
116.580852,40.291958,北京兴业百顺运输有限公司,[],北京市,北京市,桥梓,生活服务;物流速递;物流速递
116.612833,40.260088,北京普田物流有限公司,桃山村庙城镇768号,北京市,北京市,,生活服务;物流速递;物流速递
116.659290,40.322136,北京乾坤润金运输有限公司,开放东路1号,北京市,北京市,,生活服务;物流速递;物流速递
116.626193,40.291291,北京农升生产资料有限公司配送中心,庙城北京农升生产资料有限公司,北京市,北京市,庙城,生活服务;物流速递;物流速递
116.669015,40.322458,北京华明通达运输有限公司,京密路,北京市,北京市,,生活服务;物流速递;物流速递
116.652650,40.284586,北京友联物流有限公司,庙高路,北京市,北京市,庙城,生活服务;物流速递;物流速递
116.621184,40.289726,北京广顺旺达运输有限公司,富密路与庙城路交叉口东北方向60米,北京市,北京市,庙城,生活服务;物流速递;物流速递
116.677367,40.286863,江源物流,和平路与凤翔大街交叉路口往西约100米(香水城南区),北京市,北京市,杨宋,生活服务;物流速递;物流速递
116.642014,40.302463,吉时宇物流,万星市场西门右拐走到南头,北京市,北京市,,生活服务;物流速递;物流速递
116.684400,40.290610,茅台五粮液牛栏山全国物流配送,怀耿路与中高路交叉路口西南侧,北京市,北京市,杨宋,生活服务;物流速递;物流速递
116.635228,40.297728,北京时速路通物流有限公司,庙城镇融城北路10号院72号楼1层,北京市,北京市,庙城,生活服务;物流速递;物流速递
116.622222,40.272382,普田物流,庙城镇高各庄桥南50米,北京市,北京市,,生活服务;物流速递;物流速递
116.726628,40.325915,鸿利兴达货运有限公司,恒利街北150米,北京市,北京市,,生活服务;生活服务场所;生活服务场所
116.643141,40.279086,北京金昊佳业运输有限公司,霍各庄临268号-1,北京市,北京市,庙城,生活服务;物流速递;物流速递
116.708643,40.317494,金龙鱼配送中心,北房镇裕华路18号,北京市,北京市,北房镇,生活服务;物流速递;物流速递
116.659529,40.323137,华航物流,开放路环岛王化村666号,北京市,北京市,,生活服务;物流速递;物流速递
116.655950,40.335511,北京富鑫土石方运输有限公司,怀柔镇大屯村北杨家园临时372号,北京市,北京市,,生活服务;物流速递;物流速递
116.633367,40.269616,北京福田戴姆勒汽车公司3号物流门,赵各庄,北京市,北京市,庙城,生活服务;生活服务场所;生活服务场所
116.687859,40.306216,安能物流,杨宋镇张自口550号安能物流中心,北京市,北京市,,生活服务;物流速递;物流仓储场地
116.709670,40.326259,德邦快递(幸福大街店),幸福东园13号楼1层4,北京市,北京市,北房镇,生活服务;物流速递;物流速递
116.644105,40.334825,中铁物流集团,开放路121号西60米,北京市,北京市,泉河,生活服务;物流速递;物流速递
116.659348,40.350277,德邦(怀柔科学城店),乐园西大街13号院4号楼1层4-3号,北京市,北京市,雁栖,生活服务;物流速递;物流速递
116.002798,40.460937,日上物流中心,香水园街道京张路口南,北京市,北京市,,生活服务;物流速递;物流速递
115.999838,40.444663,安能物流,司家营村东1栋1号J9,北京市,北京市,,生活服务;物流速递;物流速递
116.037675,40.433980,中通快运延庆分公司,G110(京银路),北京市,北京市,,生活服务;物流速递;物流速递
115.965086,40.465926,德邦(延庆区营业部),"延庆镇北关村北,贺氏武术馆后院",北京市,北京市,,生活服务;生活服务场所;生活服务场所
116.001511,40.449049,北京中铁快运有限公司(延庆分公司),海川路53号,北京市,北京市,,生活服务;物流速递;物流速递
115.901905,40.383640,德邦快递北京延庆区康庄镇营业部,延康路,北京市,北京市,康庄,生活服务;生活服务场所;生活服务场所
116.074959,40.525385,德邦物流,八峪路,北京市,北京市,,生活服务;物流速递;物流速递
116.004302,40.444923,壹米滴答物流,[],北京市,北京市,,生活服务;物流速递;物流速递
116.000240,40.445445,华锐翔宇货运,知夏街,北京市,北京市,,生活服务;物流速递;物流速递
115.918759,40.384667,康庄货运站,都宇设备制造有限公司南400米,北京市,北京市,康庄,生活服务;生活服务场所;生活服务场所
116.003345,40.448694,庆隆物流(延庆店),北京峰之馨家具有限公司西南,北京市,北京市,,生活服务;物流速递;物流速递
115.960822,40.465328,蜂鸟配送,西顺城街(延庆区第七中学东北侧约100米),北京市,北京市,,生活服务;物流速递;物流速递
116.163082,40.533623,北京权忠庆运输有限公司,约克斯毛针织品有限公司1号楼214,北京市,北京市,永宁,生活服务;物流速递;物流速递
116.160716,40.528734,德邦物流,延琉路与滨河北路交叉路口往东北约200米,北京市,北京市,永宁,生活服务;物流速递;物流速递
116.125164,39.909672,德邦,永定镇石龙东路西长安壹号32号院1层,北京市,北京市,永定,生活服务;物流速递;物流速递
116.090850,39.977164,门头沟德邦物流,龙泉雾加油站北30米,北京市,北京市,龙泉,生活服务;物流速递;物流仓储场地
116.042122,39.972326,北京祥坦纵横运输有限公司,501乡道附近,北京市,北京市,,生活服务;生活服务场所;生活服务场所
116.115548,39.934623,北京康依家配送中心,大峪街道滨河西区临镜苑2号楼底商,北京市,北京市,永定,生活服务;物流速递;物流速递
116.107878,39.961435,铁路货运三家店绿色物流配送基地,龙泉镇三家店东街50号,北京市,北京市,,生活服务;物流速递;物流仓储场地
116.689873,40.132323,神州德宇轿车托运公司,南彩镇顺平路DNA酒店东100米,北京市,北京市,,生活服务;生活服务场所;生活服务场所
116.537640,40.127404,北京英百捷货运有限公司,高丽营镇水坡村水坡南街一巷43号,北京市,北京市,,生活服务;物流速递;物流速递
116.695019,40.144796,北京长久物流有限公司,南彩镇前俸伯彩园工业区3号,北京市,北京市,南彩,生活服务;物流速递;物流速递
116.745370,40.196665,新华联合物流中心,仇家店小学赵陈路北,北京市,北京市,,生活服务;物流速递;物流速递
116.664502,40.062481,北京爱义物流有限公司,龙塘路后桥市场,北京市,北京市,李桥,生活服务;物流速递;物流速递
116.699187,40.127169,北京中运联创物流有限公司,左堤路,北京市,北京市,,生活服务;物流速递;物流速递
116.635677,40.211308,北京安顺捷通物流有限公司,牛山镇东范各庄村委会院内,北京市,北京市,,生活服务;物流速递;物流速递
116.660458,40.081793,北京京安顺诚物流有限公司,南二环路与通顺路交汇处西100米,北京市,北京市,,生活服务;物流速递;物流速递
116.617298,40.155517,配货中心,吉祥路64号附近,北京市,北京市,马坡,生活服务;物流速递;物流速递
116.573244,40.098340,寰宇众诚物流有限公司,首都国际机场西100米附近,北京市,北京市,,生活服务;物流速递;物流速递
116.672409,40.078072,北京远近通达国际物流有限公司,仁和窑坡村近,北京市,北京市,,生活服务;物流速递;物流速递
116.593869,40.126067,普洛斯空港物流园,空港物流开发区顺畅大道,北京市,北京市,,生活服务;物流速递;物流仓储场地
116.742475,40.134965,顺义区供销社顺万兴农资公司农资配送中心,306省道附近,北京市,北京市,南彩,生活服务;物流速递;物流速递
116.591397,40.120864,鸿讯物流(物流园八街),空港物流基地八街7号,北京市,北京市,,生活服务;物流速递;物流速递
116.602191,40.129274,安博北京首都机场第二物流中心,北京顺义顺达路8号,北京市,北京市,,生活服务;物流速递;物流仓储场地
116.777600,40.072818,北京世正通物流有限公司,李遂镇东营村中街1号,北京市,北京市,,生活服务;物流速递;物流速递
116.583803,40.097854,海航货运有限公司(货运北路),货运北路,北京市,北京市,,生活服务;物流速递;物流速递
116.517592,40.107764,北京现代汽车物流中心(707乡道店),707乡道科雅新型装饰材料有限公司附近,北京市,北京市,后沙峪,生活服务;物流速递;物流速递
116.808022,40.154412,益盛通国际物流,杨镇下坡村209号,北京市,北京市,,生活服务;物流速递;物流速递
116.557568,40.089320,辉煌国际物流,空港工业b区富亿通仓储中心,北京市,北京市,后沙峪,生活服务;物流速递;物流速递
116.573338,40.134219,朗姿股份有限公司物流中心,高丽营镇金马园二街27号,北京市,北京市,,生活服务;物流速递;物流速递
116.662919,40.081736,北京中振物流轿车托运公司,[],北京市,北京市,,生活服务;物流速递;物流速递
116.498772,40.170460,北京百世德邦物流有限公司,高丽营镇建新西胡同5号,北京市,北京市,,生活服务;物流速递;物流速递
116.570385,40.137672,宅急送(北京转运中心),金马工业园北路29号,北京市,北京市,,生活服务;物流速递;物流速递
116.917850,40.077102,宝湾物流(北京顺义宝湾国际物流中心),大孙各庄镇大孙各庄村西,北京市,北京市,,生活服务;物流速递;物流速递
116.554074,40.132024,双猫物流,高丽营镇西马各庄村明华街67号,北京市,北京市,,生活服务;物流速递;物流速递
116.776271,40.087979,顺亚邦物流,李遂镇太平辛庄村,北京市,北京市,,生活服务;物流速递;物流仓储场地
116.755082,40.135725,北京虎悦物流有限公司,顺平路1880号,北京市,北京市,南彩,生活服务;物流速递;物流速递
116.611766,40.114256,北京金开宇国际货运代理有限公司,旭辉空港中心D座701-703,北京市,北京市,南法信,生活服务;生活服务场所;生活服务场所
116.618024,40.155873,百福通达物流有限公司顺义分公司,衙门村吉祥路64号,北京市,北京市,马坡,生活服务;物流速递;物流速递
116.707012,40.049357,北京上工运通物流服务有限公司(604乡道),平沿路与604乡道交叉口东100米,北京市,北京市,,生活服务;物流速递;物流速递
116.729589,40.182852,北京烤鸭产业物流基地,迎宾路1西北方向190米,北京市,北京市,,生活服务;物流速递;物流速递
116.729131,40.138467,北京沃德物流有限公司,河黄路与鸡厂路交汇处,北京市,北京市,南彩,生活服务;生活服务场所;生活服务场所
116.591078,40.093366,BGS国内货运站,货运北路中国国际货运航空内,北京市,北京市,,生活服务;物流速递;物流速递
116.644748,40.09816,中首物流,双河大街61号,北京市,北京市,,生活服务;物流速递;物流速递
116.684410,40.075369,涛峰佳运物流,临河村500米(顺新空调东侧),北京市,北京市,,生活服务;物流速递;物流速递
116.956290,40.082864,北京顺平坤鹏物流有限公司,大孙各庄镇小塘村塘富街2号,北京市,北京市,,生活服务;物流速递;物流速递
116.584844,40.062753,北京飞鹰航空货运,天竺中街3号,北京市,北京市,天竺,生活服务;物流速递;物流速递
116.641340,40.212335,杨子物流,昌金路与京沈路交叉路口往西约100米,北京市,北京市,,生活服务;物流速递;物流速递
116.606987,40.100211,中国国际货运航空有限公司(北京运营基地国际货站),中轴路附近,北京市,北京市,,生活服务;物流速递;物流速递
116.817727,40.063161,北京登科物流有限公司,北务镇市场西路2-71号,北京市,北京市,,生活服务;物流速递;物流速递
116.565880,40.208627,众鑫物流,康庄大街19号附近,北京市,北京市,,生活服务;物流速递;物流速递
116.596560,40.131778,中邮物流供应链管理中心,顺畅大道10号院1,北京市,北京市,,生活服务;物流速递;物流速递
116.692974,40.096569,北京燕京啤酒集团运输公司,仁和镇双河大街7号,北京市,北京市,,生活服务;物流速递;物流速递
116.589651,40.121020,中和物流库,南法信镇物流园8街9号院林吉大厦楼后仓库,北京市,北京市,,生活服务;物流速递;物流速递
116.569038,40.115566,那亚物流,后沙峪地区枯柳树村西(天龙宾馆院内),北京市,北京市,后沙峪,生活服务;物流速递;物流速递
116.589449,40.120583,汉宏物流,南法信空港物流园八街9号林吉大厦b座1层西侧,北京市,北京市,,生活服务;物流速递;物流速递
116.658522,40.081392,伊藤忠物流(中国),顺通路55号东南方向180米,北京市,北京市,,生活服务;物流速递;物流速递
116.591132,40.126678,安博北京首都机场第一物流中心,南法信空港物流基地顺航路12号,北京市,北京市,,生活服务;物流速递;物流仓储场地
116.593602,40.130963,嘉民北京机场物流中心,顺义区物流园四街7号,北京市,北京市,,生活服务;物流速递;物流仓储场地
116.557897,40.134924,北京恒泰通源物流有限公司,高丽营镇西马各庄村甲1号,北京市,北京市,,生活服务;物流速递;物流速递
116.597671,40.120185,北京联鹰国际物流有限公司,空港物流基地8街1号恒通大厦501-502室,北京市,北京市,,生活服务;物流速递;物流速递
116.701628,40.145237,北京安诚捷顺物流有限公司,Y565与左堤路交叉口南侧,北京市,北京市,南彩,生活服务;物流速递;物流速递
116.617373,40.145954,北京联合通达物流有限公司,南法信镇南陈路南法信段13号,北京市,北京市,,生活服务;物流速递;物流仓储场地
116.705664,40.133670,佳宇通达物流,南彩镇顺平辅路乔智幼儿园东50米东,北京市,北京市,南彩,生活服务;物流速递;物流速递
116.516061,40.113880,冠捷物流飞驰仓储园(华北A仓),后沙裕天北路南,北京市,北京市,后沙峪,生活服务;物流速递;物流仓储场地
116.639519,40.220641,顺义伊藤忠仓库,官卷路,北京市,北京市,,生活服务;物流速递;物流仓储场地
116.560524,40.185290,北京中联裕盛物流有限公司,X014(火寺路),北京市,北京市,,生活服务;生活服务场所;生活服务场所
116.527665,40.148773,北京金路易全胜物流有限公司,Y811与顺沙路交叉口(前渠河桥东南),北京市,北京市,,生活服务;物流速递;物流速递
116.759197,40.110621,北京顺彩物流有限公司,李遂镇葛代子村中街甲5号,北京市,北京市,,生活服务;生活服务场所;生活服务场所
116.533794,40.159938,远邦达物流大院,后渠河村,北京市,北京市,,生活服务;物流速递;物流速递
116.698327,40.078425,王家厂物流基地,李桥镇,北京市,北京市,,生活服务;物流速递;物流速递
116.760739,40.099965,北京瑞丰宏运物流有限公司一库,潮华路16号附近,北京市,北京市,,生活服务;物流速递;物流速递
116.620560,40.119472,北京鸿运天翔国际货运代理有限公司,南法信镇南白路东方快捷物流园3层,北京市,北京市,南法信,生活服务;生活服务场所;生活服务场所
116.691156,40.141255,北京天时丰益物流有限公司,南彩镇彩祥西路9号,北京市,北京市,南彩,生活服务;物流速递;物流速递
116.735434,40.269449,青山运输有限公司,北韩路西50米,北京市,北京市,,生活服务;物流速递;物流速递
116.677714,40.022861,北京通顺物流有限公司,李桥镇英各庄村77号,北京市,北京市,李桥,生活服务;物流速递;物流速递
116.535333,40.214619,庄和物流,赵全营镇顺义空港c区兆丰一街29号,北京市,北京市,,生活服务;物流速递;物流速递
116.545333,40.211182,捷运康物流有限公司,赵全营镇空港开发区C区昌金路169号,北京市,北京市,,生活服务;物流速递;物流速递
116.564401,40.108690,京新货运,蔚然南路11号附近,北京市,北京市,后沙峪,生活服务;物流速递;物流速递
116.726294,40.197200,德邦快递,顺密路与赵陈路交叉路口往北约200米,北京市,北京市,,生活服务;物流速递;物流速递
116.762694,40.144220,北京普运达物流有限公司,南彩镇绿科园商贸中心办公楼,北京市,北京市,南彩,生活服务;物流速递;物流速递
116.755082,40.146919,佳怡物流(顺义南彩镇店),李魏路168号坞里村村口,北京市,北京市,南彩,生活服务;物流速递;物流速递
116.608529,40.139786,康达物流,南法信镇府前街北法信段8号北京和泰诚铝材公司旁,北京市,北京市,南法信,生活服务;物流速递;物流速递
116.610683,40.137764,菜鸟驿站(北京顺义北法信村店),南法信北法信村信平大街54号VIVO专卖店,北京市,北京市,南法信,生活服务;物流速递;物流速递
116.563971,40.072399,嘉里大通物流(天柱路),天竺空港工业区a区天柱路18号,北京市,北京市,天竺,生活服务;物流速递;物流仓储场地
116.563318,40.071108,中外运(天柱路),天竺镇空港A区天柱路20号,北京市,北京市,天竺,生活服务;物流速递;物流速递
116.620169,40.119184,东方快捷国际运输代理有限公司,仁和镇南白路,北京市,北京市,南法信,生活服务;物流速递;物流速递
116.662483,40.081729,顺翔合物流中心,外环路与通顺路交叉路口往东南约50米,北京市,北京市,,生活服务;物流速递;物流速递
116.587299,40.064311,北京航空邮件交换站,府前二街3号,北京市,北京市,,生活服务;物流速递;物流速递
116.640601,40.045702,北京华安捷货运公司客服中心,机场东路国门商务区翼之城7号楼1616室,北京市,北京市,李桥,生活服务;物流速递;物流速递
116.610480,40.114643,北京今日安行物流有限公司,南法信金关北二街3号院C座1007,北京市,北京市,南法信,生活服务;物流速递;物流速递
116.585060,40.134220,北京宏达润升物流有限公司,北京市顺义区高丽营镇金马工业区中路2号,北京市,北京市,,生活服务;物流速递;物流速递
116.664782,40.055544,快行天下冷链物流北京仓,李桥镇通顺路后桥段临37号,北京市,北京市,李桥,生活服务;物流速递;物流仓储场地
116.537814,40.165933,上海信茂国际货物运输代理有限公司北京分公司,高丽营镇河津营村,北京市,北京市,,生活服务;物流速递;物流速递
116.597794,40.120140,北京百达通国际货运代理有限公司,南法信镇顺畅大道恒通大厦A座205室,北京市,北京市,,生活服务;物流速递;物流速递
116.617574,40.160376,北京天音顺捷物流有限公司,南陈路,北京市,北京市,马坡,生活服务;物流速递;物流速递
116.763521,40.094098,天津大信通运输有限公司北京分公司,李遂镇双河工业开发区18号,北京市,北京市,,生活服务;物流速递;物流速递
116.862537,40.184826,中国递五方物流股份有限公司,杨镇破罗口村89号5PL云仓,北京市,北京市,,生活服务;物流速递;物流速递
116.608083,40.112687,利顺国际物流(北京)有限公司,金穗路2号院5号楼6层605,北京市,北京市,南法信,生活服务;物流速递;物流速递
116.694873,40.140394,北京捷诚路通运输有限公司,南彩镇彩园工业区彩祥东路9号北门012室,北京市,北京市,南彩,生活服务;物流速递;物流速递
116.718879,40.159361,百容运天,顺密路与郝彩路东北角,北京市,北京市,南彩,生活服务;物流速递;物流速递
116.859727,40.180423,北京大韩顺通物流有限公司,杨镇地区良庄村良南路131号,北京市,北京市,,生活服务;物流速递;物流速递
116.607248,40.199644,北京耀舜物流科技有限公司,赵全营镇红都路2号,北京市,北京市,,生活服务;物流速递;物流仓储场地
116.701049,40.138297,北京福马运通物流有限公司,南彩镇后俸伯村繁荣路3号,北京市,北京市,南彩,生活服务;物流速递;物流速递
116.914831,40.134154,北京飞龙龙搬家有限公司,张镇麻林山村五街十三号,北京市,北京市,,生活服务;物流速递;物流速递
116.591181,40.124050,北京信德翔宇物流有限公司,南法信镇物流6街宝供物流园,北京市,北京市,,生活服务;物流速递;物流速递
116.752437,40.211497,中铁物流集团(飞豹快运北京市顺义营业部),北小营镇顺密路与昌金路交叉口中铁物流,北京市,北京市,,生活服务;生活服务场所;生活服务场所
116.611531,40.115089,永青国际物流(北京)有限公司,南法信镇旭辉空港中心A1008室,北京市,北京市,南法信,生活服务;生活服务场所;生活服务场所
116.660034,40.138039,小山东货运公司,金汉小区2号楼1门001室,北京市,北京市,胜利,生活服务;生活服务场所;生活服务场所
116.742333,40.203618,东方胜远北京物流有限公司,北小营镇上辇村,北京市,北京市,,生活服务;物流速递;物流速递
116.849950,40.073166,长春市华阳储运有限公司北京物流分公司,龙塘路与中干渠路交汇处中心街12号华阳物流办公室,北京市,北京市,,生活服务;生活服务场所;生活服务场所
116.593612,40.127129,北京航宇快捷货运代理有限公司,顺畅大道15号普洛斯物流园B-2东北角航宇快捷,北京市,北京市,,生活服务;生活服务场所;生活服务场所
116.671818,40.037945,万通达物流,李桥村向阳胡同36号,北京市,北京市,李桥,生活服务;物流速递;物流速递
116.678098,40.017358,金京顺通物流,"张辛庄南一街47号,青云酒店斜对面",北京市,北京市,李桥,生活服务;物流速递;物流速递
116.695547,40.139759,北京通华起航物流有限公司,南彩镇彩翔东路九-六号,北京市,北京市,南彩,生活服务;物流速递;物流速递
116.610863,40.114540,北京鑫邦盛达物流有限公司,金关北二街3号院3旭辉·空港中心C2座6F625,北京市,北京市,南法信,生活服务;物流速递;物流速递
116.748942,40.054306,北京星光宇通货物运输有限公司,如意装饰建材商店西南440米附近,北京市,北京市,,生活服务;生活服务场所;生活服务场所
116.805997,40.043787,速达物流,北务镇京平高速与木燕路交叉口南行100米路西,北京市,北京市,,生活服务;物流速递;物流速递
116.745041,40.139442,铁奔轿车托运(北京办事处),南彩镇,北京市,北京市,南彩,生活服务;物流速递;物流速递
116.619510,40.113564,盈辉物流沙坨营业部,南法信镇沙坨工业区8号附近,北京市,北京市,,生活服务;物流速递;物流速递
116.590797,40.111242,北京航济国际物流有限公司(天竺综合保税一区),天竺综合保税区F01二层218室,北京市,北京市,,生活服务;物流速递;物流速递
116.585353,40.061811,北京大友航空货运有限公司,天竺中街4号,北京市,北京市,天竺,生活服务;物流速递;物流速递
116.610466,40.114758,北京奥普瑞国际货运代理有限公司,南法信镇空港旭辉中心C座923室,北京市,北京市,南法信,生活服务;生活服务场所;生活服务场所
116.687872,40.043114,北京顺兴源物流中心有限责任公司,李桥镇任李路沿河段123号,北京市,北京市,,生活服务;物流速递;物流仓储场地
116.703202,40.078243,北京兄弟安达物流有限公司,李桥镇外环路王家场1号院旁,北京市,北京市,,生活服务;物流速递;物流速递
116.647877,40.099688,中都物流现代商品车发运基地,仁和镇顺强路2号,北京市,北京市,,生活服务;物流速递;物流仓储场地
116.620095,40.119594,北京博维国际物流有限公司,仁和镇南白路21号3栋2028室,北京市,北京市,南法信,生活服务;物流速递;物流速递
116.577527,40.127931,新兴思达国际物流基地,高丽营镇顺于路9号,北京市,北京市,,生活服务;物流速递;物流仓储场地
116.562137,40.072562,DB·SCHENKER,天竺空港工业区a区天纬四街5号,北京市,北京市,天竺,生活服务;物流速递;物流速递|公司企业;公司;公司
116.590768,40.126850,安博京顺空港物流中心,顺航路12号,北京市,北京市,,生活服务;物流速递;物流速递
116.590292,40.120659,北京宝通国际货运代理有限公司,南法信空港物流基地八街9号林吉大厦a座,北京市,北京市,,生活服务;生活服务场所;生活服务场所
116.617372,40.146053,临港达仓储中心,南陈路南法信段13号,北京市,北京市,,生活服务;物流速递;物流仓储场地
116.591358,40.121942,泛骏华国际物流(中国)有限公司,北京空港物流基地顺驰路19号,北京市,北京市,,生活服务;物流速递;物流速递
116.587182,40.127045,泰吉尔物流公司,空港物流基地顺航路12号,北京市,北京市,,生活服务;物流速递;物流速递
116.575145,40.065436,北京华人航空运输代理有限公司,天竺镇府前二街王辛庄路,北京市,北京市,天竺,生活服务;物流速递;物流速递
116.591713,40.127543,普洛斯(泰吉尔商务中心东),顺畅大道16号,北京市,北京市,,生活服务;物流速递;物流速递
116.662248,40.097287,恒瑞金程物流配送中心,通顺路北京中铁绿园环保包装制品有限公司附近,北京市,北京市,仁和,生活服务;物流速递;物流速递
116.561596,40.072071,全球国合国际货运(北京)有限公司,天竺空港工业区A区天纬四街5号,北京市,北京市,天竺,生活服务;物流速递;物流速递
116.553534,40.154078,中通快运,火寺路附近,北京市,北京市,,生活服务;物流速递;物流速递
116.701769,40.139069,顺捷骏诚物流,南彩镇后俸伯村公交车站向北100米,北京市,北京市,南彩,生活服务;生活服务场所;生活服务场所
116.600150,40.207340,和众奥顺达物流有限公司第三分公司,赵全营昌金路红都路15号,北京市,北京市,,生活服务;物流速递;物流仓储场地
116.643471,40.074435,北京世纪锦利物流有限公司,李桥镇三四营桥东300米,北京市,北京市,,生活服务;生活服务场所;生活服务场所
116.603823,40.204446,海富物流,赵全营镇大官庄红都路7号,北京市,北京市,,生活服务;物流速递;物流速递
116.618536,40.131632,北京慧行国际物流有限公司,南法信马可汇小区3号楼1单元206室,北京市,北京市,,生活服务;物流速递;物流速递
116.648565,40.237369,中江物流,牛栏山镇北军营村,北京市,北京市,,生活服务;物流速递;物流速递
116.699430,40.091225,北京中都格罗唯视物流有限公司,仁和镇林河南大街9号院高顺云港新能科技园26号楼1-6层,北京市,北京市,,生活服务;物流速递;物流速递
116.607576,40.195933,北京永顺吉祥运输有限公司,友谊路西200米,北京市,北京市,,生活服务;生活服务场所;生活服务场所
116.600451,40.113750,普洛斯,天竺机场北街10号,北京市,北京市,,生活服务;物流速递;物流速递
116.843628,40.162143,圆通速递(北京转运中心杨镇场地),北京现代汽车第三工厂南门对面,北京市,北京市,,生活服务;物流速递;物流速递
116.621472,40.120699,北京昊丰物流有限公司,仁和镇南白路21号14幢,北京市,北京市,,生活服务;物流速递;物流速递
116.660337,40.080959,西小鸟物流,李桥镇山子坟公交车站,北京市,北京市,,生活服务;物流速递;物流速递
116.590570,40.123391,正宏运通物流,物流园六街12号宝供物流基地6-7号库中间,北京市,北京市,,生活服务;物流速递;物流速递
116.614556,40.130387,综合信兴物流(南法信卫生院东北),南法信南陈路35号,北京市,北京市,,生活服务;物流速递;物流速递
116.621800,40.120334,北京伊兰捷力国际货物运输代理有限公司,南白路21号14幢,北京市,北京市,南法信,生活服务;物流速递;物流速递
116.674758,40.076787,群星物流,仁和镇窑坡村委会东450米,北京市,北京市,,生活服务;物流速递;物流速递
116.579350,40.129600,京龙物流,顺于路金马工业区新兴思达国际物流3号库,北京市,北京市,,生活服务;物流速递;物流速递
116.705391,40.040883,北京明峰物流,[],北京市,北京市,,生活服务;物流速递;物流速递
116.620440,40.119606,北京巡宇国际货运代理有限公司,南白路21,北京市,北京市,南法信,生活服务;物流速递;物流速递
116.682773,40.061561,昕日物流,李桥镇后桥村龙塘路东1500米,北京市,北京市,,生活服务;物流速递;物流速递
116.588915,40.093832,北京空港航空地面服务有限公司货运部,货运北路旁,北京市,北京市,,生活服务;物流速递;物流速递|公司企业;公司;公司
116.545334,40.100122,千里马配送中心,后沙峪地区裕安路巨鸿大厦B区709号,北京市,北京市,后沙峪,生活服务;物流速递;物流速递
116.769222,40.067199,北京龙泽通物流有限公司,李遂镇李庄村龙塘路甲2号,北京市,北京市,,生活服务;物流速递;物流速递
116.764534,40.100684,德邦快递(北京顺义区李遂营业部),李遂镇沟北村潮华路28号-1,北京市,北京市,,生活服务;物流速递;物流速递
116.632462,40.073258,安能物流,机场东路6号院(首开苏活小区)17号楼128室,北京市,北京市,,生活服务;物流速递;物流速递
116.567906,40.114504,方圆物流,宇通客车特约服务站院内,北京市,北京市,后沙峪,生活服务;物流速递;物流速递
116.862004,40.165733,百世快运(北京市顺义河东分公司),X001(龙尹路),北京市,北京市,,生活服务;物流速递;物流速递
116.569379,40.139077,远成快运,[],北京市,北京市,,生活服务;物流速递;物流速递
116.608420,40.132690,康达物流,南焦路北法信段083,北京市,北京市,南法信,生活服务;物流速递;物流速递
116.615046,40.167037,顺丰快运(马坡场地),南陈路马坡段51号(办公楼1层),北京市,北京市,马坡,生活服务;物流速递;物流速递
116.642741,40.173716,德邦快递,京沈路(北京荣诚广业汽车贸易有限公司东北侧),北京市,北京市,马坡,生活服务;物流速递;物流速递
116.551732,40.206484,德坤物流北京分拨中心,北郎中工业区16号,北京市,北京市,,生活服务;物流速递;物流速递
116.655565,40.064927,圆通速递妈妈驿站,庄子营南一条街7号,北京市,北京市,李桥,生活服务;物流速递;物流速递
116.599585,40.120402,中通快运顺义南法信部,顺畅大道与物流园八街交叉路口往东约200米,北京市,北京市,,生活服务;物流速递;物流速递
116.761990,40.089427,宇鑫物流,李遂镇市场南路29号,北京市,北京市,,生活服务;生活服务场所;生活服务场所
116.631384,40.072660,德邦(外环路营业店),李桥镇机场东路6号苏活小区17号楼115,北京市,北京市,,生活服务;生活服务场所;生活服务场所
116.581781,40.137171,德邦快递(金马开发区店),高丽营镇金马工业区6号,北京市,北京市,,生活服务;物流速递;物流速递
116.573283,40.100050,中国国际货运航空北京运营基地-国内货运,后沙峪镇北京首都国际机场附近,北京市,北京市,,生活服务;物流速递;物流速递
116.590207,40.120565,嘉里大通物流,南法信镇空港物流园八街9号林吉大厦A座302,北京市,北京市,,生活服务;物流速递;物流速递
116.704843,40.144976,北京鑫润通物流有限公司,后俸伯路与顺密路交叉口西150米,北京市,北京市,南彩,生活服务;物流速递;物流速递
116.609120,40.113423,北京新思路国际运输代理有限公司,金穗路2号院2号楼804,北京市,北京市,南法信,生活服务;生活服务场所;生活服务场所
116.665688,40.059429,北京品逸致远物流有限公司,李桥镇顺通路后桥58段号,北京市,北京市,李桥,生活服务;物流速递;物流速递
116.584275,40.137342,北京诚和通物流有限公司,高丽营镇金马工业区北路19号,北京市,北京市,,生活服务;物流速递;物流速递
116.704351,40.143538,北京安隆轿车托运物流有限公司,南彩镇,北京市,北京市,南彩,生活服务;物流速递;物流速递
116.671898,40.077984,久海纳物流公司,仁和镇(近南二环中路),北京市,北京市,,生活服务;物流速递;物流速递
116.612083,40.114292,北京福瑞达物流有限公司,南法信镇旭辉空港中心4号楼911,北京市,北京市,,生活服务;物流速递;物流速递
116.612941,40.119108,康捷空国际货运有限公司,顺平路南法信段9号-2栋,北京市,北京市,南法信,生活服务;物流速递;物流速递
116.586819,40.063070,日通货运有限公司,天竺府前二街1号,北京市,北京市,天竺,生活服务;物流速递;物流速递
116.617963,40.119297,北京嘉普新国际物流有限公司,顺平路南法信段1号院8号楼(一汽大众4S店西侧),北京市,北京市,南法信,生活服务;物流速递;物流速递
116.606001,40.118402,千里马物流(友谊街二巷),南法信镇政府西侧300米(顺平路北侧),北京市,北京市,,生活服务;物流速递;物流速递
116.639775,40.211992,德邦快递(牛栏山营业部),牛栏山镇牛板路3号,北京市,北京市,,生活服务;物流速递;物流速递
116.556138,40.102657,德邦物流(北京顺义区后沙峪营业部),后沙峪裕民大街3号院1061北京方糖西侧底商,北京市,北京市,后沙峪,生活服务;物流速递;物流速递
116.718719,40.134011,天地华宇(隆华超市东),南彩河北村顺平辅线天地华宇,北京市,北京市,南彩,生活服务;物流速递;物流速递
116.593046,40.121144,宅急送(物流园八街店),物流园八街3号,北京市,北京市,,生活服务;物流速递;物流速递
116.643657,40.080519,北京利洋物流顺义分公司,北京现代二厂对面停车场,北京市,北京市,,生活服务;物流速递;物流速递
116.579108,40.145656,北京厚德天成物流有限责任公司,[],北京市,北京市,,生活服务;物流速递;物流速递
116.608384,40.112070,普德施(北京)国际物流有限公司,南法信镇金穗路2号院航城广场G座10号楼7层713室,北京市,北京市,南法信,生活服务;物流速递;物流速递
116.601024,40.124635,徐氏龙晨物流,物流园六街与顺达路交叉路口南侧,北京市,北京市,,生活服务;物流速递;物流速递
116.610699,40.115476,北京铭诚隆达国际货运代理有限公司,二通道D6-7号,北京市,北京市,南法信,生活服务;生活服务场所;生活服务场所
116.536268,40.130736,北京朝顺通物流公司,水坡南街一巷43号,北京市,北京市,,生活服务;物流速递;物流速递
116.608547,40.114509,纵坐标国际物流有限公司,南法信顺平路566号航港大厦E412,北京市,北京市,南法信,生活服务;物流速递;物流速递
116.597815,40.120105,齐邦北京国际货运代理有限公司,顺畅大道与物流园八街交叉路口东侧(恒通大厦),北京市,北京市,,生活服务;生活服务场所;生活服务场所
116.695109,40.140216,中汽运输总部基地,彩达二街与彩祥东路交叉路口往西约50米,北京市,北京市,南彩,生活服务;物流速递;物流速递
116.612821,40.146101,宏顺物流(北京分公司),顺沙路(南法信中学西北侧约100米),北京市,北京市,,生活服务;物流速递;物流速递
116.559756,40.191852,重药（北京）物流有限公司,赵全营镇西小营村火寺路七号,北京市,北京市,,生活服务;物流速递;物流速递
116.593209,40.127173,班达国际物流(北京)有限公司,顺畅大道15号普洛斯物流园1号库104号,北京市,北京市,,生活服务;生活服务场所;生活服务场所
116.570791,40.136039,北京天博正达物流有限公司,高丽营镇金马工业区中路35号,北京市,北京市,,生活服务;物流速递;物流速递
116.695034,40.138984,中汽运输,南彩镇彩祥东路9号中汽远通货物运输有限公司,北京市,北京市,南彩,生活服务;物流速递;物流仓储场地
116.689393,40.140549,航轮(北京)货物运输有限公司,彩祥西路9号A1-003（易代储9号院内）,北京市,北京市,南彩,生活服务;物流速递;物流速递
116.610690,40.115449,北京迅奭行国际货运代理有限公司,南法信旭辉空港中心b座,北京市,北京市,南法信,生活服务;生活服务场所;生活服务场所
116.593190,40.127174,顺盛和源物流(北京)有限公司,顺畅大道普洛斯物流园一号库17门,北京市,北京市,,生活服务;生活服务场所;生活服务场所
116.764312,40.094899,北京集广希特物流有限公司,[],北京市,北京市,,生活服务;物流速递;物流速递
116.589047,40.093358,北京联创物流,[],北京市,北京市,,生活服务;物流速递;物流速递
116.608023,40.113002,中外运华杰国际物流(北京)有限公司,南法信镇航程广场M301,北京市,北京市,南法信,生活服务;物流速递;物流速递
116.702400,40.143977,北京鼎极物流有限公司,顺密路与左提路交叉口左提路方向200米停车场,北京市,北京市,南彩,生活服务;物流速递;物流速递
116.560893,40.190868,蓝宇顺达物流,兰白路与火寺路交汇处西100米,北京市,北京市,,生活服务;物流速递;物流速递
116.685429,40.066469,北京博盛物流有限公司,李桥镇龙塘路61号,北京市,北京市,,生活服务;物流速递;物流速递
116.661053,40.081067,中振物流,S201(通顺路),北京市,北京市,,生活服务;物流速递;物流速递
116.566601,40.074414,北京普冷国际物流有限公司,空港工业区A区天纬路3街2号院,北京市,北京市,天竺,生活服务;物流速递;物流速递
116.594768,40.125858,北京物流中心,顺畅大道(普洛斯空港物流园),北京市,北京市,,生活服务;物流速递;物流速递
116.618998,40.109393,北京吉祥润物流有限公司,顺义仁和镇沙陀工业园甲8号,北京市,北京市,,生活服务;物流速递;物流速递
116.572697,40.098857,希望之星物流有限公司,后沙峪铁匠营村东口斯派特物流园内大门后,北京市,北京市,,生活服务;物流速递;物流速递
116.901882,40.068723,北京华夏众恒货物运输有限责任公司,大孙各庄镇后岭上村二街55号,北京市,北京市,,生活服务;生活服务场所;生活服务场所
116.608872,40.113509,北京明邦物流股份有限公司,航港二路(宏远·航城广场),北京市,北京市,南法信,生活服务;物流速递;物流速递
116.831597,40.071409,长春市华阳储运有限公司北务仓储库,北务镇龙塘路2号-5,北京市,北京市,,生活服务;物流速递;物流仓储场地
116.901429,40.069035,北京灵捷物流有限公司,大孙各庄镇后岭上村二街56号,北京市,北京市,,生活服务;物流速递;物流速递
116.600002,40.113626,北京华欣物流有限公司(北京分公司),北京市顺义区南法信镇航港物流园A-05,北京市,北京市,,生活服务;物流速递;物流速递
116.752612,40.211554,中铁物流集团,[],北京市,北京市,,生活服务;物流速递;物流速递
116.643833,40.177826,酷房物流,北京市顺义区马坡镇荆卷村帝王工厂内,北京市,北京市,马坡,生活服务;物流速递;物流速递
116.608879,40.113510,北京中外运华力物流有限公司,宏远·航城广场B座5层B508,北京市,北京市,南法信,生活服务;物流速递;物流速递
116.607969,40.114446,中储智运中卡物流(天津)有限公司,南法信航港国际大厦801,北京市,北京市,南法信,生活服务;生活服务场所;生活服务场所
116.597490,40.120164,北京京贸运通国际物流有限公司,空港物流基地八街1号恒通大厦101室,北京市,北京市,,生活服务;物流速递;物流速递
116.617694,40.160059,庆隆物流,X012(南陈路),北京市,北京市,马坡,生活服务;物流速递;物流速递
116.575294,40.132647,戎创物流一号仓库,金马工业区兴仁路10号,北京市,北京市,,生活服务;物流速递;物流仓储场地
116.543247,40.213810,华辉国际运输服务有限公司,赵全营镇兆丰产业基地园盈路16号2幢3层306室,北京市,北京市,,生活服务;生活服务场所;生活服务场所
116.756423,40.085994,北京锦海捷亚国际物流有限公司,李遂镇南孙路23号,北京市,北京市,,生活服务;物流速递;物流速递
116.527488,40.149797,北京金路易全胜物流有限公司,羊董路支线,北京市,北京市,,生活服务;物流速递;物流速递
116.661724,40.079126,中泰佳和科技发展有限公司物流中心,S201(通顺路),北京市,北京市,,生活服务;物流速递;物流速递
116.608339,40.112071,中谊快运,南彩镇宏远航城广场中轴路东宏远航城广场g座,北京市,北京市,,生活服务;物流速递;物流速递
116.760673,40.142728,国鹏达物流,南彩镇坞里村盛行通建材院内,北京市,北京市,南彩,生活服务;物流速递;物流速递
116.647396,40.099765,北京盛达万里物流轿车拖运公司,杜杨南街与顺强路交叉口,北京市,北京市,,生活服务;物流速递;物流速递
116.684759,40.065858,北京广运顺达物流有限公司,龙塘路61号,北京市,北京市,,生活服务;生活服务场所;生活服务场所
116.694372,40.140150,中汽诚运物流有限公司,南彩工业园彩祥东路与彩达二街交叉口西南角院内33.35号,北京市,北京市,南彩,生活服务;物流速递;物流速递
116.684642,40.066049,北京迅达平安物流有限公司,龙塘路,北京市,北京市,,生活服务;物流速递;物流速递
116.700430,40.091921,北京博通美达物流有限公司,仁和镇林河南大街9号高顺云港新能科技园1号楼303室,北京市,北京市,,生活服务;物流速递;物流速递
116.719875,40.159829,吉泰物流(顺义分公司),顺密路与郝彩路交叉口东50米停车场,北京市,北京市,南彩,生活服务;物流速递;物流速递
116.729965,40.049427,千翔物流公司,史庄村村委会向北80米,北京市,北京市,李桥,生活服务;物流速递;物流速递
116.625339,40.126135,小彭南方菜特菜配送中心,东六环路(石门市场南区南侧约150米),北京市,北京市,仁和,生活服务;物流速递;物流速递
116.620886,40.103502,北京厚德天成物流有限责任公司,仁和镇沙坨工业区2号,北京市,北京市,,生活服务;物流速递;物流速递
116.731068,40.215199,北京康怡物流有限公司,北韩路西100米,北京市,北京市,,生活服务;物流速递;物流速递
116.712707,40.062452,北京轿车托运,S332(龙塘路),北京市,北京市,,生活服务;物流速递;物流速递
116.696327,40.144021,长久物流,[],北京市,北京市,南彩,生活服务;物流速递;物流仓储场地
116.684946,40.066112,北京铭信物流有限公司,北京市顺义区龙塘路61号院,北京市,北京市,,生活服务;物流速递;物流速递
116.670876,40.077829,安能物流园,仁和镇近南二环中路,北京市,北京市,,生活服务;物流速递;物流仓储场地
116.588983,40.093326,中国南方航空公司货运处,大兴南航国内货运处,北京市,北京市,,生活服务;物流速递;物流速递
116.643708,40.080584,吉泰物流(顺义分公司),东六环路现代二厂一号门对面停车场,北京市,北京市,,生活服务;物流速递;物流速递
116.596155,40.144380,庆隆物流(顺义站),顺沙路与京密路交叉口向西120米路北,北京市,北京市,,生活服务;物流速递;物流速递
116.599178,40.120284,瑞驰德国际货运代理,顺畅大道与物流园八街交叉路口往东约150米,北京市,北京市,,生活服务;物流速递;物流速递
116.610298,40.115579,北京天拓运通国际货运代理有限公司,顺平路旭辉空港中心B1114,北京市,北京市,南法信,生活服务;物流速递;物流速递
116.661726,40.079118,北京大芳龙商贸物流基地,S201(通顺路),北京市,北京市,,生活服务;物流速递;物流速递
116.647323,40.099765,北京元顺物流有限公司,北京市顺义区仁和镇顺强路杜杨南街福特库停车场,北京市,北京市,仁和,生活服务;物流速递;物流速递
116.564426,40.075628,富来特国际货运代理有限责任公司,空港街道空港工业a区天柱路甲12号富来特国际货运代理有限责任公司,北京市,北京市,天竺,生活服务;生活服务场所;生活服务场所
116.590773,40.232663,北京森泽物流,赵全营镇去碑营村,北京市,北京市,,生活服务;物流速递;物流速递
116.574517,40.125330,四方医药物流,吉顺街,北京市,北京市,,生活服务;物流速递;物流速递
116.611600,40.114780,货拉拉(顺义南法信培训门店),旭辉空港中心A座704室,北京市,北京市,南法信,生活服务;生活服务场所;生活服务场所
116.651501,40.081945,物流运输,外环线,北京市,北京市,,生活服务;物流速递;物流速递
116.605335,40.131172,北京路港快线物流有限公司,乐铁设备北京有限公司东南100米,北京市,北京市,,生活服务;生活服务场所;生活服务场所
116.760627,40.089763,燕飞鸿达仓储物流,李遂镇006县道北汽模塑科技有限公司院内,北京市,北京市,,生活服务;物流速递;物流速递
116.552743,40.137943,北京盛泰物流有限公司,救援路188号,北京市,北京市,,生活服务;物流速递;物流速递
116.792237,40.063720,北京天睿畅达运输有限公司,永顺华蔬菜种植有限公司西,北京市,北京市,,生活服务;物流速递;物流速递
116.607037,40.103432,中国国际货运航空国际营业大厅,[],北京市,北京市,,生活服务;物流速递;物流速递
116.613763,40.115269,南法信物流配送区,X011(南白路),北京市,北京市,南法信,生活服务;物流速递;物流速递
116.587752,40.121901,北京豪创物流有限公司,空港物流园八街9号院3号楼305室,北京市,北京市,,生活服务;物流速递;物流速递
116.575816,40.132648,北京飞翔捷运物流有限公司,高丽营镇金马工业园兴仁路10号(中灌顺鑫科技发展有限公司)东南库房,北京市,北京市,,生活服务;物流速递;物流速递
116.720430,40.051418,海润通达物流北京有限公司,李桥镇吴庄村甲3号,北京市,北京市,李桥,生活服务;物流速递;物流速递
116.763614,40.095546,北京茗宇物流有限公司,李遂镇规划三路28号,北京市,北京市,,生活服务;物流速递;物流仓储场地
116.640043,40.028515,北京骏海货运代理有限公司,李桥镇壁富路11号,北京市,北京市,李桥,生活服务;生活服务场所;生活服务场所
116.683972,40.038192,九曳供应链北京运营中心,李桥镇任李路西大坨甲5号,北京市,北京市,李桥,生活服务;物流速递;物流速递
116.694568,40.140476,北京市广鹏物流有限公司,彩达二街,北京市,北京市,南彩,生活服务;物流速递;物流速递
116.590649,40.123664,吉林快达物流有限公司,宝供北京物流基地东南100米,北京市,北京市,,生活服务;物流速递;物流速递
116.574266,40.135908,北京纵横大通物流中心,工业区连通路金马工业园88号,北京市,北京市,,生活服务;物流速递;物流速递
116.618905,40.114325,北京市洪洋天地物流有限公司,南法信沙坨村,北京市,北京市,仁和,生活服务;物流速递;物流速递
116.631080,40.073300,北京德诚顺达货物运输有限公司,李桥镇首开苏活13号楼底商,北京市,北京市,,生活服务;物流速递;物流速递
116.629375,40.176707,餐北斗供应链华北运营中心CBD顺义基地,马坡聚源中路甲15号,北京市,北京市,马坡,生活服务;物流速递;物流速递
116.586121,40.134595,优快通物流北京分公司,金马工业园中路南门,北京市,北京市,,生活服务;物流速递;物流速递
116.498806,40.170473,百世物流,高丽营镇四村银樽KTV往西150米顺沙路南,北京市,北京市,,生活服务;物流速递;物流速递
116.698997,40.078076,云车流物流(北京办事处),外环路王家厂物流基地,北京市,北京市,,生活服务;物流速递;物流速递
116.616625,40.144879,北京京港顺超运输队,西海洪二街41号附近,北京市,北京市,,生活服务;物流速递;物流速递
116.561118,40.215099,北京大恩物流有限公司,赵全营镇前桑园村西路54号,北京市,北京市,,生活服务;生活服务场所;生活服务场所
116.805789,40.039564,军英联达物流,木燕路与珠宝屯北路交叉路口西北侧,北京市,北京市,,生活服务;物流速递;物流速递
116.567263,40.074229,中外运现代物流有限公司,天竺天纬三街2号,北京市,北京市,天竺,生活服务;物流速递;物流速递
116.702115,40.144266,北京吉顺祥物流有限公司,左堤路与Y565交叉路口往东南约200米,北京市,北京市,南彩,生活服务;物流速递;物流速递
116.619510,40.113459,兆驰物流,仁和镇沙坨工业园6号库,北京市,北京市,,生活服务;物流速递;物流速递
116.692382,40.090261,北京管氏物流发展有限公司,仁和镇仁和园三街2号,北京市,北京市,,生活服务;物流速递;物流速递
116.590753,40.123682,联想北京区域分拨中心,南法信镇物流园六街12号B库,北京市,北京市,,生活服务;物流速递;物流速递
116.699770,40.060516,众萃冷链北京顺义RDC,李桥镇龙塘路33号,北京市,北京市,,生活服务;生活服务场所;生活服务场所
116.663534,40.081654,租一站办公家具仓储物流,外环路与通顺路交叉路口往东南约100米,北京市,北京市,,生活服务;物流速递;物流速递
116.567030,40.074419,北京苏宁物流(中外运扇扩库房),空港工业区A区天纬路3街2号院,北京市,北京市,天竺,生活服务;物流速递;物流速递
116.624681,40.126074,北京扶贫区域农产品推广配送中心,东六环路(石门市场南区南侧约200米),北京市,北京市,仁和,生活服务;物流速递;物流速递
116.742348,40.197074,新华联合物流中心,北小营镇,北京市,北京市,,生活服务;物流速递;物流速递
116.590755,40.124046,北京都运达物流有限公司,南法信镇物流园六街12号A栋,北京市,北京市,,生活服务;物流速递;物流速递
116.651505,40.081852,北京尊玉物流有限公司,李桥镇米各庄村口东50米,北京市,北京市,,生活服务;生活服务场所;生活服务场所
116.684820,40.038308,微风市集配送中心,李堡路(中国石油顺实加油站西侧约100米),北京市,北京市,李桥,生活服务;物流速递;物流速递
116.558419,40.216977,北京易连国际货物运输代理有限公司,X014(火寺路),北京市,北京市,,生活服务;生活服务场所;生活服务场所
116.643613,40.097047,华远物流总部,双河大街61号首钢国际汽车物流基地,北京市,北京市,,生活服务;物流速递;物流速递
116.704467,40.095549,北京锐德物流,河南村,北京市,北京市,仁和,生活服务;物流速递;物流速递
116.694540,40.139202,中汽远通货物运输(北京)有限公司,南彩工业园彩祥东路9号彩达二街,北京市,北京市,南彩,生活服务;生活服务场所;生活服务场所
116.647398,40.099626,北京悦达圣物流有限公司北京总公司,顺强路福特库院内,北京市,北京市,仁和,生活服务;生活服务场所;生活服务场所
116.610690,40.115449,北京新盛运达国际货运代理有限公司,南法信旭辉空港中心b座,北京市,北京市,南法信,生活服务;生活服务场所;生活服务场所
116.590211,40.101435,BGS国际货运站,马家营前街47号附近,北京市,北京市,,生活服务;生活服务场所;生活服务场所
116.746040,40.211918,北京运双达重型机械运输有限公司,昌金路南50米,北京市,北京市,,生活服务;生活服务场所;生活服务场所
116.566550,40.074383,中外运扇扩国际冷链物流,天纬三街,北京市,北京市,,生活服务;生活服务场所;生活服务场所
116.709038,40.074955,大鸿联运北京轿车汽车托运公司,防汛路,北京市,北京市,,生活服务;生活服务场所;生活服务场所
116.597815,40.120105,盛世辉腾北京国际货运代理有限公司,检测西路4号恒通大厦301室,北京市,北京市,,生活服务;生活服务场所;生活服务场所
116.610863,40.114540,北京龙建和顺国际物流有限公司,金关北二街3号院3旭辉·空港中心C2座3F324,北京市,北京市,南法信,生活服务;物流速递;物流速递
116.695617,40.079577,北京金鼎盛物流有限公司,仁和园三街与外环线交叉口,北京市,北京市,,生活服务;物流速递;物流速递
116.613087,40.120144,北京博华物流有限公司,南法信府前街56号东港鑫座2层,北京市,北京市,南法信,生活服务;物流速递;物流速递
116.883915,40.107552,北京力发物流有限公司,龙尹路与顺平南线交叉路口往北约100米,北京市,北京市,,生活服务;物流速递;物流速递
116.590481,40.120588,鹏速达货运代理,物流园八街9号林吉大厦A座2楼223室,北京市,北京市,,生活服务;物流速递;物流速递
116.859780,40.180677,北京稽首物流有限公司,北京富奥旁(龙尹路西),北京市,北京市,,生活服务;物流速递;物流速递
116.608879,40.113510,北京凯利航程物流有限公司,宏远·航城广场B座7层B712,北京市,北京市,南法信,生活服务;物流速递;物流速递
116.610863,40.114540,北京翔龙明德国际货物运输代理有限公司,金关北二街3号院3旭辉·空港中心C2座12F1221,北京市,北京市,,生活服务;物流速递;物流速递
116.608627,40.149826,京安邦物流,南法信镇三家店村后街38号西200米,北京市,北京市,,生活服务;生活服务场所;生活服务场所
116.610860,40.114540,青岛经汉物流服务有限公司(北京分公司),金关北二街3号院3旭辉·空港中心C2座8F822,北京市,北京市,南法信,生活服务;物流速递;物流速递
116.608927,40.113329,阪急孤神国际货运代理有限公司,宏远·航城广场B座(中轴路东),北京市,北京市,南法信,生活服务;生活服务场所;生活服务场所
116.610735,40.115324,北京海容川国际物流有限公司,金关北二街3号院2旭辉·空港中心B座11F1112,北京市,北京市,南法信,生活服务;物流速递;物流速递
116.611766,40.115056,北京上海京星物流有限公司,金关北二街3号院1旭辉·空港中心A座8F809,北京市,北京市,南法信,生活服务;物流速递;物流速递
116.610741,40.115330,北京联动物流有限公司,金关北二街3号院2旭辉·空港中心B座5F520,北京市,北京市,南法信,生活服务;物流速递;物流速递
116.827492,40.148140,北京杨帆凯瑞运输部,杨镇地区二街村新宅街一条17号,北京市,北京市,,生活服务;物流速递;物流速递
116.694313,40.138119,北京路畅顺达物流有限公司,彩祥东路9号,北京市,北京市,南彩,生活服务;物流速递;物流速递
116.610860,40.114540,北京骏宇嘉业国际物流有限公司,金关北二街3号院3旭辉·空港中心C2座8F831,北京市,北京市,南法信,生活服务;物流速递;物流速递
116.722028,40.040615,格瑞物流李桥仓库,任李路沿河段7号,北京市,北京市,,生活服务;生活服务场所;生活服务场所
116.610853,40.114535,北京天运联辉国际物流有限公司,金关北二街3号院3旭辉·空港中心C2座9F921,北京市,北京市,南法信,生活服务;物流速递;物流速递
116.611675,40.114410,泛思特国际运输,金关北二街3号院4旭辉·空港中心D座8F812,北京市,北京市,南法信,生活服务;生活服务场所;生活服务场所
116.498978,40.187267,顺义区高丽营一村农产品基地,高下路16号,北京市,北京市,,生活服务;物流速递;物流仓储场地
116.586082,40.061142,中航迅捷北京国际货运有限公司,天竺镇府前一街1号天瑞大厦308室,北京市,北京市,天竺,生活服务;物流速递;物流速递
116.759277,40.108862,北京宏星伟业物流有限公司,李遂镇李隧镇葛代子村中街甲20号,北京市,北京市,,生活服务;物流速递;物流速递
116.579108,40.145656,北京恒泰通源物流有限公司,高丽营镇文化营村文良路东区1号附近,北京市,北京市,,生活服务;生活服务场所;生活服务场所
116.599009,40.126243,海格物流北京分公司,空港物流基地顺昌大道16号普洛斯北京空港物流园B-5号C单元,北京市,北京市,,生活服务;生活服务场所;生活服务场所
116.608726,40.112159,骏泰国际物流有限公司,南法信顺平路宏远航城广场E座408,北京市,北京市,南法信,生活服务;物流速递;物流速递
116.625509,40.123884,福信放生配货中心,东六环22号靠近老王水产批发,北京市,北京市,仁和,生活服务;物流速递;物流速递
116.616507,40.146381,中国医药对外贸易公司物流中心,南法信镇南陈路15号(西海洪),北京市,北京市,,生活服务;物流速递;物流速递
116.701286,40.146851,索安物流有限公司(轿车托运店),南彩镇后俸伯左堤路东茂华工厂东北70米,北京市,北京市,南彩,生活服务;物流速递;物流速递
116.593225,40.127168,北京科园信海空港物流中心,南法信顺畅大道15号西区,北京市,北京市,,生活服务;物流速递;物流速递
116.599763,40.113116,瑞华德物流,南法信机场北街10号院航港物流园,北京市,北京市,,生活服务;物流速递;物流速递
116.630501,40.108902,北京京龙金谷国际物流有限公司,澜西园三区36栋702,北京市,北京市,仁和,生活服务;物流速递;物流速递
116.686057,40.061318,博盛物流,龙塘路金百通物流斜对面,北京市,北京市,,生活服务;物流速递;物流速递
116.578974,40.130489,北京绿品优选食品配送服务有限公司,金马工业区南路,北京市,北京市,,生活服务;物流速递;物流速递
116.548731,40.093499,南航北京分公司货运楼,空港工业区区B区裕华路27号,北京市,北京市,后沙峪,生活服务;生活服务场所;生活服务场所
116.639851,40.219508,伊藤忠物流(中国)有限公司,牛栏山工业区1路3号,北京市,北京市,,生活服务;物流速递;物流速递
116.598657,40.125044,英百捷物流,南法信普洛斯物流园顺畅大道15号普洛斯库房16号院127号门附近,北京市,北京市,,生活服务;物流速递;物流速递
116.674071,40.028558,北京嘉华祥通物流有限公司,李桥镇英各庄村一街5号,北京市,北京市,李桥,生活服务;物流速递;物流速递
116.606571,40.109411,北京中联晟国际运输代理有限公司,航港二路民航快递大楼2层203室,北京市,北京市,,生活服务;物流速递;物流速递
116.685733,40.045631,百福东方国际物流集团,李桥镇北京东土复兴羊绒制品有限公司院内,北京市,北京市,,生活服务;物流速递;物流速递
116.608178,40.115923,宏远库货站,首都机场天竺综合保税区,北京市,北京市,南法信,生活服务;物流速递;物流速递
116.610705,40.115461,一带一路(北京)国际物流有限公司,南法信镇金关北二街3号院2号楼11层1112室,北京市,北京市,南法信,生活服务;物流速递;物流速递
116.562138,40.094954,北京中航捷运国际物流有限公司,天竺综合保税区竺园四街一号B座(三区),北京市,北京市,,生活服务;物流速递;物流速递
116.608604,40.114452,日通国际物流有限公司(中国),南法信顺平路566号航空国际大厦E508-E513,北京市,北京市,南法信,生活服务;物流速递;物流速递
116.611240,40.114880,和润天成国际物流有限公司,南法信镇金关北二街3号院旭辉空港中心C座,北京市,北京市,南法信,生活服务;物流速递;物流速递
116.635437,40.213188,北京广盛利丰物流有限公司,腾仁路22号,北京市,北京市,,生活服务;物流速递;物流速递
116.608932,40.113331,中亚宝丰国际物流有限公司,南法信顺平路580号航城广场B座9层,北京市,北京市,南法信,生活服务;物流速递;物流速递
116.610319,40.114195,北京浩运国际物流有限公司,南法信府前街45号旭辉-空港中心C座1230,北京市,北京市,南法信,生活服务;物流速递;物流速递
116.566711,40.075258,中外运天竺空港物流中心,二十里堡中国海关东150米天纬三街,北京市,北京市,天竺,生活服务;物流速递;物流速递
116.590184,40.094740,北京新港航通货运代理有限公司,天竺北京首都机场货运北路国航货运(24小时院内),北京市,北京市,,生活服务;物流速递;物流速递
116.589597,40.120562,腾昌公司,南法信镇八街9号林吉大厦b座3层,北京市,北京市,,生活服务;物流速递;物流速递
116.565597,40.070083,世递国际货物运输代理有限公司,天柱路20号中外运发展2号物流库,北京市,北京市,天竺,生活服务;物流速递;物流速递
116.564419,40.070395,外运发展天竺物流园1号库,空港工业A区,北京市,北京市,天竺,生活服务;物流速递;物流仓储场地
116.675654,40.023579,北京好益物流有限责任公司,通顺路附近,北京市,北京市,李桥,生活服务;物流速递;物流速递
116.608927,40.113322,北京阜康迅驰国际物流有限公司,南法信地区顺平路宏远航城广场B座708,北京市,北京市,南法信,生活服务;物流速递;物流速递
116.607979,40.113180,北京聚融国际货运代理有限公司,南法信顺平路580号宏远航城广场a座610室,北京市,北京市,南法信,生活服务;生活服务场所;生活服务场所
116.608683,40.113320,北京昊运联合国际货运代理有限公司,顺平路580号航城广场b座308室,北京市,北京市,南法信,生活服务;生活服务场所;生活服务场所
116.607755,40.114336,爱派克斯国际物流有限公司,南法信镇顺平路566号航港国际大厦南楼w410,北京市,北京市,南法信,生活服务;物流速递;物流速递
116.607567,40.103382,国航货运站,顺平路566号16,北京市,北京市,,生活服务;物流速递;物流速递
116.608863,40.114584,港中旅华贸国际物流股份有限公司,顺平路566号aclp国际大厦南楼e409,北京市,北京市,南法信,生活服务;物流速递;物流速递
116.608616,40.114446,北京泽坤国际货运代理有限公司,顺平路566号ACLP国际大厦E602-E607室,北京市,北京市,南法信,生活服务;生活服务场所;生活服务场所
116.684117,40.026307,北京国际钢铁物流城,李桥镇首钢东路9,北京市,北京市,,生活服务;物流速递;物流仓储场地
116.684428,40.075304,北京顺运丰达物流有限公司,南环路,北京市,北京市,,生活服务;物流速递;物流仓储场地
116.762076,40.076995,中都物流有限公司,李遂镇龙太路18号,北京市,北京市,,生活服务;物流速递;物流速递
116.596699,40.126030,普洛斯(顺畅大道),空港物流园顺畅大道16号,北京市,北京市,,生活服务;物流速递;物流速递
116.566444,40.072334,中航材(北京)物流有限公司,天竺空港工业区天纬四街3号,北京市,北京市,天竺,生活服务;物流速递;物流速递
116.643779,40.097112,首钢国际汽车物流基地,仁和林河开发区双河大街61号,北京市,北京市,,生活服务;物流速递;物流速递
116.500226,40.170517,德邦(顺沙路店),高丽营镇顺沙路13号,北京市,北京市,,生活服务;物流速递;物流速递
116.699264,40.132377,德邦快递(彩俸社区卫生服务站店),南彩镇彩俸北区6号楼1层3号,北京市,北京市,南彩,生活服务;物流速递;物流速递
116.628977,40.030809,圆通速递(南半壁店西一街),南半壁店西一街60号,北京市,北京市,,生活服务;物流速递;物流速递
116.710407,40.041246,百世快递(沿河店),任李路沿河段93号,北京市,北京市,,生活服务;物流速递;物流速递
116.677025,40.117553,宅急送(北京顺义营业厅),裕龙花园六区20号楼3单元102号,北京市,北京市,裕龙,生活服务;物流速递;物流速递
116.660930,40.080960,北京安达物流有限公司,外环路与通顺路交汇处西南角,北京市,北京市,,生活服务;物流速递;物流速递
116.595551,40.120776,北京空港物流基地,物流园八街与顺畅大道交叉路口往西北约100米,北京市,北京市,,生活服务;物流速递;物流速递
116.628901,40.129342,德邦物流(石门街店),仁和镇府前街石门苑28号楼5单元102(石门市场大十字路东北角),北京市,北京市,仁和,生活服务;物流速递;物流速递
116.620202,40.043425,中国国际货运航空有限公司,五纬路1号国航运行大楼,北京市,北京市,,生活服务;物流速递;物流速递
116.558947,40.065824,中国国际货运航空(天柱路),天竺空港经济开发区天柱路29号,北京市,北京市,天竺,生活服务;物流速递;物流速递
116.608830,40.097992,中国国际货运航空有限公司(北京运营基地国内货站),顺平路566-16号,北京市,北京市,,生活服务;物流速递;物流速递
116.597197,40.120477,德邦快递,南法信镇顺畅大道一号恒通大厦后院,北京市,北京市,,生活服务;物流速递;物流速递
116.665818,40.091383,德邦(林河开发区营业部),顺仁路58号,北京市,北京市,,生活服务;物流速递;物流速递
116.615593,40.191529,北京优速物流有限公司(分拨中心顺义区),X012(南陈路),北京市,北京市,马坡,生活服务;物流速递;物流速递
116.666532,40.054823,德邦物流(通顺路店),通顺路李桥段4号,北京市,北京市,李桥,生活服务;物流速递;物流速递
116.846409,40.162077,圆通速递北京转运中心,[],北京市,北京市,,生活服务;物流速递;物流速递
116.597234,40.120452,大顺物流,南法信镇空港物流基地恒通大厦南库,北京市,北京市,,生活服务;物流速递;物流速递
117.146404,40.166337,兴谷鑫旺物流中心,山东庄镇平瑞街3号,北京市,北京市,,生活服务;物流速递;物流速递
117.025550,40.091797,北京第二物流中心,马坊规划7路附近,北京市,北京市,,生活服务;生活服务场所;生活服务场所
117.014972,40.086748,北京市平谷马坊物流基地管理委员会,密三路马坊物流基地东区276号正西方向90米,北京市,北京市,,生活服务;生活服务场所;生活服务场所
117.130463,40.153739,北京太保速达物流,平谷南街26号,北京市,北京市,兴谷,生活服务;物流速递;物流速递
117.130492,40.153739,中铁物流集团(平谷南街),平谷南街26号,北京市,北京市,兴谷,生活服务;物流速递;物流速递
117.129183,40.153697,北京源丰泰物流有限公司,平谷南街6号,北京市,北京市,兴谷,生活服务;物流速递;物流速递
117.015008,40.086837,北京京津港国际物流有限公司,马坊物流基地交易中心大楼内,北京市,北京市,,生活服务;物流速递;物流速递
117.126021,40.136442,中通妈妈驿站,园田街123号中通妈妈驿站,北京市,北京市,,生活服务;物流速递;物流速递
117.137629,40.153487,妈妈驿站,上纸寨五元面馆,北京市,北京市,,生活服务;物流速递;物流速递
117.111608,40.153120,北京易运通物流有限公司,乐园西小区7号,北京市,北京市,兴谷,生活服务;物流速递;物流速递
117.108920,40.166472,中铁快运(平谷营业部),平瑞街,北京市,北京市,王辛庄村,生活服务;物流速递;物流速递
117.089996,40.125321,安能物流,泃河西路39号,北京市,北京市,,生活服务;物流速递;物流速递
117.170999,40.124786,德邦快递,夏各庄镇夏各庄北街84号,北京市,北京市,,生活服务;物流速递;物流速递
117.016325,40.185840,德邦快递(北京平谷区峪口镇营业部),峪阳路29号,北京市,北京市,峪口,生活服务;物流速递;物流速递
117.116516,40.148009,真彩配送中心,滨河街道光明西小区58号,北京市,北京市,兴谷,生活服务;物流速递;物流速递
116.990509,40.037714,侣行(北京)运输有限公司,北京市平谷区马坊镇,北京市,北京市,,生活服务;物流速递;物流速递
117.096710,40.089649,奥通国际物流,顺平南线(赵家务小学东北侧约50米),北京市,北京市,,生活服务;物流速递;物流速递
117.022955,40.091756,普洛斯北京平谷物流园,[],北京市,北京市,,生活服务;物流速递;物流仓储场地
117.012139,40.084624,中铁物流集团,S204(密三路),北京市,北京市,,生活服务;物流速递;物流速递
116.994178,40.275246,平谷大桃基地仓储物流中心,[],北京市,北京市,,生活服务;物流速递;物流仓储场地
117.111594,40.167924,恒哲物流平谷分部,平程路192号,北京市,北京市,王辛庄村,生活服务;生活服务场所;生活服务场所
117.125208,40.176384,能达宏运物流(韵达快递),兴谷西路,北京市,北京市,,生活服务;物流速递;物流速递
117.238164,40.175014,北京达通顺发物流有限公司,新农村路与平蓟路交叉路口北侧,北京市,北京市,,生活服务;物流速递;物流速递
116.996704,40.093356,北京大翼货运代理有限公司,东河路南250米,北京市,北京市,,生活服务;生活服务场所;生活服务场所
117.015959,40.086810,北京三晋鸿运通物流,马坊物流基地东区684号,北京市,北京市,,生活服务;物流速递;物流速递
117.012079,40.084459,北京大翼货运代理有限公司,S204(密三路),北京市,北京市,,生活服务;生活服务场所;生活服务场所
117.094411,40.128069,北京九六零物流,泃河西路6号,北京市,北京市,,生活服务;生活服务场所;生活服务场所
117.088329,40.136351,天地华宇(海关南街),海关南街8号,北京市,北京市,,生活服务;物流速递;物流速递
117.021894,40.141887,中通快运北京平谷营业厅,七号生活超市往西50米,北京市,北京市,马昌营,生活服务;物流速递;物流速递
116.60016,39.85662,国美电器配送中心(黑庄户路),黑庄户乡黑庄户村,北京市,北京市,,生活服务;物流速递;物流速递
116.462169,40.013874,养乐多配送中心,望京北路39号院,北京市,北京市,望京,生活服务;物流速递;物流速递
116.507904,40.041849,鑫海仓储中心,顺白路甲68号,北京市,北京市,,生活服务;物流速递;物流仓储场地
116.569891,39.838796,海丰宝物流,黑庄户鲁店南路6号,北京市,北京市,,生活服务;物流速递;物流速递
116.603604,39.908530,通顺达物流(建国路),管庄双会桥200米,北京市,北京市,,生活服务;物流速递;物流速递
116.626235,39.989527,北京三缘物流公司,皮村路张家口北宗黄酒总代理旁,北京市,北京市,,生活服务;物流速递;物流速递
116.597944,39.877560,日日顺物流服务中心,黑庄户双树南村甲8号南侧,北京市,北京市,,生活服务;物流速递;物流速递
116.466202,39.959191,安迅物流有限公司,霄云路26号鹏润大厦B座1006室国美集团,北京市,北京市,燕莎,生活服务;物流速递;物流速递
116.477421,39.835071,陆港国际物流有限公司,东四环南路甲1号楼,北京市,北京市,十八里店,生活服务;物流速递;物流速递
116.568676,39.991449,鑫永物流,东苇路51号,北京市,北京市,,生活服务;物流速递;物流速递
116.590306,39.976459,北京雅君货运有限公司,楼榟庄北后街3号,北京市,北京市,,生活服务;物流速递;物流速递
116.569388,39.923637,中国邮政速递物流,平房定福家园南里二号院1号楼,北京市,北京市,定福庄,生活服务;邮局;邮政速递
116.591604,39.895174,北京货运中心(双桥营业部),三间房镇双桥中路88号(双克达公司对面),北京市,北京市,,生活服务;物流速递;物流速递
116.597879,39.876745,北京双南物流中心,黑庄户双树南村甲2号,北京市,北京市,,生活服务;物流速递;物流速递
116.520596,39.836757,北京万龙振华国际物流有限公司,如家快捷酒店(西直河康化桥店),北京市,北京市,十八里店,生活服务;物流速递;物流速递
116.473311,39.913095,海堡国际物流,东方梅地亚中心A座610室,北京市,北京市,大望路,生活服务;物流速递;物流速递
116.492562,39.987523,捷飞国际运输公司机场作业部,酒仙桥北路2号格兰维森商务楼223、225,北京市,北京市,大山子,生活服务;物流速递;物流速递
116.467187,39.958205,雅玛多国际物流有限公司(北京分公司),麦子店西路3号新恒基国际大厦5层505室,北京市,北京市,亮马桥,生活服务;物流速递;物流速递
116.540546,39.953946,北京一商美洁配送中心,平房路拔萃双语学校东门,北京市,北京市,,生活服务;物流速递;物流速递
116.577341,39.985503,北京京速达物流有限公司,物流修车大院,北京市,北京市,,生活服务;物流速递;物流速递
116.467840,39.818383,快快快货运(三台山),三台山路（祥龙物流院内）,北京市,北京市,亦庄,生活服务;物流速递;物流速递
116.459275,39.836902,北京市来成物流有限公司,南四环小红门城环城国际汽配城东门南城1985院内,北京市,北京市,小红门,生活服务;物流速递;物流速递
116.530351,40.004284,安吉汽车运输物流公司(北京分公司),南皋路518号,北京市,北京市,,生活服务;物流速递;物流速递
116.593088,39.87767,北京朝批商贸股份有限公司物流配送中心五号库,黑庄户乡双树南村大东路999号,北京市,北京市,,生活服务;物流速递;物流仓储场地
116.533497,39.839941,北京市鑫捷利顺达货运,康化路与S50东五环交叉口西北150米,北京市,北京市,十八里店,生活服务;物流速递;物流速递
116.514497,39.873274,京铁物流有限公司,王四营路1号,北京市,北京市,,生活服务;物流速递;物流速递
116.598116,40.051939,北京航空货运公司(岗山路),岗山路甲2号,北京市,北京市,,生活服务;物流速递;物流速递
116.437027,39.914772,嘉之会(北京)货运代理有限公司,雅宝路10号凯威大厦16层05室,北京市,北京市,建国门,生活服务;物流速递;物流速递
116.567438,39.911080,万达杰诚国际物流,三间房南里7号院万东国际文创园15号楼206室,北京市,北京市,定福庄,生活服务;生活服务场所;生活服务场所
116.594940,39.941638,北京春溢通物流中心,东晓景村206号东南方向100米,北京市,北京市,,生活服务;物流速递;物流速递
116.490665,39.832657,北京和众奥顺达物流有限公司(草屯),十八里店乡1998号,北京市,北京市,十八里店,生活服务;物流速递;物流速递
116.440845,39.928131,捷桥国际货运代理有限公司,吉庆里6号佳汇中心B座17层,北京市,北京市,东四,生活服务;物流速递;物流速递
116.459302,39.837221,内蒙古速安物流服务有限公司城环城营业部,小红门路南城一九八五产业园内XB06号,北京市,北京市,小红门,生活服务;生活服务场所;生活服务场所
116.512109,39.873391,百子湾货运站,化工路东200米,北京市,北京市,,生活服务;生活服务场所;生活服务场所
116.594793,39.989013,金盏物流园,东高路10号附近,北京市,北京市,,生活服务;物流速递;物流仓储场地
116.590072,39.891507,京客隆配送中心,双桥中路南150米,北京市,北京市,,生活服务;物流速递;物流速递
116.632964,39.971348,朝鑫东方物流园,金盏乡黎各庄村沙窝北路256号,北京市,北京市,,生活服务;物流速递;物流仓储场地
116.574622,39.884329,灵捷物流,于家围村,北京市,北京市,,生活服务;物流速递;物流速递
116.569536,39.996933,交运通恒物流,金盏东苇路28号,北京市,北京市,,生活服务;物流速递;物流速递
116.474639,39.836687,汉城物流服务公司,博大路3附近,北京市,北京市,小红门,生活服务;物流速递;物流速递
116.450540,39.841728,世茂通物流,成寿寺路138号院,北京市,北京市,小红门,生活服务;物流速递;物流速递
116.467244,39.958262,中远海运物流,太阳宫麦子店西路3号新恒基大厦10楼,北京市,北京市,亮马桥,生活服务;物流速递;物流速递
116.491372,39.898704,北京方通物流有限公司,东四环中路82号金长安大厦A座1005室,北京市,北京市,百子湾,生活服务;物流速递;物流速递|公司企业;公司;公司
116.459325,39.836903,永顺胜达物流,小红门路(联年福公寓西北侧约50米),北京市,北京市,小红门,生活服务;物流速递;物流速递
116.522821,40.006204,鼎力三通物流有限公司,南皋路123号院,北京市,北京市,,生活服务;物流速递;物流速递
116.491944,39.896428,北京海龙国际运输代理有限公司,东四环中路18号,北京市,北京市,百子湾,生活服务;物流速递;物流速递
116.554390,39.881868,北京宏盛顺达运输有限公司,东华印刷厂附近,北京市,北京市,,生活服务;物流速递;物流速递
116.454563,39.839467,北京康乾捷利达物流有限公司,南四环东路68号附近,北京市,北京市,小红门,生活服务;物流速递;物流速递
116.460515,39.951506,日通国际物流有限公司(中国),东三环北路5号北京发展大厦7层716,北京市,北京市,燕莎,生活服务;物流速递;物流速递
116.474570,39.995708,龙腾易捷物流有限公司,阜通西大街华鼎世家304号楼301室,北京市,北京市,望京,生活服务;物流速递;物流速递
116.552520,39.862863,祥龙物流(集团)有限公司干线运输分公司,黄厂路白鹿司村南265号,北京市,北京市,豆各庄村,生活服务;物流速递;物流速递
116.489333,39.980929,平发货运,酒仙桥路9号,北京市,北京市,大山子,生活服务;物流速递;物流速递
116.468619,39.815267,北京祥龙三台山物流有限公司(三台山路),朝阳区 小红门三台山路甲1号,北京市,北京市,亦庄,生活服务;物流速递;物流速递
116.570063,39.934503,达利丰物流,三间房定福庄甲1号园艺场内附近,北京市,北京市,常营,生活服务;物流速递;物流速递
116.597745,39.829039,中铁物流集团市场部,张台路,北京市,北京市,,生活服务;物流速递;物流速递
116.491075,39.987384,山东天泽航国际货运代理有限公司,酒仙桥路2号-798艺术园区01商务楼312D,北京市,北京市,酒仙桥,生活服务;物流速递;物流速递
116.495070,39.982954,北京七星永和物流有限公司,七星路与万红里北巷交叉口西北50米,北京市,北京市,大山子,生活服务;物流速递;物流速递
116.523509,40.003088,五元物流,崔各庄南皋路123号院,北京市,北京市,,生活服务;物流速递;物流速递
116.492345,39.864960,仙通物流(北京东方大酒店南),十八里店(小武基健身中心往里),北京市,北京市,南磨房,生活服务;物流速递;物流速递
116.490497,39.979812,北京迅安达国际货运代理有限公司,酒仙桥路10号星城国际大厦C座1004室,北京市,北京市,大山子,生活服务;物流速递;物流速递
116.498601,39.923497,中远海运科技(北京)有限公司,中远海运物流大厦6层,北京市,北京市,,生活服务;物流速递;物流速递
116.589279,39.980759,北京华天元货运代理有限公司,金盏乡楼梓庄村北京外运物流中心,北京市,北京市,,生活服务;物流速递;物流速递
116.460135,39.952938,嘉达货运代理有限公司(北京分公司),东三环北路3号中远幸福大厦B座13层1301,北京市,北京市,燕莎,生活服务;物流速递;物流速递
116.540199,40.042974,五元物流公司,孙河405车站东100米,北京市,北京市,,生活服务;物流速递;物流速递
116.543954,39.960225,北京四通纵横物流有限公司总部,东坝中街奥林匹克花园322号楼,北京市,北京市,东坝,生活服务;物流速递;物流速递
116.491427,39.898660,华欣物流,东四环中路金长安大厦A1505,北京市,北京市,百子湾,生活服务;物流速递;物流速递
116.453966,39.944218,北京盛伦国际物流有限公司,朝阳区三里屯西六街6号乾坤大厦B区一层,北京市,北京市,三里屯,生活服务;物流速递;物流速递
116.451490,39.960641,顺通世航国际物流(北京)有限公司,曙光西里甲一号第三置业B座3206,北京市,北京市,太阳宫村,生活服务;物流速递;物流速递
116.506882,39.995510,北京桑迪国际货运代理有限公司(北京朝阳分店),草场地国际艺术村,北京市,北京市,,生活服务;物流速递;物流速递
116.521197,39.924100,池铭(北京)国际物流有限公司,雅成一里19号楼,北京市,北京市,,生活服务;物流速递;物流速递
116.591667,39.840114,北京安达天下物流有限公司,黑庄户乡大鲁店站,北京市,北京市,,生活服务;物流速递;物流仓储场地
116.553338,40.010188,北京中基鼎盛土石方运输有限公司,金盏家园C区低商110号,北京市,北京市,,生活服务;物流速递;物流速递
116.591096,39.836123,北京绿兔物流有限公司,黑庄户大鲁店二村南门999号院,北京市,北京市,,生活服务;物流速递;物流速递
116.626226,39.989428,三缘物流托运,皮村653号,北京市,北京市,,生活服务;物流速递;物流速递
116.446731,39.925026,北京中联众购供应链管理有限公司,工体南路7号院1室,北京市,北京市,朝外,生活服务;物流速递;物流速递
116.446850,39.925019,中联信远(北京)国际物流有限公司,工体南路7号院2室,北京市,北京市,朝外,生活服务;物流速递;物流速递
116.531077,39.882724,顺心捷达快运(朝阳十八里店店),王四营北路恒远昌盛文创园西12-13号,北京市,北京市,高碑店村,生活服务;物流速递;物流速递
116.589073,39.840699,北京诚讯通运输有限公司,大鲁店二村北口999号斜对面,北京市,北京市,,生活服务;生活服务场所;生活服务场所
116.594811,39.829401,北京宇顺通达物流有限公司,张台路98号,北京市,北京市,,生活服务;物流速递;物流速递
116.577775,39.985731,北京胜和物流有限公司,金盏乡北马房物流修车大院,北京市,北京市,,生活服务;物流速递;物流速递
116.589398,39.870132,北京顶通物流有限公司,黑庄户乡万子营西村大咸路888号,北京市,北京市,,生活服务;物流速递;物流速递
116.574413,39.846452,北京礼才奇快运有限公司,大鲁店北路1号,北京市,北京市,,生活服务;物流速递;物流速递
116.495934,39.901204,北京天虹祥云搬家有限责任公司,百子湾西社区东门北邻,北京市,北京市,百子湾,生活服务;搬家公司;搬家公司
116.615457,39.999221,北京春溢通搬家有限公司,东窑艺术区108号院,北京市,北京市,,生活服务;搬家公司;搬家公司
116.572938,39.885371,首农配送(双桥站),双桥王四营北路东郊市场西门,北京市,北京市,,生活服务;物流速递;物流速递
116.594887,39.829370,东方神运物流有限公司,黑庄户张台路中铁物流对面,北京市,北京市,,生活服务;物流速递;物流速递
116.520420,39.836802,北京京津冀物流有限公司,十八里店老君堂中街如家酒店旁,北京市,北京市,十八里店,生活服务;物流速递;物流速递
116.603970,39.908520,大东北物流,东会村78号,北京市,北京市,,生活服务;物流速递;物流速递
116.438328,39.907350,永旺环球(北京)国际货运代理有限公司,建国门外大街甲26号长富宫办公楼4层,北京市,北京市,建外大街,生活服务;物流速递;物流速递
116.596024,39.858302,进极储运有限公司(万通路),黑庄户乡万通路8号,北京市,北京市,,生活服务;物流速递;物流速递
116.491261,39.913005,瑞鲜(中国)国际物流有限公司,东四环中路58号远洋国际中心D座6层603号,北京市,北京市,四惠,生活服务;物流速递;物流速递
116.523044,39.836799,北京朝批商贸股份有限公司物流配送中心一号库,老君堂村1280,北京市,北京市,十八里店,生活服务;物流速递;物流仓储场地
116.465666,39.928880,中国远洋运输总公司北京船员服务中心(集团),团结湖北里7号楼,北京市,北京市,团结湖,生活服务;物流速递;物流速递
116.562508,39.873108,中铁快运,双桥路中海装饰院内办公楼一层,北京市,北京市,豆各庄村,生活服务;物流速递;物流速递
116.422240,40.010108,中信信通国际物流有限公司,北苑路108号,北京市,北京市,,生活服务;物流速递;物流速递
116.490798,39.968829,德迅(中国)货运代理有限公司北京分公司,酒仙桥路颐堤港写字楼1座301,北京市,北京市,酒仙桥,生活服务;生活服务场所;生活服务场所
116.425310,40.027219,中铁物流集团北苑分公司,安外北苑2号院院内,北京市,北京市,来广营,生活服务;物流速递;物流速递
116.594645,39.894641,北京瑞蒙物流有限公司,黑庄户双桥中路三号院北京大千旁,北京市,北京市,,生活服务;物流速递;物流速递
116.507782,39.993995,万联国际物流,草场地甲8号A-7,北京市,北京市,,生活服务;物流速递;物流速递
116.513332,39.887874,北京世纪远翔物流有限公司,广渠东路,北京市,北京市,百子湾,生活服务;物流速递;物流速递
116.513332,39.887874,北京世纪远翔物流有限公司,广渠东路,北京市,北京市,百子湾,生活服务;物流速递;物流速递
116.482748,39.979049,北京鸿通货运代理有限公司,高家园四区10号,北京市,北京市,酒仙桥,生活服务;物流速递;物流速递
116.498736,39.978233,燕文物流总部,酒仙桥东路10号,北京市,北京市,大山子,生活服务;物流速递;物流速递
116.443699,39.973634,丰和园物流公司,黑庄户27院,北京市,北京市,太阳宫村,生活服务;物流速递;物流速递
116.472638,39.909073,中经得美国际快运代理公司,建国路93号万达广场A座22层2205室,北京市,北京市,大望路,生活服务;物流速递;物流速递
116.490723,39.986475,金凤翔货运代理有限公司,酒仙桥路2号798艺术区01商务楼二层N29,北京市,北京市,大山子,生活服务;物流速递;物流速递
116.464822,39.959417,傲星国际物流有限公司(北京分公司),霄云路27中国庆安大厦7层716,北京市,北京市,,生活服务;物流速递;物流速递
116.491267,39.913605,厦门联合物流有限公司,八里庄西里58号远洋国际中心C座3层304-305,北京市,北京市,慈云寺,生活服务;物流速递;物流速递
116.596290,39.858337,北京中谊快运有限公司,黑庄户乡万通路8号,北京市,北京市,,生活服务;物流速递;物流速递
116.465691,39.857243,徳邦物流,十八里店十里河大方国际茶城,北京市,北京市,十里河,生活服务;物流速递;物流速递
116.487753,39.916270,北京势迅物流有限公司,东四环中路41号嘉泰国际大厦12层1231室,北京市,北京市,红庙,生活服务;物流速递;物流速递
116.446749,39.924877,祥通天际589国际物流,工体南路7号院内,北京市,北京市,朝外,生活服务;物流速递;物流速递
116.518945,39.984639,鑫世锐达物流,酒仙桥街道酒仙桥北路一号环铁派出所院内,北京市,北京市,,生活服务;物流速递;物流速递
116.438159,39.967925,北京纽菲德商务服务有限公司,西坝河西里英特国际A2-16D,北京市,北京市,,生活服务;物流速递;物流速递|公司企业;公司企业;公司企业
116.476438,39.953078,北京恒远诚信国际货运代理有限公司,亮马桥路32号高谰大厦,北京市,北京市,亮马桥,生活服务;生活服务场所;生活服务场所
116.541494,40.009320,物美物流,长店大街102号金隅搅拌站对面,北京市,北京市,,生活服务;物流速递;物流速递
116.542855,39.883442,丰和园物流,王四营北路北100米,北京市,北京市,高碑店村,生活服务;物流速递;物流速递
116.511380,39.832299,北京惠德货运,十八里店乡横街子村张家店339号附近,北京市,北京市,十八里店,生活服务;生活服务场所;生活服务场所
116.603840,39.991477,北京明鹏鑫盛运输有限公司,金盏乡东窑村547号,北京市,北京市,,生活服务;物流速递;物流速递
116.464060,39.821870,科通物流,小红门乡三台山村甲1号,北京市,北京市,亦庄,生活服务;物流速递;物流速递
116.491267,39.913605,国商物流有限公司,东四环中路58号远洋国际中心C座8层803号,北京市,北京市,慈云寺,生活服务;物流速递;物流速递
116.630409,39.971080,德邦金榆路快递分部,金盏乡黎各庄7号,北京市,北京市,,生活服务;物流速递;物流速递
116.475471,39.985819,北京市邮邮速递物流有限公司,望京阜通东大街18号,北京市,北京市,望京,生活服务;物流速递;物流速递
116.542118,39.859438,胜京物流,王四营五方天雅汽配城南区物流区东3-05,北京市,北京市,,生活服务;物流速递;物流速递
116.481285,39.990321,王光发托运部,阜通东大街6-2号楼附近,北京市,北京市,望京,生活服务;物流速递;物流速递
116.557047,39.961101,北京三新物流,东坝乡红松园32号,北京市,北京市,东坝,生活服务;物流速递;物流速递
116.406170,39.995459,北京华油国际物流有限公司,安立路101号名人大厦15层,北京市,北京市,北辰,生活服务;物流速递;物流速递
116.514114,39.834655,朝批股份物流配送中心二号库,十八里店老君堂村康化路甲1号,北京市,北京市,十八里店,生活服务;物流速递;物流仓储场地
116.548161,39.882114,德邦快递快递分部,东五环路与王四营北路交叉路口往南约100米,北京市,北京市,高碑店村,生活服务;物流速递;物流速递
116.526305,40.003628,三元双日物流,[],北京市,北京市,,生活服务;物流速递;物流速递
116.630352,39.971155,德邦快递(金盏分部),金盏乡黎各庄7号,北京市,北京市,,生活服务;物流速递;物流速递
116.417393,40.022405,德邦快递,北五环路与北苑路交叉路口西北侧,北京市,北京市,,生活服务;物流速递;物流速递
116.509136,39.910426,德邦快递,高碑店镇通惠家园惠民园10号楼,北京市,北京市,高碑店村,生活服务;物流速递;物流速递
116.493571,39.980587,安能物流(大山子营业部),万红路5号篮涛中心院内安能物流,北京市,北京市,酒仙桥,生活服务;物流速递;物流速递
116.541359,40.037355,德邦快递(北京朝阳区孙河乡快递分部),康营家园15区2号楼底商02-03-108,北京市,北京市,孙河,生活服务;物流速递;物流速递
116.571439,39.935252,德邦快递(褡裢坡快递分部),幺家店路(北京市定福庄园艺场东北侧约50米),北京市,北京市,常营,生活服务;物流速递;物流速递
116.536923,39.866035,安能物流,[],北京市,北京市,,生活服务;物流速递;物流速递
116.536848,39.867518,安能物流,[],北京市,北京市,,生活服务;物流速递;物流速递
116.420552,40.040045,百世汇通,天怡家园,北京市,北京市,来广营,生活服务;物流速递;物流速递
116.492894,39.903180,百世快运公司,南磨房乡深沟村一号院龙万基商务中心百世快运公司,北京市,北京市,百子湾,生活服务;物流速递;物流速递
116.501629,39.915223,瞻航物流(北京)有限公司,十里堡甲3号A座都会国际19层R,北京市,北京市,四惠,生活服务;物流速递;物流速递
116.637600,39.978840,德邦物流,金盏乡黎各庄422号,北京市,北京市,,生活服务;物流速递;物流速递
116.367001,40.017461,德邦快递(北京朝阳区北沙滩营业部),域清街融域嘉园2号楼德邦快递,北京市,北京市,林萃,生活服务;物流速递;物流速递
116.506082,39.927237,德邦快递,[],北京市,北京市,姚家园,生活服务;物流速递;物流速递
116.454638,39.913962,DHL(国际快递朝外店),光华路7号,北京市,北京市,呼家楼,生活服务;生活服务场所;生活服务场所
116.550085,39.862403,青鸟物流(祥龙店),豆各庄镇黄厂路天海工业有限公司南祥龙物流公司干线运输分公司,北京市,北京市,豆各庄村,生活服务;物流速递;物流速递
116.548078,39.882652,大洋物流,王四营北路南花园村325号,北京市,北京市,高碑店村,生活服务;生活服务场所;生活服务场所
116.599129,39.840845,佳怡物流,黑庄户镇通马路西兴龙伟业彩钢公司院内,北京市,北京市,,生活服务;生活服务场所;生活服务场所
116.441911,39.969517,德邦(惠新西街店),北三环东路国美电器院内,北京市,北京市,太阳宫村,生活服务;物流速递;物流速递
116.573774,39.897700,中国邮政速递物流(双桥营业部),双桥路三间房医院向西二百米左右路北,北京市,北京市,,生活服务;邮局;邮政速递
116.573774,39.897700,中国邮政速递物流(双桥营业部),双桥路三间房医院向西二百米左右路北,北京市,北京市,,生活服务;邮局;邮政速递
116.565100,39.870100,鸿运物流,王四营东太平庄100号,北京市,北京市,豆各庄村,生活服务;物流速递;物流速递
116.596500,39.841990,恒世通物流,泰通达物流园D区27/28号,北京市,北京市,,生活服务;物流速递;物流速递
116.537884,39.867101,瑞宇翔燕物流,王四营镇五方天涯盛华汽配城10区16-17号,北京市,北京市,,公司企业;公司;公司|生活服务;物流速递;物流速递
116.511331,39.888232,盛星达物流,广渠东路2号商业储运有限公司,北京市,北京市,百子湾,生活服务;物流速递;物流速递
116.545769,39.964816,西安凯迪物流运输有限公司,奥林匹克花园A7号楼,北京市,北京市,东坝,生活服务;物流速递;物流速递
116.566753,39.909918,北京万东安捷储运服务有限责任公司,三间房南里7号(华润万东南门外),北京市,北京市,定福庄,生活服务;物流速递;物流速递|公司企业;公司;公司
116.597787,39.840277,新大来物流,泰通达物流园南排3号,北京市,北京市,,生活服务;物流速递;物流速递
116.518489,39.905286,北京龙瑞新国际运输代理有限公司,一号B区20-4,北京市,北京市,高碑店村,生活服务;物流速递;物流速递
116.514715,39.872984,德丰广道物流有限公司,王四营路1号,北京市,北京市,,生活服务;物流速递;物流速递
116.502305,39.829382,瑞通货运(文化广场路),横街子文化娱乐广场瑞通货运,北京市,北京市,十八里店,生活服务;物流速递;物流速递
116.628752,39.978447,安能(朝阳集运中心),金盏乡梨各庄沙窝北路润丰集团北侧,北京市,北京市,,生活服务;物流速递;物流速递
116.571806,39.888393,远成快运(双桥路),双桥路2号,北京市,北京市,,生活服务;物流速递;物流速递
116.458443,39.838458,青鸟物流(小红门路),南四环小红门桥农商银行斜对面文化创意园,北京市,北京市,小红门,生活服务;物流速递;物流速递
116.595035,39.891577,北京大秦物流有限公司,双桥中路南50米,北京市,北京市,,生活服务;物流速递;物流速递
116.52218,40.004628,三元双日物流,崔各庄催各庄乡南皋路123号院,北京市,北京市,,生活服务;物流速递;物流速递
116.492769,39.915147,FEDEX(慈云寺客户中心),慈云寺未来汇购物中心B1(慈云寺桥东路北),北京市,北京市,四惠,生活服务;物流速递;物流速递
116.464598,39.945833,硕达国际货运,京亮马河大厦,北京市,北京市,麦子店,生活服务;物流速递;物流速递
116.577872,40.002757,北京环球通盟国际货运代理有限公司,金盏路(金盏文化广场南侧约250米),北京市,北京市,,生活服务;生活服务场所;生活服务场所
116.569925,39.908677,服装逆向物流,建国路10北50米,北京市,北京市,,生活服务;物流速递;物流速递
116.406451,39.991308,骋风快运,亚运村街道北辰东路8号北辰时代大厦,北京市,北京市,亚运村,生活服务;物流速递;物流速递
116.487859,39.968747,北京吉杰国际物流有限公司,酒仙桥乙21号佳丽饭店后院B93室,北京市,北京市,酒仙桥,生活服务;物流速递;物流速递
116.615345,39.996913,北京安顺大通国际货运代理有限公司,金盏乡东窑村老中铁十六局大院内,北京市,北京市,,生活服务;物流速递;物流仓储场地
116.526316,39.949669,北京甲顺恒通物流有限公司,体育中心西路2号(武警家属院1-3),北京市,北京市,姚家园,生活服务;物流速递;物流速递
116.596234,39.840208,北京快快快物流有限公司,泰通达物流园D区1号,北京市,北京市,,生活服务;物流速递;物流速递
116.509671,39.824509,北京通城物流快运,大羊坊路与老君堂中路交叉路口往东南约150米,北京市,北京市,十八里店,生活服务;物流速递;物流速递
116.438772,39.960011,小背篓搬家货物运输公司,左家庄西街13号,北京市,北京市,柳芳,生活服务;搬家公司;搬家公司
116.594424,39.829865,北京盛古物流,张台路北,北京市,北京市,,生活服务;物流速递;物流速递
116.454030,39.931980,力合货运,工人体育场北路8号三里屯SOHOF3,北京市,北京市,,生活服务;物流速递;物流速递
116.421792,40.037414,天地华宇,双营路与秋实街交叉口西50米,北京市,北京市,来广营,生活服务;物流速递;物流速递
116.436910,39.916805,北京纵横国际物流有限公司,外交部南街10号万邦商贸大厦18层1808室,北京市,北京市,,生活服务;物流速递;物流速递
116.585976,39.989273,北京中达通顺物流服务中心,金盏乡北马房机场二高速东200米,北京市,北京市,,生活服务;生活服务场所;生活服务场所
116.447325,39.924638,天府盛国际物流(北京总部),朝外大街3号山水广场B座1702室,北京市,北京市,朝外,生活服务;物流速递;物流速递
116.473457,39.906475,北京惠运通物流信息服务有限公司,建外郎家园10号19幢B112室,北京市,北京市,大望路,生活服务;物流速递;物流速递
116.599005,39.840888,台州市东北物流有限公司,通马路(泰通达物流园东侧约100米),北京市,北京市,,生活服务;物流速递;物流速递
116.515116,39.842887,北京市宏祥顺货运有限责任公司,[],北京市,北京市,十八里店,生活服务;生活服务场所;生活服务场所
116.564886,39.850999,物流口,[],北京市,北京市,豆各庄村,生活服务;物流速递;物流速递
116.458987,39.837197,传志物流城外城站点,[],北京市,北京市,小红门,生活服务;物流速递;物流速递
116.612985,40.000970,鑫世锐达(北京)国际物流服务有限公司,金盏乡东窑艺术区002号,北京市,北京市,,生活服务;物流速递;物流速递
116.543168,39.858197,三真驿道物流园分拣中心,十八里店北京元味斋食品有限公司东,北京市,北京市,,生活服务;生活服务场所;生活服务场所
116.489331,39.980947,平安货运,酒仙桥路9号南90米,北京市,北京市,酒仙桥,生活服务;物流速递;物流速递
116.537883,39.867501,九州新干线物流公司,G1辅路盛华汽配城10区21号,北京市,北京市,,生活服务;物流速递;物流速递
116.596284,39.858318,天津进极运输有限公司北京分公司,[],北京市,北京市,,生活服务;物流速递;物流速递
116.542143,39.865766,嘉信物流,孛罗营东路(盛华汽配城),北京市,北京市,,生活服务;物流速递;物流速递
116.596405,39.858354,北京博通美达物流有限公司,万通路,北京市,北京市,,生活服务;物流速递;物流速递
116.593191,39.876381,朝批物流,豆各庄西马庄北街,北京市,北京市,,生活服务;物流速递;物流速递
116.461383,39.865962,东辉物流十里河营业点,十里河32号,北京市,北京市,十里河,生活服务;物流速递;物流速递
116.490408,39.912886,东辉物流远洋天地点,四惠桥东远洋天地大厦B1018室,北京市,北京市,四惠,生活服务;物流速递;物流速递
116.574406,39.996006,易连国际货物运输代理有限公司,东窑路星河园林,北京市,北京市,,生活服务;物流速递;物流速递
116.599099,39.840578,鹿富物流,通马路兴龙伟业彩钢钢结构公司,北京市,北京市,,生活服务;生活服务场所;生活服务场所
116.578762,39.884078,北京万德海斯科贸有限公司物流仓储中心,石槽南路(七一七创意园西北侧约100米),北京市,北京市,,生活服务;物流速递;物流速递
116.520603,39.836806,海龙国际运输代理有限公司仓库,十八里店乡老君堂村1125号,北京市,北京市,十八里店,生活服务;物流速递;物流仓储场地
116.523199,40.003087,北京鼎立三通物流有限公司,[],北京市,北京市,,生活服务;物流速递;物流速递
116.596167,39.858357,诺必达物流有限公司北京分公司,[],北京市,北京市,,生活服务;物流速递;物流仓储场地
116.588910,39.870183,北京鼎泰盛达货运有限公司,[],北京市,北京市,,生活服务;物流速递;物流速递
116.446961,39.907847,跨欧亚国际货运代理有限公司,建国门外大街甲12号新华保险大厦15层,北京市,北京市,建外大街,生活服务;物流速递;物流速递
116.459951,39.836941,聚帮快运,小红门路(联年福公寓西北侧),北京市,北京市,小红门,生活服务;物流速递;物流速递
116.576441,39.922397,北京环球国联国际货运代理有限公司,三间房东路4号中泰商务楼121房间,北京市,北京市,常营,生活服务;生活服务场所;生活服务场所
116.462485,39.894208,河马生鲜配送站,东三环中路20号乐成中心B座,北京市,北京市,百子湾,生活服务;物流速递;物流速递
116.620421,39.971634,嘉荣物流,[],北京市,北京市,,生活服务;物流速递;物流速递
116.431176,39.953139,DHL中外运敦豪(和平里店),民旺胡同13号,北京市,北京市,和平里,生活服务;物流速递;物流速递
116.436910,39.916794,俄陆通跨境物流公司,秀水河胡同与雅宝路交叉路口往北约50米,北京市,北京市,,生活服务;物流速递;物流速递
116.597069,39.840061,北京万宝通达运输服务有限公司,泰通达物流园南排13/15号,北京市,北京市,,生活服务;物流速递;物流速递
116.585324,39.852297,泰达物流,黑庄户德安路22号,北京市,北京市,,生活服务;物流速递;物流速递
116.624362,39.981008,莫干山板材物流配送中心,金盏乡博亮13号库,北京市,北京市,,生活服务;物流速递;物流速递
116.537875,39.867845,北京鑫旺达(飞马神速)物流,京哈高速(新东郊商城东侧),北京市,北京市,,生活服务;生活服务场所;生活服务场所
116.544606,39.923986,餐北斗物流(总部),白家楼桥甲1号易空间A105,北京市,北京市,高碑店村,生活服务;物流速递;物流速递
116.575056,39.884953,泰海快运(华北分拨中心),双桥路(桃源寓所北侧约100米),北京市,北京市,,生活服务;物流速递;物流速递
116.628674,39.978691,携程通达物流托运,沙窝北路,北京市,北京市,,生活服务;物流速递;物流速递
116.508342,39.931338,吉时达物流有限公司(高庙村路店),石佛营东路炫特区北门东北,北京市,北京市,姚家园,生活服务;物流速递;物流速递
116.459686,39.865964,德邦吉时达物流有限公司,十里河东三环南路102-12号,北京市,北京市,十八里店,生活服务;物流速递;物流速递
116.550544,39.862896,万泽霖物流北京公司,黄厂路白鹿司临7号,北京市,北京市,豆各庄村,生活服务;物流速递;物流速递
116.490750,39.831870,唐山丰润物流,大羊坊路1996号,北京市,北京市,十八里店,生活服务;物流速递;物流速递
116.568707,39.991189,中铁物流集团(东苇路营业部),东苇路与北后街交叉路口往南约50米,北京市,北京市,,生活服务;物流速递;物流速递
116.586501,39.880082,乐羊网物流中转分部,石槽南路与双桥西路交叉路口北侧,北京市,北京市,,生活服务;物流速递;物流速递
116.598978,39.840722,旺达物流,通马路(泰通达物流园东侧约100米),北京市,北京市,,生活服务;物流速递;物流速递
116.470509,39.861081,鑫诚达建材配送中心,闽龙木门橱柜总部基地S1-59,北京市,北京市,十八里店,生活服务;物流速递;物流速递
116.627580,39.982488,日日顺,沙窝北路(惠美亚克力),北京市,北京市,,生活服务;物流速递;物流速递
116.434226,40.002106,北京固废物流有限公司铁工车间,关庄路(北湖渠路15号院),北京市,北京市,,生活服务;生活服务场所;生活服务场所
116.471426,40.025609,乐上名都配送中心,来广营东路(宏昌竣公寓南侧约50米),北京市,北京市,来广营,生活服务;物流速递;物流速递
116.523230,39.835799,北京朝批物流,十八里店镇老君堂,北京市,北京市,十八里店,生活服务;物流速递;物流速递
116.510050,39.886181,物流中心,[],北京市,北京市,百子湾,生活服务;物流速递;物流速递
116.477648,40.021427,大宝材料配送中心,来广营东路(同鑫九鼎建材城-南区),北京市,北京市,来广营,生活服务;物流速递;物流速递
116.521463,39.902061,中国邮政速递物流(百子湾营业部),高碑店高西店村甲18号B2号院,北京市,北京市,高碑店村,生活服务;生活服务场所;生活服务场所
116.442140,39.919650,北京林达万通国际贸易有限公司,日坛国际B座1Y91,北京市,北京市,,生活服务;物流速递;物流速递
116.599033,39.840341,苍一物流龙港至北京提货处,S302(通马路),北京市,北京市,,生活服务;物流速递;物流速递
116.599014,39.840908,北京智德物流,通马路(泰通达物流园东侧约100米),北京市,北京市,,生活服务;物流速递;物流速递
116.511600,39.888443,北京温州利鑫提货处,王四营镇广渠路商业储运公司院内,北京市,北京市,百子湾,生活服务;生活服务场所;生活服务场所
116.636210,39.979039,北京鹏翔宇物流有限公司,金盏乡黎各庄村418号,北京市,北京市,,生活服务;生活服务场所;生活服务场所
116.388422,39.982794,航天(北京)物流有限公司,民族园路5号(原503所)四层,北京市,北京市,北辰,生活服务;生活服务场所;生活服务场所
116.596807,39.827625,北京惠通运输有限公司,张台路98号中铁物流园中院,北京市,北京市,,生活服务;生活服务场所;生活服务场所
116.511620,39.887524,北京温州鹿博物流,王四营镇广渠东路2号商业储运公司院内,北京市,北京市,百子湾,生活服务;生活服务场所;生活服务场所
116.578492,39.846998,兴运腾达运输有限公司,大鲁店北路中通快运朝阳5部院内,北京市,北京市,,生活服务;生活服务场所;生活服务场所
116.451882,39.867747,万家康物流(小红门站),十八里店镇左安路118号大东鞋店,北京市,北京市,十八里店,生活服务;生活服务场所;生活服务场所
116.412301,39.996028,三元及递配送中心,安慧北里小区路与慧忠路交叉路口往东北约50米,北京市,北京市,北辰,生活服务;物流速递;物流速递
116.611010,40.001224,日日顺物流服务中心,东窑艺术创作区西北50米,北京市,北京市,,生活服务;物流速递;物流速递
116.522327,40.004709,北京首农三元物流有限公司,崔各庄镇南皋路123号,北京市,北京市,,生活服务;物流速递;物流速递
116.630906,39.972109,博越锦程国际物流分拨仓储中心库,黎各庄村沙窝北路东,北京市,北京市,,生活服务;生活服务场所;生活服务场所
116.596230,39.840481,北京华夏盛龙物流,泰通达物流园D区5号,北京市,北京市,,生活服务;物流速递;物流速递
116.476085,39.988442,汇通四海国际货运代理有限公司,望京中环南路9号望京大厦F座302,北京市,北京市,望京,生活服务;生活服务场所;生活服务场所
116.474419,39.859234,锴图托运,周家庄路8号B1层,北京市,北京市,十八里店,生活服务;物流速递;物流速递
116.580328,39.869571,宏昌盛物流,久文路6号院95,北京市,北京市,豆各庄村,生活服务;物流速递;物流速递
116.596291,39.840889,北京正能亮创业腾达物流有限公司,泰通达物流园D区11号,北京市,北京市,,生活服务;物流速递;物流速递
116.499413,40.010395,北京小飞豹货物托运有限公司,绿草地幼儿园南(东辛店路东),北京市,北京市,,生活服务;物流速递;物流速递
116.565522,39.876052,北京众铃达国际物流有限公司,双桥路(金田公园南区东南侧约50米),北京市,北京市,豆各庄村,生活服务;物流速递;物流速递
116.597763,39.840660,北京蒙通顺达物流,泰通达物流园A区6号,北京市,北京市,,生活服务;物流速递;物流速递
116.602183,39.992180,北京瑞华运输搬家有限责任公司,彩虹村庄养老院西南(东高路东),北京市,北京市,,生活服务;生活服务场所;生活服务场所
116.478340,39.835335,和记物流,十八里店镇朝阳口岸,北京市,北京市,十八里店,生活服务;物流速递;物流速递
116.441349,39.919274,北京圣达万通国际物流有限公司,三丰南巷与朝外市场街交叉口东50米,北京市,北京市,,生活服务;物流速递;物流速递
116.487876,39.885692,卸货平台,东四环中路195号华腾新天地F1,北京市,北京市,南磨房,生活服务;物流速递;物流速递
116.472636,39.991886,许解东亚望京中心提货点,望京园402号楼,北京市,北京市,望京,生活服务;物流速递;物流速递
116.552506,39.862858,安捷物流,黄厂路祥龙物流内,北京市,北京市,豆各庄村,生活服务;物流速递;物流速递
116.511810,39.940205,姚家园生鲜配送中心,姚家园路北150米,北京市,北京市,姚家园,生活服务;物流速递;物流速递
116.596355,39.826540,伊藤忠物流(中国)有限公司,黑庄户大鲁店张台路98号中铁物流西院,北京市,北京市,,生活服务;物流速递;物流速递
116.410387,39.973342,北京海越国际物流,胜古中路甲1号,北京市,北京市,小关,生活服务;物流速递;物流速递
116.441399,39.909241,北京辉煌利康货物运输公司,日坛路6号国际大厦A座底商,北京市,北京市,建外大街,生活服务;生活服务场所;生活服务场所
116.597449,39.877530,中铁物流仓储二部,黑庄户乡双树村南甲8号,北京市,北京市,,生活服务;物流速递;物流速递
116.470491,39.814296,北京香香鸟营养食品有限公司学生营养餐配送中心,三台山路(香香鸟营养食品有限公司),北京市,北京市,亦庄,生活服务;物流速递;物流速递
116.460037,39.952636,中远海运散货运输有限公司(北京分部),东三环北路3号附近,北京市,北京市,燕莎,生活服务;生活服务场所;生活服务场所
116.574348,39.995980,易连国际货运代理有限公司,金盏东窑路星河园林后侧,北京市,北京市,,生活服务;物流速递;物流仓储场地
116.458972,39.836897,北京瑞宇翔燕物流有限公司,小红门乡龙爪树南里69号南城一九八五工业产业园附近,北京市,北京市,小红门,生活服务;物流速递;物流速递
116.570817,39.983635,迷你物流,金盏东苇路56号,北京市,北京市,,生活服务;物流速递;物流速递
116.473859,39.835291,北京汇洪货运代理有限公司,博大路3号自主城6号楼712,北京市,北京市,小红门,生活服务;物流速递;物流速递
116.469444,39.815802,新颜运输,小红门三台山路甲一号,北京市,北京市,亦庄,生活服务;生活服务场所;生活服务场所
116.589345,39.839850,上海春风物流,黑庄户大鲁店二村大咸路5号,北京市,北京市,,生活服务;物流速递;物流速递
116.589238,39.839939,嘉里会成物流,黑庄户大鲁店二村大咸路5号,北京市,北京市,,生活服务;物流速递;物流速递
116.468150,39.818920,星宇物流,三台山路附近,北京市,北京市,亦庄,生活服务;物流速递;物流速递
116.450295,39.971172,北京航天航海货运代理有限公司,夏家园12号住宅楼1单元308室,北京市,北京市,太阳宫村,生活服务;物流速递;物流速递
116.512928,39.910969,华协国际珍品货运服务有限公司,高碑店陈家林路九号院华腾世纪总部公园A座501-505,北京市,北京市,高碑店村,生活服务;物流速递;物流速递
116.578513,39.884032,北京久禾仓物流有限公司,豆各庄乡石槽村甲1号,北京市,北京市,,生活服务;物流速递;物流速递
116.468236,39.816665,北纬天泉(北京)配送中心,三台山路华北浦新不锈钢东侧250米附近,北京市,北京市,亦庄,生活服务;物流速递;物流速递
116.571850,39.883885,北京京通陆捷物流有限公司,豆各庄双桥中路于家围村甲20号,北京市,北京市,,生活服务;物流速递;物流速递
116.466531,39.996113,北京京铁纵横搬家物流有限公司(望京店),望京广顺北大街31号院2号楼,北京市,北京市,望京,生活服务;搬家公司;搬家公司
116.581050,39.911651,北京跃瑞国际货运代理有限公司,管庄建国路15号华文传媒总部北岸1292,北京市,北京市,管庄,生活服务;生活服务场所;生活服务场所
116.463314,39.821679,北京化轻运输服务有限公司,小红门三台山村甲一号,北京市,北京市,亦庄,生活服务;物流速递;物流速递
116.410126,39.995554,北京安定顺达嘉强货运部,安立路东远大中心B座1005,北京市,北京市,北辰,生活服务;物流速递;物流速递
116.460515,39.951506,丸全昭和运输株式会社(北京事务所),东三环北路5号北京发展大厦10层1020,北京市,北京市,燕莎,生活服务;物流速递;物流速递
116.451292,39.962476,北京阳光捷运国际货运代理有限公司,曙光西里甲6号时间国际A座6层605室,北京市,北京市,太阳宫村,生活服务;物流速递;物流速递
116.467235,39.917674,德邦快递,呼家楼南里30号楼底商德邦快递,北京市,北京市,呼家楼,生活服务;物流速递;物流速递
116.571341,39.923693,天地华宇(朝阳北路),朝阳北路定福家园南里一号院3号楼,北京市,北京市,常营,生活服务;物流速递;物流速递
116.466797,39.857074,安能,十八里店十里河大洋路酒水一条街大方国际茶城对面,北京市,北京市,十八里店,生活服务;物流速递;物流速递|购物服务;购物相关场所;购物相关场所
116.511061,39.889093,安能(百子湾营业部),广渠路2号安能物流,北京市,北京市,百子湾,生活服务;物流速递;物流速递
116.510521,39.888476,德邦物流(广渠东路),广渠东路2号北京商业储运公司院内,北京市,北京市,百子湾,生活服务;物流速递;物流速递
116.466610,39.857232,德邦(十里河桥店),十八里店乡大洋路市场综合楼3号楼1层19-20号,北京市,北京市,十八里店,生活服务;物流速递;物流速递
116.542912,39.965482,德邦(北京奥林匹克花园二期南区北),东坝乡东坝中街奥林匹克花园222号,北京市,北京市,东坝,生活服务;物流速递;物流速递
116.541070,39.954194,安能物流,平房路东100米,北京市,北京市,,生活服务;物流速递;物流仓储场地
116.451148,39.870866,德邦物流(潘家园店),潘家园华威南路弘善家园304号楼1层,北京市,北京市,十八里店,生活服务;物流速递;物流速递
116.494695,39.981846,德邦物流(万红里北巷),酒仙桥街道万红路5号,北京市,北京市,大山子,生活服务;物流速递;物流速递
116.549862,39.958264,佳吉快运(丽富嘉园小区东),东坝金泰丽富28号院2号楼北门,北京市,北京市,东坝,生活服务;物流速递;物流速递
116.414651,40.040018,宅急送快运股份有限公司(北京分公司),北苑路13号院领地officea座4层,北京市,北京市,立水桥,生活服务;物流速递;物流速递
116.468425,39.836661,天地华宇(南四环东路辅路),南四环东路百世快递西40米,北京市,北京市,十八里店,生活服务;物流速递;物流速递
116.446761,39.847718,德邦物流(成寿寺路分公司),成寿寺路甲108-3号铺附近,北京市,北京市,小红门,生活服务;物流速递;物流速递
116.465463,39.959983,嘉里大通物流(霄云路),东三环北路霄云路21号嘉里大通大厦,北京市,北京市,,生活服务;物流速递;物流速递
116.503621,39.991663,德邦物流(酒仙桥北路建材市场营业部),[],北京市,北京市,,生活服务;物流速递;物流速递
116.568422,39.901850,中铁快运双桥营业部,金桥超市以西,北京市,北京市,,生活服务;物流速递;物流速递
116.503820,39.990898,中铁快运(798分公司),酒仙桥北路5号院,北京市,北京市,,生活服务;物流速递;物流速递
116.604063,39.908518,远航物流(建国路),管庄东会村双会桥东500米,北京市,北京市,,生活服务;物流速递;物流速递
116.480689,40.019487,德邦快递,崔各庄镇来广营东路甲1号同鑫九鼎建材城南区,北京市,北京市,来广营,生活服务;物流速递;物流速递
116.462299,39.899759,天地华宇,东三环中路12号,北京市,北京市,百子湾,生活服务;物流速递;物流速递
116.481001,39.989874,DHL中外运敦豪,方恒国际中心A座,北京市,北京市,望京,生活服务;物流速递;物流速递
116.450240,39.917899,DHL敦豪(正东国际大厦店),东大桥路8号,北京市,北京市,,生活服务;物流速递;物流速递
116.455264,39.835701,德邦快递(北京朝阳区吕营营业部),小红门桥城外城国际汽配城,北京市,北京市,小红门,生活服务;物流速递;物流速递
116.591151,39.876318,宅急送(北京东区配送中心店)(装修中),黑庄户大东路2号,北京市,北京市,,生活服务;物流速递;物流速递
116.462900,39.885562,中国邮政速递物流(富顿中心)(暂停营业),东三环南路58号富顿中心D座B1层,北京市,北京市,百子湾,生活服务;邮局;邮政速递
116.395809,39.861503,远征物流(永外管村26号院东南),百荣万泽龙物流中心26号,北京市,北京市,西罗园,生活服务;物流速递;物流速递
116.435306,39.881799,天海通达国际货运代理有限公司,龙潭路甲3号翔龙大厦C08号,北京市,北京市,左安门,生活服务;物流速递;物流速递
116.379374,39.866758,高铁快运(北京南站营业部),右安门街道永外大街12号北京南站东地下停车场C区C0通道,北京市,北京市,,生活服务;物流速递;物流速递
116.395905,39.861965,武汉万程物流,百荣万泽龙物流中心15号,北京市,北京市,马家堡村,生活服务;物流速递;物流速递
116.390139,39.869900,合和配送(中海紫御公馆店),永定门外街道永定门西滨河路8号院中海紫御公馆8号楼底商,北京市,北京市,,生活服务;物流速递;物流速递
116.446311,39.943552,DHL中外运敦豪(使馆店),东直门外小街甲2-2号,北京市,北京市,,生活服务;物流速递;物流速递
116.431070,39.896909,全球邮政速递物流(东花市南里投递部),南小市口街4-1附近,北京市,北京市,广渠门,生活服务;邮局;邮政速递
116.431379,39.911674,北京迪麦克国际物流中心,东总布胡同28号,北京市,北京市,朝阳门,生活服务;物流速递;物流速递
116.424522,39.903366,中铁快运(北京站营业部),毛家湾胡同甲13号,北京市,北京市,,生活服务;物流速递;物流速递
116.420253,39.921347,北京兄弟货运有限公司(东城分店),灯草胡同23号,北京市,北京市,东四,生活服务;搬家公司;搬家公司
116.402874,39.928783,轿车托运(东城店),纳福胡同18号,北京市,北京市,,生活服务;物流速递;物流速递
116.401153,39.866852,邦通物流,永定门外大街86号,北京市,北京市,,生活服务;物流速递;物流速递
116.434683,39.940154,盛通物流,大石镇沙溪恒生商贸城中区六街23号,北京市,北京市,东四,生活服务;物流速递;物流速递
116.396507,39.862640,天天快车货运有限公司,永定门外大街101号百荣世贸商城,北京市,北京市,马家堡村,生活服务;物流速递;物流速递
116.395812,39.860766,北京佳坤物流,百荣万泽龙物流中心46号,北京市,北京市,马家堡村,生活服务;物流速递;物流速递
116.414518,39.919074,北京金驰国际货运代理有限公司,灯市口大街33号国中商业大厦11层1120、1121室,北京市,北京市,灯市口,生活服务;生活服务场所;生活服务场所
116.379626,39.866578,中铁快运(北京南站营业部),右安门街道永外大街12号北京南站东地下停车场C区C0通道,北京市,北京市,,生活服务;物流速递;物流速递
116.422459,39.902712,中铁快运北京站到达提取处,西镇江胡同4号正南方向80米,北京市,北京市,,生活服务;物流速递;物流速递
116.421327,39.886532,德邦快递,法华寺大街136号天雅珠宝城,北京市,北京市,体育馆路,生活服务;物流速递;物流速递
116.422724,39.909165,北京锐志货运代理有限公司,建国门内大街19号中纺大厦6层,北京市,北京市,东单,生活服务;物流速递;物流速递
116.425417,39.896521,格格货站,东花市街道新景家园东区4号楼6单元404,北京市,北京市,花市,生活服务;物流速递;物流速递
116.408858,39.955652,凯阳国际货运代理有限公司,安定门外大街136号皇城国际a座,北京市,北京市,和平里,生活服务;生活服务场所;生活服务场所
116.435795,39.896787,三元及递光明桥配送中心,东花市大街8东南90米,北京市,北京市,广渠门,生活服务;物流速递;物流速递
116.408836,39.937978,搬家货运,[],北京市,北京市,东四,生活服务;搬家公司;搬家公司
116.433937,39.912991,德国胜利航运公司,建国门北大街8号华润大厦,北京市,北京市,建国门,生活服务;物流速递;物流速递
116.395884,39.860360,庆隆物流(百荣站),永定门外大街甲101号物流区015号,北京市,北京市,西罗园,生活服务;物流速递;物流速递
116.440536,39.897373,北京嘉诺国际货运代理有限公司,崔各庄乡政府龙昌商务园215,北京市,北京市,广渠门,生活服务;物流速递;物流速递
116.424803,39.905835,中国邮政速递物流,苏州胡同与邮通街交叉口西北方向70米,北京市,北京市,,生活服务;邮局;邮政速递
116.398280,39.860512,托运处,永定门外大街101-2号百荣世贸商城B座4层,北京市,北京市,西罗园,生活服务;物流速递;物流速递
116.437709,39.894235,格格货站,东花市街道东花市南里东区15号楼格格快递,北京市,北京市,花市,生活服务;生活服务场所;生活服务场所
116.428725,39.903865,中铁快运(北京站营业部),毛家湾胡同甲13号,北京市,北京市,,生活服务;物流速递;物流速递
116.186301,39.920780,卡行天下物流(杨庄大街店),杨庄大街75-5号,北京市,北京市,古城,生活服务;物流速递;物流速递
116.119659,39.950084,北京铁路局丰台货运中心,五里坨车站东路5号,北京市,北京市,,生活服务;物流速递;物流速递
116.125289,39.944705,北京诚安世纪医疗器械有限公司(物流中心),双峪路55号D区-1号(原达兴电控开关设备有限公司院内),北京市,北京市,,生活服务;物流速递;物流速递
116.230169,39.901144,鲁谷德邦快递,永乐小区15号楼旁锅炉房大院,北京市,北京市,永乐,生活服务;物流速递;物流速递
116.113452,39.942132,嘉事堂配送中心,双峪路,北京市,北京市,龙泉,生活服务;物流速递;物流速递
116.205694,39.931156,京津冀货物快运办理站(军科院小区西南),北工大北街西150米,北京市,北京市,石景山,生活服务;物流速递;物流速递
116.199484,39.888009,北京首运物流有限责任公司,京原路27号,北京市,北京市,,生活服务;物流速递;物流速递
116.224519,39.905054,北方万邦物流有限公司,政达路六号院3号楼北方国际大厦15层,北京市,北京市,石景山,生活服务;物流速递;物流速递
116.206468,39.901846,恒运物流(京原西街),京原西街7号,北京市,北京市,石景山,生活服务;物流速递;物流速递
116.212218,39.890023,北京天井湖物流有限公司,衙门口S50西五环向阳小学西北200米,北京市,北京市,衙门口,生活服务;物流速递;物流速递
116.186821,39.921391,北京中铁快运有限公司,杨庄大街18-1号附近,北京市,北京市,古城,生活服务;物流速递;物流速递
116.202051,39.902630,轿车托运,拾景北路,北京市,北京市,石景山,生活服务;物流速递;物流速递
116.184667,39.904687,北京盛宏鑫物流有限公司,古融路(京西商务中心),北京市,北京市,古城,生活服务;物流速递;物流速递
116.228810,39.901871,北京天福号物流运输有限公司,永乐西区57号楼底商,北京市,北京市,永乐,生活服务;物流速递;物流速递
116.196278,39.925921,北京鑫顶众旺宏货运代理有限公司(石景山店),今鼎时代广场D座506室,北京市,北京市,石景山,生活服务;物流速递;物流速递
116.199985,39.902651,德邦快递(北京石景山衙门口桥营业部),体育场西街20号院拾景名苑北门2号楼底商,北京市,北京市,石景山,生活服务;物流速递;物流速递
116.172348,39.896001,安能物流北京石景山营业部,水泥厂后身路,北京市,北京市,,生活服务;物流速递;物流速递
116.509459,39.735317,北京中都星徽物流有限公司,太和桥东南融兴北三街路北,北京市,北京市,,生活服务;物流速递;物流仓储场地
116.532811,39.768428,国药物流有限责任公司,经济技术开发区康定街8号,北京市,北京市,,生活服务;物流速递;物流速递
116.338791,39.692790,京铁物流中心(黄村营业部),黄村镇天河北路5号,北京市,北京市,,生活服务;物流速递;物流速递
116.493722,39.622067,壹米滴答物流,青礼路,北京市,北京市,,生活服务;物流速递;物流速递
116.580515,39.711208,中海物流,S226(马朱路),北京市,北京市,,生活服务;物流速递;物流速递
116.347502,39.695211,北京宏大伟业物流有限公司,天河北路11号,北京市,北京市,,生活服务;物流速递;物流速递
116.314341,39.687750,北京原宏物流公司,永大路20号,北京市,北京市,,生活服务;物流速递;物流速递
116.461650,39.811139,所托(北京)物流有限公司,红化路6号,北京市,北京市,亦庄,生活服务;物流速递;物流速递
116.322969,39.648212,高等教育出版社老库,庞各庄镇西中堡村,北京市,北京市,,生活服务;物流速递;物流速递
116.332834,39.698746,北京金隅国际物流园有限公司,天宫院街道大庄桥,北京市,北京市,,生活服务;物流速递;物流仓储场地
116.356131,39.692318,百木汇仓储物流园,天河北路9号,北京市,北京市,,生活服务;物流速递;物流仓储场地
116.426523,39.776274,东方金鹏国际物流公司,德南路与南五环路交叉路口往东约100米,北京市,北京市,,生活服务;物流速递;物流速递
116.582058,39.710178,北京畅捷顺达货物运输有限公司,马朱路长子营镇朱脑村村民委员会西北,北京市,北京市,,生活服务;物流速递;物流速递
116.337142,39.708334,金泰物流,黄村京开路甲64号,北京市,北京市,,生活服务;物流速递;物流速递
116.516963,39.791096,夏晖物流(北京)有限公司,北京经济技术开发区兴盛街6号,北京市,北京市,亦庄,生活服务;物流速递;物流速递
116.511311,39.794116,分通物流,荣京东街荣京丽都B座西4层,北京市,北京市,亦庄,生活服务;物流速递;物流速递
116.422165,39.765170,北京金州世纪行货运有限公司,黄亦路南150米,北京市,北京市,,生活服务;物流速递;物流速递
116.336050,39.709774,联发物流(北京总代理),京开高速与矿林路交叉路口往西约200米,北京市,北京市,,生活服务;物流速递;物流速递
116.341292,39.690885,百利威物流一分公司,黄村镇天河北路10号,北京市,北京市,,生活服务;物流速递;物流速递
116.418394,39.763225,台州市浩升物流有限公司(北京提货处),顺新街14附近,北京市,北京市,,生活服务;生活服务场所;生活服务场所
116.347660,39.510002,北京昌顺永泰货物运输有限公司,榆南路与泰平路交叉口西南100米,北京市,北京市,,生活服务;物流速递;物流速递
116.341644,39.804365,北京久源天下联合物流有限公司,欣荣北大街10号院,北京市,北京市,新发地,生活服务;物流速递;物流速递
116.273519,39.751956,北京电力物流,黄村镇鹅房村黄鹤西路临3号,北京市,北京市,,生活服务;物流速递;物流速递
116.263454,39.763335,北京宏凯冷链物流有限公司,创汇路,北京市,北京市,,生活服务;物流速递;物流速递
116.349713,39.691863,北京祥龙京南昌达物流有限公司,天河北路18号,北京市,北京市,,生活服务;物流速递;物流速递
116.334661,39.677019,联盛全十(北京)物流有限公司,庆丰路6号附近,北京市,北京市,,生活服务;物流速递;物流速递
116.241960,39.661920,博洋精品(北京)货运服务有限公司,北臧村魏永路11号,北京市,北京市,,生活服务;物流速递;物流速递
116.416051,39.717459,鑫方盛控股集团北京物流中心,黄村镇孙村开发区海鑫北路9号,北京市,北京市,,生活服务;物流速递;物流速递
116.437588,39.725074,新国线运输集团北京京汉运输有限公司,金业大街46号院南50米,北京市,北京市,,生活服务;物流速递;物流速递
116.386943,39.661795,北京中糖物流有限公司,魏善庄镇兴东路三顺庄社区卫生服务站,北京市,北京市,,生活服务;物流速递;物流速递
116.528907,39.807403,盛世华人物流,经济技术开发区亦庄开发区经海二路22号,北京市,北京市,亦庄,生活服务;物流速递;物流速递
116.329307,39.633959,高等教育出版社物流中心,庞各庄镇京开路2号,北京市,北京市,,生活服务;物流速递;物流速递
116.382485,39.723965,北京中食兴瑞冷链物流有限公司,黄村镇刘村二队村委会北300米,北京市,北京市,,生活服务;物流速递;物流仓储场地
116.297238,39.646180,首通物流仓储集散中心,北臧村镇芦求路南段甲1号,北京市,北京市,,生活服务;物流速递;物流速递
116.535864,39.683997,北京大鑫汇德运输有限公司,青云店镇青采路工业园8号主爱建材内,北京市,北京市,,生活服务;物流速递;物流速递
116.276641,39.651855,武北物流中心,武北道附近,北京市,北京市,,生活服务;物流速递;物流速递
116.508529,39.684446,北京龙云华宇物流有限公司,祥云路,北京市,北京市,,生活服务;物流速递;物流速递|公司企业;工厂;工厂
116.528606,39.792502,世盟国际物流,经济技术开发区运成街18号,北京市,北京市,亦庄,生活服务;物流速递;物流速递
116.349776,39.783466,北京时代金鹰物流有限公司(福兴路),福伟路二条与福兴路交叉口东50米,北京市,北京市,西红门,生活服务;物流速递;物流速递
116.511400,39.755050,奔驰物流,经济技术开发区北京奔驰汽车有限公司,北京市,北京市,,生活服务;物流速递;物流速递
116.346545,39.691902,金山物流集团,黄村天河北路16号天云储运公司院内,北京市,北京市,,生活服务;物流速递;物流速递
116.392954,39.678602,北京宇通物流有限公司,魏善庄镇兴达信公司,北京市,北京市,,生活服务;物流速递;物流速递
116.369398,39.699208,北京宏贤达物流有限公司第一分公司(B区),黄村镇王桂路桂村工业园西南350米,北京市,北京市,,生活服务;物流速递;物流速递
116.298011,39.556591,丁记超市菜鸟驿站,榆垡镇留士庄清真寺前路二十条一号,北京市,北京市,,生活服务;物流速递;物流速递
116.539567,39.769018,安能物流.韵达快运中通快运,兴业街7号,北京市,北京市,,生活服务;物流速递;物流速递
116.289006,39.752675,德邦快递(芦城),黄鹅路21号德邦快递,北京市,北京市,,生活服务;物流速递;物流速递
116.300711,39.516979,菜鸟驿站(北京大兴空港新苑10号院店),榆垡镇榆瑞路空港新苑10号院北门东3号,北京市,北京市,,生活服务;物流速递;物流速递
116.417895,39.766030,北京天迈圣海货运有限公司(二部),饮鹿池桥与黄亦路交叉口南100米,北京市,北京市,,生活服务;物流速递;物流速递
116.344368,39.695107,普洛斯大兴物流园(中铁吉盛物流大厦东),黄村镇大庄村丰顺路62号,北京市,北京市,,生活服务;物流速递;物流仓储场地|商务住宅;产业园区;产业园区
116.438131,39.731724,久隆物流,金业大街6号院,北京市,北京市,,生活服务;物流速递;物流速递
116.497171,39.785007,北京和记京泰物流有限公司,亦庄地盛北街北工大软件园36号楼804室,北京市,北京市,亦庄,生活服务;物流速递;物流速递
116.385613,39.628113,北京档口极派物流有限公司,东大路与魏庄北路交叉口,北京市,北京市,,生活服务;物流速递;物流速递
116.379209,39.769962,(草原宏达)北京顺通悠米特物流有限公司,[],北京市,北京市,西红门,生活服务;物流速递;物流速递
116.673454,39.651367,福运盛达物流有限公司,采业路6号,北京市,北京市,,生活服务;物流速递;物流速递
116.637931,39.677225,北京树诚物流有限公司,长子营镇孙庄村南1800米,北京市,北京市,,生活服务;物流速递;物流速递
116.643478,39.653937,世纪鸿诚(北京)物流有限公司,[],北京市,北京市,,生活服务;物流速递;物流速递
116.515071,39.787744,北京飞浩冷链物流有限公司,荣华国际5号楼1808,北京市,北京市,亦庄,生活服务;物流速递;物流速递
116.519709,39.777355,北京京山汉物流有限公司,景园北街68号楼,北京市,北京市,亦庄,生活服务;物流速递;物流速递
116.348663,39.686160,北京鸿祥易达供应链泰安莱芜专线,天河北路16号祥龙一商物流进门直行到头,北京市,北京市,,生活服务;物流速递;物流速递
116.635422,39.651035,逐风达货运,采育镇育镇街32号院3号楼一层1601号,北京市,北京市,,生活服务;物流速递;物流速递
116.349067,39.685454,北京永立业泰物流有限责任公司,天河北路14号,北京市,北京市,,生活服务;生活服务场所;生活服务场所
116.420400,39.774948,北京鲜途运输有限公司,旧宫镇西毓路100号星红工业园,北京市,北京市,,生活服务;生活服务场所;生活服务场所
116.351376,39.691034,凯达昌盛物流,天河北路18号,北京市,北京市,,生活服务;物流速递;物流速递
116.518680,39.782989,中外运敦豪快件物流中心,亦庄经济技术开发区荣华南路18号,北京市,北京市,亦庄,生活服务;物流速递;物流速递
116.584572,39.700014,道达物流,北京市大兴区长子营镇长营路1号,北京市,北京市,,生活服务;物流速递;物流速递
116.533183,39.813063,北京中联晟通物流有限公司,科创三街3号,北京市,北京市,亦庄,生活服务;物流速递;物流速递
116.589693,39.705455,京津地区配件配送中心,朱长路与朱大路交叉路口西侧,北京市,北京市,,生活服务;物流速递;物流速递
116.518860,39.797637,正源物流,荣京东街13号北50米,北京市,北京市,亦庄,生活服务;物流速递;物流速递
116.522857,39.775410,中铁快运亦庄营业部,宏达西路与景园街交叉口东南方向110米,北京市,北京市,亦庄,生活服务;物流速递;物流速递
116.588564,39.701185,北京懒熊供应链管理有限公司,长子营镇长营路1号亚冷物流园,北京市,北京市,,生活服务;物流速递;物流速递
116.390723,39.630280,北京农速源冷链物流有限公司,S3501(大兴机场高速),北京市,北京市,,生活服务;物流速递;物流速递
116.397043,39.630559,远玲物流,北京市大兴区魏善庄镇东礼路,北京市,北京市,,生活服务;物流速递;物流速递
116.348310,39.686428,聚阖物流,[],北京市,北京市,,生活服务;物流速递;物流速递
116.327866,39.682200,北京荣兴伟业物流有限公司,加油站与永旺路交叉路口往东北约150米,北京市,北京市,,生活服务;物流速递;物流速递
116.347876,39.692781,北京京大伟业物流有限公司,天河北路11号,北京市,北京市,,生活服务;物流速递;物流速递
116.338947,39.689673,西安凯特物流北京分公司,[],北京市,北京市,,生活服务;物流速递;物流速递
116.642575,39.652570,恒孚物流,大兴区采育镇京粮采育物流园南门,北京市,北京市,,生活服务;物流速递;物流速递
116.470098,39.810718,二伟建筑物资配送中心,三台山路(华鑫酒店),北京市,北京市,亦庄,生活服务;物流速递;物流速递
116.341028,39.798958,德邦快运,宏都路与欣旺北大街交叉路口往东南约150米(宏福园),北京市,北京市,西红门,生活服务;物流速递;物流速递
116.508377,39.803824,北京步甲国际物流有限公司,北京市经济技术开发区永昌北路宏达工业园永昌8号科技广场,北京市,北京市,亦庄,生活服务;物流速递;物流速递
116.334885,39.679543,正通物流,庆丰路6号东侧院,北京市,北京市,,生活服务;物流速递;物流速递
116.339423,39.693372,越翔物流,天河北路5号,北京市,北京市,,生活服务;物流速递;物流速递
116.493343,39.637682,北京鑫宏冷链物流,安定工业北区工业区路日光斜对面,北京市,北京市,,生活服务;物流速递;物流速递
116.335357,39.706303,北京味佰特商贸有限公司仓储配送中心,矿林路5号院,北京市,北京市,,生活服务;物流速递;物流速递
116.493415,39.621348,北京兴安昆腾货运有限公司,[],北京市,北京市,,生活服务;生活服务场所;生活服务场所
116.457846,39.718900,河南郸城单氏运输有限公司,小铺头村后街,北京市,北京市,,生活服务;物流速递;物流速递
116.343044,39.770012,北京金海通包装托运有限责任公司(南苑营业部),工业开发区盛坊路1号,北京市,北京市,西红门,生活服务;物流速递;物流速递
116.324613,39.620583,北京锋正典货物运输有限公司,[],北京市,北京市,庞各庄,生活服务;物流速递;物流仓储场地
116.533992,39.768631,北京市物流分公司,经济技术开发区宏达南路76号中国邮政速递物流有限公司,北京市,北京市,,生活服务;生活服务场所;生活服务场所
116.589060,39.701114,北京鑫勇物流,长子营开发区企融路9号,北京市,北京市,,生活服务;物流速递;物流速递
116.452710,39.792498,北京北方国信货运代理有限公司,旧宫东亚五环国际西南,北京市,北京市,旧宫,生活服务;物流速递;物流速递
116.347503,39.715114,三绿农产品配送中心,黄徐路48号东北90米,北京市,北京市,黄村,生活服务;物流速递;物流速递
116.338755,39.692425,上海新时速物流有限公司北京分公司,天河北路5号,北京市,北京市,,生活服务;物流速递;物流速递
116.537913,39.678973,北京SKP物流中心,青云店镇大东新村华联创意园5号库,北京市,北京市,,生活服务;物流速递;物流速递
116.417553,39.712156,华润普仁鸿(北京)医药有限公司物流中心,海鑫路9号院1号楼,北京市,北京市,,公司企业;公司;公司|生活服务;物流速递;物流速递
116.276025,39.743806,北京天骄伟业物流有限公司,芦求路环宇美和物流园东侧10-12,北京市,北京市,,生活服务;物流速递;物流速递
116.588775,39.701160,江鸟物流,长子营镇长营路亚冷国际,北京市,北京市,,生活服务;物流速递;物流速递
116.348840,39.746889,北京金都配送中心,京开高速(大兴金都建材城),北京市,北京市,黄村,生活服务;物流速递;物流速递
116.346129,39.747338,梦昊伟业材料配送中心,京开高速(大兴金都建材城),北京市,北京市,清源,生活服务;物流速递;物流速递
116.358701,39.762287,北京恒宇万通运输有限公司,金星路24号1栋3层311,北京市,北京市,清源,生活服务;生活服务场所;生活服务场所
116.335413,39.705928,北京嘉荣物流有限公司生鲜仓,矿林路5号,北京市,北京市,,生活服务;物流速递;物流仓储场地
116.514789,39.788271,北京运满满货物运输有限公司,荣华南路10号院5号楼,北京市,北京市,亦庄,生活服务;生活服务场所;生活服务场所
116.338248,39.700618,北京双平物流有限公司,天河北路5号中铁快运院里350米2-19号,北京市,北京市,,生活服务;物流速递;物流速递
116.347920,39.746959,秀洁配送中心,京开高速(大兴金都建材城),北京市,北京市,清源,生活服务;物流速递;物流速递
116.348697,39.693532,鑫港邦(北京)国际货运代理有限公司,天河北路(北京宏大伟业物流有限公司),北京市,北京市,,生活服务;生活服务场所;生活服务场所
116.659226,39.651222,上海佳轩物流有限公司北京分公司,[],北京市,北京市,,生活服务;物流速递;物流速递
116.387470,39.632296,北京鑫亿通达物流有限公司,东礼路与东大路交叉路口往东北约200米,北京市,北京市,,生活服务;物流速递;物流速递
116.379121,39.769458,仓储物流中心,团河路与金西路交叉路口往西南约150米,北京市,北京市,西红门,生活服务;物流速递;物流速递
116.386156,39.640142,北京豫顺达货运,魏善庄镇岳家务村公交站往南第一个路口左拐100米,北京市,北京市,,生活服务;物流速递;物流速递
116.349373,39.636382,新农创大兴国际物流港,X037(庞魏路),北京市,北京市,,生活服务;物流速递;物流仓储场地
116.346625,39.681776,中物金象医药物流有限公司仓储物流中心,庆丰路与狼大路交叉口东北角,北京市,北京市,,生活服务;物流速递;物流速递
116.346695,39.681884,中物金象医药物流有限公司,黄村天河北路14号,北京市,北京市,,生活服务;物流速递;物流速递
116.308792,39.724293,北京远根通物流有限公司,黄村镇大洼村永华路22号,北京市,北京市,,生活服务;物流速递;物流速递
116.532381,39.814370,易连国际货物运输代理有限公司,科创三街3号院1,北京市,北京市,亦庄,生活服务;物流速递;物流速递
116.415505,39.786328,北京多路达运输有限公司,旧宫镇南小街芳源里小区底商,北京市,北京市,,生活服务;物流速递;物流速递
116.587461,39.701110,餐北斗,北京市大兴区长子营镇长营路8号亚冷西院物流园内,北京市,北京市,,生活服务;物流速递;物流速递
116.641027,39.654509,京粮物流采育物流园区,采源路与采南路交叉口,北京市,北京市,,生活服务;物流速递;物流仓储场地
116.415768,39.646085,康照运输物流快运专线,南中轴路,北京市,北京市,,生活服务;物流速递;物流速递
116.328206,39.681204,祥泰物流有限公司,大广高速(中国石油南侧约200米),北京市,北京市,,生活服务;物流速递;物流速递
116.350021,39.692126,北京永平顺运输有限公司,黄村镇天河北路18号北京祥龙京南昌达物流有限公司院内,北京市,北京市,,生活服务;生活服务场所;生活服务场所
116.358952,39.678110,国药华鸿物流,黄村镇狼各庄村京东亚一仓库,北京市,北京市,,生活服务;生活服务场所;生活服务场所
116.350471,39.691856,海际星物流(北京)有限公司,天河北路18号,北京市,北京市,,生活服务;物流速递;物流速递
116.408450,39.706420,大龙物流,黄村镇南中轴路西侧侯村公交站北50米门口石狮子,北京市,北京市,,生活服务;生活服务场所;生活服务场所
116.499886,39.649737,北京韵泽通逸运输代理有限公司,后沙路与青礼路交叉口东南150米,北京市,北京市,,生活服务;生活服务场所;生活服务场所
116.352022,39.730033,运输排,南湖巷与海子角东路交叉口北150米,北京市,北京市,兴丰,生活服务;生活服务场所;生活服务场所
116.35408,39.757842,中国医药健康产业股份有限公司物流中心,国家新媒体产业基地国家新媒体产业基地北京经济技术开发区广阳大街15号,北京市,北京市,清源,生活服务;物流速递;物流速递
116.362873,39.639552,怡华物流,X037(庞魏路)博瑞家具往南200米,北京市,北京市,,生活服务;物流速递;物流速递
116.470683,39.743476,大鸿联运张家口轿车汽车托运公司,新村路36号院内,北京市,北京市,,生活服务;生活服务场所;生活服务场所
116.680115,39.646082,福运盛达物流,采育开发区采业路9号,北京市,北京市,,生活服务;物流速递;物流速递
116.379192,39.616301,心联鑫(北京)货物运输有限公司,永宁镇左所屯村东(北京约克斯毛针织品有限公司1号楼107室),北京市,北京市,,生活服务;生活服务场所;生活服务场所
116.509587,39.798646,上海畅联国际物流股份有限公司(北京分公司),北京经济技术开发区宏达北路16号中航技工业园写字楼3层,北京市,北京市,亦庄,生活服务;物流速递;物流速递
116.327778,39.682019,北京鹤丰伟业物流有限公司,京开辅路与天北路交叉口北400米路东,北京市,北京市,,生活服务;生活服务场所;生活服务场所
116.502035,39.805859,中都友邦国际物流(北京)有限公司,荣华中路8号院3号楼力宝广场B座1602,北京市,北京市,亦庄,生活服务;生活服务场所;生活服务场所
116.415808,39.708196,北京中冷物流股份有限公司,黄村镇孙村海鑫路6号,北京市,北京市,,生活服务;生活服务场所;生活服务场所
116.680453,39.644302,北京新易泰物流有限公司,采育镇采育开发区采业路9号,北京市,北京市,,生活服务;物流速递;物流速递
116.462392,39.811656,北京福尚通达物流仓储配送管理有限公司,红化路6号B10,北京市,北京市,亦庄,生活服务;生活服务场所;生活服务场所
116.297090,39.698804,北京佳兴伟业货运有限公司,黄村镇黄良路联港家园D区底商,北京市,北京市,,生活服务;物流速递;物流速递
116.314968,39.678653,北京市五环顺通物流中心,中关村国家自主创新示范区大兴生物医药产业基地天华街21号,北京市,北京市,,生活服务;物流速递;物流速递
116.527428,39.817718,北京京达平安物流有限公司全国轿车托运,科创一街8号,北京市,北京市,亦庄,生活服务;物流速递;物流速递
116.344042,39.696327,北京顶通物流有限公司,天河北路9号百利威物流二分公司2号库,北京市,北京市,,生活服务;物流速递;物流速递
116.592744,39.702077,北京安居易,长子营镇开发区162号院(朱大路与长营路交口东行100米路北),北京市,北京市,,生活服务;物流速递;物流速递
116.275772,39.637436,北京京玖丰物流有限公司(店),芦求路液压油管北80米(皖凯物流园),北京市,北京市,,生活服务;物流速递;物流速递
116.347274,39.770421,北京市望家欢农副产品配送服务有限公司,盛坊路1号三利工业园4号楼1层,北京市,北京市,西红门,生活服务;物流速递;物流速递
116.379250,39.624303,魏善庄半壁店昌达物流,X044(东大路),北京市,北京市,,生活服务;物流速递;物流速递
116.403007,39.749020,忠诚物流,西红门亚庄村卡班中心九号,北京市,北京市,,生活服务;物流速递;物流速递
116.416521,39.712583,半亩园快餐食品有限公司配送中心,[],北京市,北京市,,生活服务;物流速递;物流速递
116.514521,39.788353,北京讯捷物流服务有限责任公司,亦庄荣华国际3号楼1606,北京市,北京市,亦庄,生活服务;物流速递;物流速递
116.421381,39.765855,北京昌顺达物流有限公司,黄亦路(五环金洲物流中心),北京市,北京市,,生活服务;物流速递;物流速递
116.422450,39.765849,北京金洲擎宇物流中心,黄亦路南100米,北京市,北京市,,生活服务;物流速递;物流速递
116.273373,39.796334,新四海,宛平城北天堂村180号,北京市,北京市,,生活服务;物流速递;物流速递
116.334687,39.677058,北京双禾物流有限公司,中关村医药基地天河东区女子监狱东侧,北京市,北京市,,生活服务;物流速递;物流速递
116.345724,39.757709,北京市通运货物运输有限公司,南四环西路128号诺德中心11号楼1111-1112室,北京市,北京市,清源,生活服务;物流速递;物流速递
116.310384,39.629788,五连环德邦快递,庞各庄镇团结路龙景湾四区底商35号德邦,北京市,北京市,,生活服务;物流速递;物流速递
116.420588,39.631495,德邦快递,魏善庄镇中心路与研垡路交叉口东北50米,北京市,北京市,,生活服务;物流速递;物流速递
116.333309,39.691887,佳吉快运,良乡京开路50号(天宫院派出所旁中化重机院内),北京市,北京市,,生活服务;物流速递;物流速递
116.344623,39.669275,安能物流,黄村镇魏永路京开畅坤建材城东100米,北京市,北京市,,生活服务;物流速递;物流速递
116.365338,39.794657,德邦快递,西红门南西路绿林苑底商,北京市,北京市,南苑,生活服务;物流速递;物流速递
116.345835,39.694395,德邦快递(北京大兴区黄村镇营业部),天河北路普洛斯南区院内,北京市,北京市,,生活服务;物流速递;物流速递
116.529638,39.790939,DHL,亦庄锦绣街11号,北京市,北京市,亦庄,生活服务;物流速递;物流仓储场地
116.345587,39.718862,北京中铁快运有限公司大兴分公司,京开高速宇丰苑南门,北京市,北京市,海子角村,生活服务;物流速递;物流速递
116.433922,39.815754,菜鸟驿站(成和园便利店),旧宫庑殿路15号成和园小区17-8号,北京市,北京市,旧宫,生活服务;物流速递;物流速递
116.339446,39.693403,中铁快运股份有限公司(北京物流中心),黄村镇天河北路5号,北京市,北京市,,生活服务;物流速递;物流速递
116.714477,39.855961,北京住总物流科技有限公司,张家湾镇张凤路88号,北京市,北京市,张家湾,生活服务;物流速递;物流速递
116.562753,39.764048,北门口物流园,兴贸一街北100米,北京市,北京市,马驹桥,生活服务;物流速递;物流速递
116.569941,39.760866,北京环捷物流有限公司,北京祥龙物流园区内,北京市,北京市,马驹桥,生活服务;物流速递;物流速递
116.581517,39.767028,苏宁(通州物流中心),马驹桥镇物流产业园区融商四路6号,北京市,北京市,马驹桥,生活服务;物流速递;物流仓储场地
116.578946,39.762658,北京通州物流基地,兴贸二街16号,北京市,北京市,马驹桥,生活服务;物流速递;物流仓储场地
116.627774,39.897539,宝龙物流有限公司(通西储运中心),永顺镇杨庄西果园甲156号,北京市,北京市,北苑,生活服务;物流速递;物流仓储场地
116.699308,39.679135,北京怡合物流有限公司,于家务回族乡于家务乡张采路聚和三街5号,北京市,北京市,,生活服务;物流速递;物流速递
116.682749,39.972718,永旺北京物流中心,宋庄镇双浦头园区利冠承工业园,北京市,北京市,,生活服务;物流速递;物流速递
116.563339,39.766990,北京佳之兴物流有限公司,兴茂北街18号,北京市,北京市,马驹桥,生活服务;物流速递;物流仓储场地
116.681903,39.972370,北京山九物流有限公司首都物流中心,宋庄镇双埠头利冠承工业园2号仓库,北京市,北京市,,生活服务;物流速递;物流速递
116.614107,39.734908,永鑫昌盛物流有限公司,马驹桥镇西田阳路一公里处,北京市,北京市,,生活服务;物流速递;物流速递
116.572649,39.758473,北京祥龙物流,物流产业园区融商六路5,北京市,北京市,马驹桥,生活服务;物流速递;物流仓储场地
116.804537,39.705592,讯捷物流,永乐店经济开发区,北京市,北京市,,生活服务;物流速递;物流速递
116.55898,39.825681,嘉和嘉事医药物流公司,次渠兴光二街8号,北京市,北京市,,公司企业;公司;公司|生活服务;物流速递;物流速递
116.700720,39.681744,井川物流,柏德路路旁聚和四街6号院,北京市,北京市,,生活服务;生活服务场所;生活服务场所
116.669974,39.798481,北京和诚达物流有限公司,张家湾镇三支路南火垡物流中心A区77号,北京市,北京市,,生活服务;生活服务场所;生活服务场所
116.567722,39.826429,普洛斯北京通州OIP物流园,卓越亚马逊运营中心北门(兴光二街),北京市,北京市,,生活服务;物流速递;物流仓储场地
116.575442,39.763118,宝德伟业(北京)物流有限公司,兴贸一街14号,北京市,北京市,马驹桥,生活服务;物流速递;物流速递
116.682659,39.973017,四通物流(通顺路),通顺路利冠承工业园15号仓库,北京市,北京市,,生活服务;物流速递;物流速递
116.549329,39.803759,通港物流中心,台湖镇科创东七街9号,北京市,北京市,,生活服务;物流速递;物流仓储场地
116.713156,39.668750,环京捷运物流,刘庄北路,北京市,北京市,,生活服务;物流速递;物流速递
116.57111,39.766433,华润万家北京配送中心,马驹桥镇通州物流基地兴贸一街11号,北京市,北京市,马驹桥,生活服务;物流速递;物流仓储场地|公司企业;公司;公司
116.660820,39.717375,宇邦物流,九德路与通房路交叉口东80米路南,北京市,北京市,,生活服务;生活服务场所;生活服务场所
116.658144,39.938875,福运通运输公司,永顺镇西潞苑小区84号楼底商,北京市,北京市,永顺,生活服务;物流速递;物流速递
116.569104,39.75861,北京融创物流有限公司(物流园区路),京沪高速公路融商七路5号,北京市,北京市,马驹桥,生活服务;物流速递;物流速递
116.714470,39.963060,北京金京顺通物流有限公司,宋庄镇宋庄美术馆南100米,北京市,北京市,宋庄,生活服务;物流速递;物流速递
116.559550,39.766742,北京通州物流基地(福星公寓东北),马驹桥镇物流产业园区兴贸街,北京市,北京市,马驹桥,生活服务;物流速递;物流速递
116.564324,39.763700,普洛斯,兴贸一街15号马驹桥物流园,北京市,北京市,马驹桥,生活服务;物流速递;物流速递
116.570118,39.757392,北京市圆舜通物流公司仓库,马驹桥镇融商六路5号,北京市,北京市,马驹桥,生活服务;物流速递;物流仓储场地
116.758407,39.936931,北京金桥轩物流有限公司,宋庄镇邢各庄路南排三号,北京市,北京市,,生活服务;物流速递;物流仓储场地
116.700647,39.679219,北京安田物流有限公司,聚富苑工业区聚和三街5号怡和物流园内,北京市,北京市,,生活服务;物流速递;物流速递
116.785665,39.776523,宏达源运输站,漷小路与漷马路交叉口西北50米,北京市,北京市,,生活服务;物流速递;物流速递
116.703087,39.892834,北京京晨远运输有限公司,滨河中路10号,北京市,北京市,,生活服务;物流速递;物流速递
116.714800,39.960135,北京佳方物流有限公司,佰富苑大街甲6号正东方向140米,北京市,北京市,宋庄,生活服务;物流速递;物流速递
116.580655,39.768747,北京金路伟业物流有限公司,兴贸一街3号,北京市,北京市,,生活服务;物流速递;物流速递
116.661653,39.717053,北京春天物流有限公司北京运营中心,马驹桥镇通房路与九周路鼎福生鲜产业园C区7O一71,北京市,北京市,,生活服务;物流速递;物流速递
116.828490,39.810281,北京鲲鹏顺通物流有限公司,任郎路与通香路交叉口东南150米,北京市,北京市,,生活服务;物流速递;物流速递
116.759664,39.936267,万链北京仓储配送中心,宋庄镇工业园望都三街2号,北京市,北京市,,生活服务;物流速递;物流仓储场地
116.833521,39.856134,北京龙晨盛达冷藏物流公司,武兴路,北京市,北京市,,生活服务;物流速递;物流速递
116.638309,39.836982,东方信航物流(铺外四路),台湖村铺外四路28号,北京市,北京市,,生活服务;生活服务场所;生活服务场所
116.703251,39.987089,北京骏达物流有限公司,宋庄镇徐辛庄卫生院东100米,北京市,北京市,,生活服务;物流速递;物流速递
116.797801,39.663921,泰基联合物流中心,永德路北京居欢化工南150米处,北京市,北京市,,生活服务;物流速递;物流速递
116.727340,39.844943,北京捷世通物流有限公司,张家湾镇西定福庄393号,北京市,北京市,张家湾,生活服务;物流速递;物流速递
116.666244,39.886420,北京市邮政速递物流通州区分公司翠屏南里营业部,梨园镇北杨洼255号京东合众汽车卖场院内,北京市,北京市,通州西门,生活服务;物流速递;物流速递
116.589805,39.760166,苏宁(通州物流中心南区),融南三街93号,北京市,北京市,,生活服务;物流速递;物流仓储场地
116.569090,39.764336,苏宁通州物流中心(兴贸一街),马驹桥镇兴贸一街14号,北京市,北京市,马驹桥,生活服务;物流速递;物流速递
116.661195,39.717519,绿网物流,通房路鼎福生鲜产业园内C区79号,北京市,北京市,,生活服务;物流速递;物流速递
116.671548,39.800033,启东物流,张家湾镇三支路南火垡物流中心C区,北京市,北京市,,生活服务;物流速递;物流速递
116.781820,39.750029,卓旺物流(北京公司),漷县镇南丁庄村南与田南路交叉口东50米,北京市,北京市,,生活服务;物流速递;物流速递
116.845314,39.808054,中都物流有限公司(小车路),小车路(北水食品工业公司西北侧),北京市,北京市,,生活服务;物流速递;物流速递
116.627649,39.897736,辛峰冷链物流(安井调拨中心),永顺杨庄西果园甲156号,北京市,北京市,北苑,生活服务;物流速递;物流速递
116.698479,39.676097,海元物流提货处,于家务聚合一街五号,北京市,北京市,,生活服务;物流速递;物流速递
116.763864,39.745166,中通快运供应链,草场乡草场村泽明印刷有限公司院内,北京市,北京市,,生活服务;物流速递;物流速递
116.721414,39.951347,安能物流,徐宋路东105号,北京市,北京市,宋庄,生活服务;物流速递;物流速递
116.721228,39.952136,百世快运,宋庄镇国防艺术区百世快运,北京市,北京市,宋庄,生活服务;物流速递;物流速递
116.557858,39.751766,马驹桥天地华宇物流,马驹桥西店建材城院内88号,北京市,北京市,马驹桥,生活服务;物流速递;物流速递
116.572933,39.765284,新杰物流,马驹桥镇兴贸一街11号华润物流园内,北京市,北京市,马驹桥,生活服务;物流速递;物流速递
116.671342,39.927910,安能物流(京榆旧线),永顺潞苑南大街614号,北京市,北京市,永顺,生活服务;物流速递;物流速递
116.545352,39.770610,北京亦庄保税物流中心,同济南路26号附近,北京市,北京市,,生活服务;物流速递;物流仓储场地
116.715581,39.958634,北京忠生物流有限公司,宋庄镇小堡工业区佰富苑808总站北侧院内,北京市,北京市,宋庄,生活服务;物流速递;物流速递
116.561921,39.790181,越海全球物流,经海五路59号院,北京市,北京市,,生活服务;物流速递;物流速递
116.706195,39.821886,北京盛世航凯物流有限公司,张家湾镇张采路北空基地,北京市,北京市,,生活服务;物流速递;物流速递
116.740245,39.964044,北京优比特货运代理有限公司,宋庄镇辛店村临195号,北京市,北京市,,生活服务;物流速递;物流速递
116.705995,39.663896,北京万鑫佳通物流有限公司,张采路小耕垡东豪易港物流园A1区9-11号,北京市,北京市,,生活服务;物流速递;物流速递
116.655467,39.759660,北京北北伟业供应链管理有限公司,马大路支线,北京市,北京市,,生活服务;物流速递;物流仓储场地
116.655553,39.793135,亿源伟业运输有限公司,潞西路6号,北京市,北京市,,生活服务;物流速递;物流速递
116.706567,39.713115,万事鸿通物流(通州)公司,顺泰物流园B区9号,北京市,北京市,,生活服务;物流速递;物流速递
116.708521,39.712383,北京百顺德货物运输有限公司,于家务顺泰物流园东区2号,北京市,北京市,,生活服务;物流速递;物流速递
116.780817,39.681132,北京中兴圣物流福建全境,永乐店京通物流园C区1-3号,北京市,北京市,,生活服务;物流速递;物流速递
116.782170,39.677379,北京畅达顺通货运有限公司,漷小路正广通供应链院内,北京市,北京市,,生活服务;物流速递;物流速递
116.707895,39.821137,龙腾达物流,张家湾镇张采路北空生产基地聚盛晨物流园C区82-83,北京市,北京市,,生活服务;物流速递;物流速递
116.800280,39.769205,赤燊国际北京仓储配送中心,漷兴四街,北京市,北京市,,生活服务;物流速递;物流速递
116.698819,39.793289,北京荣鹏顺达物流有限公司,[],北京市,北京市,,生活服务;物流速递;物流速递
116.652250,39.985645,大东(北京)物流有限公司通州店,宋庄镇尹各庄村徐尹路98号,北京市,北京市,,生活服务;物流速递;物流速递
116.704376,39.987591,北宸运输(北京)有限公司,宋庄镇大庞村129号,北京市,北京市,,生活服务;物流速递;物流速递
116.702706,39.998855,北京博大正远运输有限公司,宋庄镇小营村村委会南一千米,北京市,北京市,,生活服务;物流速递;物流速递
116.559860,39.791348,北京环博达物流有限公司,科创十街16号院,北京市,北京市,,生活服务;物流速递;物流速递
116.662842,39.714168,北京天和晟达物流有限公司,九周路鼎福生鲜D区南9号,北京市,北京市,,生活服务;物流速递;物流速递
116.785260,39.789657,北京富贵之星运输有限公司,榆林镇庄村石化加油站北103国道旁,北京市,北京市,,生活服务;物流速递;物流速递
116.678676,39.988455,北京亿家兴通物流有限公司,通顺路草寺村419号诺旺达不锈钢南侧,北京市,北京市,,生活服务;物流速递;物流速递
116.700448,39.681520,北京凯捷通物流,聚和四街6号传化供应链B区1-2号,北京市,北京市,,生活服务;物流速递;物流速递
116.670319,39.792660,承德物流,潞西路好旺家物流东,北京市,北京市,,生活服务;物流速递;物流速递
116.732908,39.955600,北京小应物流有限公司,宋庄大兴庄村6号院内,北京市,北京市,,生活服务;物流速递;物流仓储场地
116.732820,39.955577,北京应十物流有限公司,大兴庄村6号院,北京市,北京市,,生活服务;物流速递;物流仓储场地
116.579737,39.738461,斌奎物流,景盛中街10号院13号楼,北京市,北京市,,生活服务;物流速递;物流速递
116.555994,39.748578,北京亦庄博兴中通快递,西州路中轻昊宇光伏产业园内,北京市,北京市,马驹桥,生活服务;物流速递;物流速递
116.704775,39.663510,北京丰和园货物运输有限公司,采林路和张采路交叉口路口,北京市,北京市,,生活服务;物流速递;物流速递
116.701323,39.681683,百顺通供应链,聚和4街6号,北京市,北京市,,生活服务;物流速递;物流速递
116.734184,39.857205,海捷利快递服务有限公司,云杉路2号,北京市,北京市,张家湾,生活服务;物流速递;物流速递
116.705391,39.662502,京鄂伟业,通州区于家务,北京市,北京市,,生活服务;物流速递;物流速递
116.655818,39.759747,北京银信腾达货运有限公司,九周路东300米,北京市,北京市,,生活服务;物流速递;物流速递
116.697896,39.781373,宇鑫通宝物流,大一物流园A区3号,北京市,北京市,,生活服务;物流速递;物流仓储场地
116.876471,39.719761,东信云仓,漷县开发区鑫觅西二路6号,北京市,北京市,,生活服务;物流速递;物流仓储场地
116.834978,39.760186,富力通物流(北京)有限责任公司,[],北京市,北京市,,生活服务;生活服务场所;生活服务场所
116.636981,39.756781,北京到二连浩特皓特托运部,马驹桥马大路与姚辛庄交叉路口东100米,北京市,北京市,,生活服务;物流速递;物流速递
116.666096,39.718177,速通物流北京分拨中心,通房路鼎福粮油,北京市,北京市,,生活服务;物流速递;物流速递
116.609591,39.841629,北京京威宏物流有限公司,江场村28号,北京市,北京市,,生活服务;物流速递;物流速递
116.781738,39.676721,容昌物流,永乐店镇德仁务后街村漷小路北京正广通供应链管理有限公司院内,北京市,北京市,,生活服务;物流速递;物流速递
116.670351,39.800040,北京英东通运物流有限公司,南火垡物流园,北京市,北京市,,生活服务;物流速递;物流速递
116.705990,39.713167,北京新世纪昌富物流有限公司,于家务顺泰物流园B区25号,北京市,北京市,,生活服务;物流速递;物流速递
116.672658,39.798447,盈通伟业原翼豹物流,南火垡物流中心A区03号,北京市,北京市,,生活服务;物流速递;物流速递
116.663961,39.711694,北京四平顺通物流有限公司,大松垡南禾仓储西排一号,北京市,北京市,,生活服务;物流速递;物流速递
116.803188,39.852312,北京龙和物流有限公司,潞城镇宝佳路12号,北京市,北京市,,生活服务;物流速递;物流仓储场地
116.814136,39.701055,北京博鑫伟业物流网科技有限公司,永乐店镇德仁务村京通物流中心A区9号,北京市,北京市,,生活服务;物流速递;物流速递
116.703347,39.987102,物流配货,"徐尹路与徐疃路交叉口东,北侧200米",北京市,北京市,,生活服务;物流速递;物流速递
116.663796,39.717333,传承物流,马驹桥镇鼎福生鲜产业园A区1-4号,北京市,北京市,,生活服务;物流速递;物流速递
116.703806,39.712741,北京鑫泰顺通货运有限公司,张采路于家务顺泰物流园楼房101室,北京市,北京市,,生活服务;物流速递;物流速递
116.815558,39.702119,北京京鲁通达物流有限公司,永乐顺通供应链管理有限公司,北京市,北京市,,生活服务;物流速递;物流速递
116.660688,39.716555,北京万方物流,马驹桥鼎福生鲜产业园c区106号,北京市,北京市,,生活服务;物流速递;物流速递
116.563851,39.728458,北京隆昌泰达货物快运有限公司,联东U谷南区一号院3号楼,北京市,北京市,马驹桥,生活服务;生活服务场所;生活服务场所
116.671385,39.797902,速通物流(北京江场分部),南火垡物流中心D区21号,北京市,北京市,,生活服务;物流速递;物流速递
116.672753,39.800289,北京吉速通供应链管理有限公司,南火垡物流中心A区22号,北京市,北京市,,生活服务;物流速递;物流速递
116.698329,39.782120,北京同步鑫泰达物流有限公司,大一物流B区十五号,北京市,北京市,,生活服务;物流速递;物流速递
116.726625,39.815966,北京天地万佳物流有限公司北京总部,张家湾张凤路天明兴业对面,北京市,北京市,,生活服务;物流速递;物流速递
116.672721,39.797950,北京顺杰货物运输有限公司,南火垡物流中心,北京市,北京市,,生活服务;生活服务场所;生活服务场所
116.707938,39.713130,顺泰物流园(办公室),于家务顺泰物流园办公楼区,北京市,北京市,,生活服务;物流速递;物流速递
116.654454,39.892853,飞豹快运,通朝大街33号,北京市,北京市,通州西门,生活服务;物流速递;物流速递
116.680889,39.879952,三元及递,梨园南街326号-5,北京市,北京市,玉桥,生活服务;物流速递;物流速递
116.671453,39.793199,龙宇恒通物流有限公司,南火垡村潞西路,北京市,北京市,,生活服务;物流速递;物流速递
116.727744,39.844067,北京万隆物流有限公司,张家湾西定福庄393号直走到头,北京市,北京市,张家湾,生活服务;物流速递;物流速递
116.656976,39.712277,北京龙泽物流有限公司,大松垡村空军基地工业园,北京市,北京市,,生活服务;物流速递;物流速递
116.660916,39.711361,尖驰快运,九周路和空基路交叉口东200米路北,北京市,北京市,,生活服务;物流速递;物流速递
116.669525,39.798567,北京祥龙顺通货运,南火垡物流中心大库区8号,北京市,北京市,,生活服务;物流速递;物流速递
116.611729,39.740066,中铁物流集团西田阳分公司,马驹桥镇西田阳村委会东100米,北京市,北京市,,生活服务;物流速递;物流速递
116.707986,39.712019,天骄物流,果村路顺泰物流园东区3号大库,北京市,北京市,,生活服务;物流速递;物流速递
116.583161,39.762488,物流基地水厂服务大厅,融商四路与兴贸三街交叉路口西北侧(星悦国际),北京市,北京市,马驹桥,生活服务;生活服务场所;生活服务场所
116.805429,39.706197,宇培北京通州物流园,永乐店镇永乐大街7号,北京市,北京市,,生活服务;物流速递;物流仓储场地
116.639172,39.869266,北京烟草物流中心,梨园镇张家弯南火垈物流园中心B区157号九棵树西路198号,北京市,北京市,梨园,生活服务;物流速递;物流仓储场地
116.567471,39.763069,兴贸国际物流有限公司仓库,马驹桥镇物流基地兴贸一街18号,北京市,北京市,马驹桥,生活服务;物流速递;物流仓储场地
116.589218,39.766882,百丽(通州)物流园,马驹桥镇通州物流基地兴贸二街百丽物流园,北京市,北京市,,公司企业;公司;公司|生活服务;物流速递;物流速递
116.571112,39.834968,海丰宝物流有限公司,S15京津高速附近,北京市,北京市,,生活服务;物流速递;物流速递
116.661626,39.717637,视信物流,九德路与通房路交叉口东150米路南,北京市,北京市,,生活服务;生活服务场所;生活服务场所
116.555649,39.800088,笑航物流,台湖镇马庄村安徽3建东100米,北京市,北京市,,生活服务;物流速递;物流速递
116.697089,39.974214,京河柏货运有限公司,宋通路与沟渠路交叉路口西侧,北京市,北京市,,生活服务;生活服务场所;生活服务场所
116.770178,39.795720,锴图物流有限公司,漷镇许各庄村,北京市,北京市,,生活服务;物流速递;物流速递
116.550880,39.769565,北京京远物流股份有限公司,亦庄西环南路36号保税物流中心,北京市,北京市,,生活服务;物流速递;物流速递
116.681506,39.973077,东六元物流有限公司,宋庄镇双埠头村委会西800米,北京市,北京市,,生活服务;物流速递;物流速递
116.794032,39.853281,金羽杰有限公司物流中心,武兴路11号,北京市,北京市,,生活服务;物流速递;物流速递
116.551032,39.769436,博大世通国际物流公司,亦庄西环南路36号,北京市,北京市,,生活服务;物流速递;物流速递
116.670924,39.799600,大连平安物流有限公司,三支路南火垡物流园C区243,北京市,北京市,,生活服务;物流速递;物流速递
116.658169,39.713603,鑫展望物流有限公司,马驹桥镇大松垈村九周路,北京市,北京市,,生活服务;物流速递;物流速递
116.659191,39.713620,鑫展望供应链,马驹桥镇九周路,北京市,北京市,,生活服务;物流速递;物流速递
116.635472,39.916772,北京市华德碘盐配送中心,西马庄,北京市,北京市,永顺,生活服务;物流速递;物流速递
116.568012,39.763322,北京京津冀物流有限公司(兴贸一街),马驹桥镇兴贸一街18号,北京市,北京市,马驹桥,生活服务;物流速递;物流速递
116.655613,39.959672,老牛货运,富壁路西300米,北京市,北京市,,生活服务;生活服务场所;生活服务场所
116.660360,39.790289,环宇顺通物流,张家湾镇南火垡村牌楼对过直行100米右转,北京市,北京市,,生活服务;物流速递;物流速递
116.796772,39.779471,德邦物流(雅士居西),漷县镇长凌营三区1号楼1层,北京市,北京市,,生活服务;物流速递;物流速递
116.694329,39.977290,北京盛世浩宇运输有限公司,宋庄镇双沟路,北京市,北京市,,生活服务;物流速递;物流速递
116.659111,39.963598,德邦快递(富豪村营业点),S214(壁富路),北京市,北京市,,生活服务;物流速递;物流速递
116.564254,39.763700,中国外运,马驹桥镇兴贸一街15号,北京市,北京市,,生活服务;物流速递;物流速递
116.724652,39.846379,安能物流(通州二部),张家湾镇西定福庄393号,北京市,北京市,张家湾,生活服务;物流速递;物流速递
116.567047,39.809917,德邦兴光六街营业点,兴光六街5号北京科创微宏科技有限公司院内,北京市,北京市,,生活服务;物流速递;物流速递
116.663852,39.716673,盛辉物流,马驹桥大松垡鼎福生鲜产业园A区12号,北京市,北京市,,生活服务;物流速递;物流速递
116.673447,39.770999,北京飞达物流,三支路,北京市,北京市,,生活服务;物流速递;物流速递
116.654673,39.757799,德邦快递,马驹桥镇小杜社村马大路支线北,北京市,北京市,,生活服务;物流速递;物流速递
116.548128,39.732821,德邦快递(北京通州区联东U谷快递分部),景盛南二街纳特园区内,北京市,北京市,马驹桥,生活服务;物流速递;物流速递
116.723111,39.960510,德邦快递,徐宋东四街附近,北京市,北京市,宋庄,生活服务;物流速递;物流速递
116.698494,39.782516,安能物流(通州营业部),张家湾镇张彩路大一物流D区一号,北京市,北京市,,生活服务;生活服务场所;生活服务场所
116.655765,39.876035,德邦,梨园镇云景南大街35号新翠景园底商,北京市,北京市,九棵树,生活服务;物流速递;物流速递
116.600956,39.762390,百世快运,马团路西段与兴贸南街交叉口北,北京市,北京市,,生活服务;生活服务场所;生活服务场所
116.548429,39.803310,中外运,科创东七街9号通港物流院内,北京市,北京市,,生活服务;物流速递;物流速递
116.580732,39.765828,苏宁二期物流配送中心,物理产业园区融商四路6号,北京市,北京市,马驹桥,生活服务;物流速递;物流速递
116.693530,39.774433,北京四季盛通物流有限公司,张采路188号,北京市,北京市,,生活服务;生活服务场所;生活服务场所
116.693613,39.916439,格格收货站,潞城镇通胡大街水恋晶城107号楼,北京市,北京市,,生活服务;物流速递;物流速递
116.655095,39.756624,京粮物流,锐驰生活区北(019乡道北),北京市,北京市,,生活服务;生活服务场所;生活服务场所
116.780806,39.776162,圆通速递(漷县分部),漷马路北50米,北京市,北京市,,生活服务;物流速递;物流速递
116.679680,39.986037,德邦物流(徐辛庄营业部),草寺村417号,北京市,北京市,,生活服务;物流速递;物流速递
116.700875,39.794830,德邦(张采路营业部),张家湾镇张采路五木服装1层,北京市,北京市,,生活服务;物流速递;物流速递
116.663925,39.715792,华盛伟业物流有限公司,通房路(鼎福生鲜产业园),北京市,北京市,,生活服务;物流速递;物流速递
116.663027,39.717778,玖路通达物流河南全境,北京市通州区马驹桥大松垡鼎福生鲜产业园B区45号,北京市,北京市,,生活服务;物流速递;物流速递
116.582375,39.737149,四通物流,通华路东,北京市,北京市,,生活服务;物流速递;物流速递
116.673788,39.771870,中桥联运物流(通州公司),北京市通州区三支路金宇停车场西区10-11号,北京市,北京市,,生活服务;物流速递;物流速递
116.673865,39.771202,北京洪信通达货运山西专线,三支路与牛高路交叉口金宇停车场西区38号,北京市,北京市,,生活服务;物流速递;物流速递
116.683525,39.984177,北京佳安中通物流有限公司,徐尹路(快乐宝贝双语幼儿园南侧约250米),北京市,北京市,,生活服务;物流速递;物流速递
116.663799,39.716484,北京京万通顺物流有限公司,马驹桥大松垡鼎福生鲜产业园A区15-16号,北京市,北京市,,生活服务;物流速递;物流速递
116.708410,39.713167,名速物流,果村路与于王路支线交叉路口往西约100米,北京市,北京市,,生活服务;物流速递;物流速递
116.816914,39.701867,鑫鹏远博物流,北京市通州区永乐店永乐顺通物流园F区55-56号,北京市,北京市,,生活服务;物流速递;物流速递
116.781559,39.680269,北京世纪百源湖南专线,北京市通州区永乐店镇德仁务村北口京通物流中心B区3号,北京市,北京市,,生活服务;物流速递;物流速递
116.763449,39.926955,北京应十物流有限公司,白师路,北京市,北京市,,生活服务;物流速递;物流速递
116.707208,39.820351,昌隆物流,张家湾镇张采路北空生产基地C区101-103号,北京市,北京市,,生活服务;物流速递;物流速递
116.670828,39.797980,北京承均物流有限公司,[],北京市,北京市,,生活服务;物流速递;物流速递
116.815050,39.701258,快捷好物流,永乐顺通C库1-5档,北京市,北京市,,生活服务;物流速递;物流速递
116.671695,39.798252,北京世纪吉祥物流有限公司,[],北京市,北京市,,生活服务;物流速递;物流速递
116.813732,39.701659,北京润顾物流,永乐店镇永乐顺通供应链F区9-13号,北京市,北京市,,生活服务;物流速递;物流速递
116.660341,39.717216,旭百川物流重庆专线,马驹桥大松垡鼎福生鲜物流产业园C区88号,北京市,北京市,,生活服务;物流速递;物流速递
116.662458,39.715820,宇鑫通宝物流鼎富分公司,[],北京市,北京市,,生活服务;生活服务场所;生活服务场所
116.672632,39.798865,盛世博鑫物流有限公司,三支路,北京市,北京市,,生活服务;物流速递;物流速递
116.670454,39.799540,北京冠恒物流有限公司,[],北京市,北京市,,生活服务;物流速递;物流速递
116.662283,39.715991,一元合干线物流联盟,[],北京市,北京市,,生活服务;物流速递;物流速递
116.661307,39.715838,聚帮渝京建安物流,马驹桥镇九周路鼎福生鲜B区一元合院内,北京市,北京市,,生活服务;物流速递;物流速递
116.572842,39.765686,华润物流,兴贸一街与Y512交叉路口往西南约150米,北京市,北京市,马驹桥,生活服务;物流速递;物流速递
116.636939,39.912763,滴滴货运,[],北京市,北京市,八里桥,生活服务;物流速递;物流速递
116.707223,39.820280,万达顺通物流有限公司,张家湾镇聚盛晨物流园区C区1号,北京市,北京市,,生活服务;物流速递;物流速递
116.782081,39.681157,宇诚物流,永乐店镇德仁务后街村京通物流中心C区17号,北京市,北京市,,生活服务;物流速递;物流速递
116.660458,39.717197,北京华榆顺通物流有限责任公司,X007(九周路),北京市,北京市,,生活服务;物流速递;物流速递
116.557686,39.828844,滴滴货运北京两江司机服务中心,台湖镇嘉创二路2号院3号楼3-303,北京市,北京市,,生活服务;物流速递;物流速递
116.663821,39.715577,北京恒鑫伟业运输有限公司,通州镇马驹桥镇大松垈村鼎福生鲜产业园A区28-29号,北京市,北京市,,生活服务;物流速递;物流速递
116.705775,39.664678,北京天地万佳物流园,于家务中邦物流园,北京市,北京市,,生活服务;生活服务场所;生活服务场所
116.715285,39.856584,北京美亚捷捷物流有限公司,张家湾镇张凤路88号,北京市,北京市,张家湾,生活服务;物流速递;物流速递
116.612344,39.841105,荣晟嘉(北京)货运有限公司,台湖镇江场村12号,北京市,北京市,,生活服务;生活服务场所;生活服务场所
116.781140,39.677569,北京捷鑫安物流有限公司,北京市通州区德仁务京通物流园内,北京市,北京市,,生活服务;物流速递;物流速递
116.804476,39.704982,北京京全顺供应链管理有限公司,北京市通州区永乐店瑞恒仓储西区6-7,北京市,北京市,,生活服务;物流速递;物流速递
116.789959,39.777890,万顺通泰物流,漷大路与漷马路交叉路口东北侧,北京市,北京市,,生活服务;物流速递;物流速递
116.816648,39.701947,华福物流(通州永乐店部),永乐店永乐顺通物流园内F区52号,北京市,北京市,,生活服务;物流速递;物流仓储场地
116.704938,39.664174,全城联信物流,张采路与采林路交叉口,北京市,北京市,,生活服务;物流速递;物流速递
116.781735,39.680134,北京宇通达货运,永乐店镇漷小路德仁务后街村,北京市,北京市,,生活服务;物流速递;物流速递
116.813504,39.702564,润颐物流,北京市通州区永乐店镇永乐顺通供应链F区9-130号润颐物流,北京市,北京市,,生活服务;物流速递;物流速递
116.706103,39.820713,亿顺通物流,[],北京市,北京市,,生活服务;物流速递;物流速递
116.815839,39.702010,北京万翔通物流(通州分公司),永乐店镇永乐顺通物流园F区35号,北京市,北京市,,生活服务;物流速递;物流速递
116.661415,39.715823,渝京建安物流鼎福一元合营业部,马驹桥镇九周路鼎福生鲜B区一元合院内,北京市,北京市,,生活服务;物流速递;物流速递
116.706138,39.663184,北京鸿运通泰物流有限公司,张采路与彩林路交叉口中邦运网A11-13号,北京市,北京市,,生活服务;物流速递;物流速递
116.694025,39.931841,北京顺福达物流有限公司,京榆旧线与潞邑西路交叉路口往东约200米,北京市,北京市,,生活服务;物流速递;物流速递
116.780537,39.776177,递物流,漷马路辅路,北京市,北京市,,生活服务;物流速递;物流速递
116.670391,39.798457,北京华特物流有限公司,[],北京市,北京市,,生活服务;物流速递;物流速递
116.730565,39.765544,北京威波浩运货运代理有限公司,张凤路东(通州区牛堡屯镇青山小学南250米),北京市,北京市,,生活服务;生活服务场所;生活服务场所
116.814622,39.702228,北京奎远物流有限公司,永乐店镇孔东路永乐顺通物流园F区23号,北京市,北京市,,生活服务;物流速递;物流速递
116.708259,39.820076,北京长远航安物流有限公司,张家湾镇张采路北空生产基地c区39-52号,北京市,北京市,,生活服务;物流速递;物流速递
116.625036,39.864163,北京翊成利(翊涛)涛物流有限公司,Y816(怡乐西路),北京市,北京市,梨园,生活服务;物流速递;物流速递
116.705638,39.662946,宏通通物流江西福建专线,中邦运网物流园C3-4号,北京市,北京市,,生活服务;生活服务场所;生活服务场所
116.706110,39.820516,霸申物流,[],北京市,北京市,,生活服务;物流速递;物流速递
116.706529,39.712645,北京金方达物流有限公司,果村路,北京市,北京市,,生活服务;物流速递;物流速递
116.671623,39.797960,时代伟业物流有限公司,潞西路(北京森工木业有限公司北侧约250米),北京市,北京市,,生活服务;物流速递;物流速递
116.662503,39.717793,北京恒世通物流有限公司,S304(通房路),北京市,北京市,,生活服务;物流速递;物流速递
116.814019,39.701052,神龙宇物流,永乐店镇永乐顺通物流园C区10-11号,北京市,北京市,,生活服务;物流速递;物流速递
116.690810,39.761975,仓储物流,漷马路与张采路交叉路口南侧(欢乐嘉苑-南区西南侧),北京市,北京市,,生活服务;物流速递;物流速递
116.706084,39.821772,庆隆物流(通州站),北京市通州区张家湾,北京市,北京市,,生活服务;物流速递;物流速递
116.662824,39.713692,盛丰物流(通州马驹桥营业部),马驹桥镇大松垡村鼎福生鲜产业园D区10号盛丰物流,北京市,北京市,,生活服务;物流速递;物流速递
116.816764,39.700821,北京鑫展望物流有限公司,孔东路永乐顺通c区18-19,北京市,北京市,,生活服务;物流速递;物流速递
116.775678,39.816737,百世物流,G103(京津公路),北京市,北京市,,生活服务;物流速递;物流速递
116.705088,39.821398,北京路捷广华供应链管理有限公司,张采路,北京市,北京市,,生活服务;物流速递;物流速递
116.706411,39.821521,北京盛世翱翔物流有限公司,北京市通州区张采路北空部队大院聚盛晨物流园D区5-6号,北京市,北京市,,生活服务;物流速递;物流速递
116.804426,39.704960,世纪百容货物运输(北京)有限公司,永乐店瑞恒仓储北区1-2-3-4-5-6,北京市,北京市,,生活服务;物流速递;物流仓储场地
116.814289,39.702075,北京宏达祥瑞物流有限公司,北京市通州区永乐店镇永乐顺通物流园F区16～18号,北京市,北京市,,生活服务;物流速递;物流速递
116.706816,39.822571,恒威昌盛物流,通州区张家湾镇北空基地院内聚盛晨物流园D区8-10号,北京市,北京市,,生活服务;物流速递;物流速递
116.814020,39.702260,北京吉速通物流,通州区永乐顺通物流园F区14-15号,北京市,北京市,,生活服务;物流速递;物流速递
116.780458,39.679753,北京京通物流中心,S223(漷小路),北京市,北京市,,生活服务;物流速递;物流速递
116.663876,39.715774,北京百顺恒通物流有限公司,鼎福生鲜产业园A区29-30号,北京市,北京市,,生活服务;物流速递;物流速递
116.663864,39.715769,上海兴峰物流有限公司,北京市通州区鼎福生鲜产业园C区109号,北京市,北京市,,生活服务;物流速递;物流速递
116.708477,39.712184,汇商运输总部,于家务回族乡果村路北京顺泰物流园内东区3号库汇商物流,北京市,北京市,,生活服务;生活服务场所;生活服务场所
116.660905,39.716463,金圣石田物流,九周路(鼎福生鲜产业园),北京市,北京市,,生活服务;物流速递;物流速递
116.705062,39.820014,辉昌物流,冠力物流3区,北京市,北京市,,生活服务;物流速递;物流速递
116.614392,39.724754,北京佳通国际物流有限公司,长西路,北京市,北京市,,生活服务;物流速递;物流速递
116.571767,39.766067,中信出版集团物流中心收货库,兴贸一街与Y512交叉路口往西约200米,北京市,北京市,马驹桥,生活服务;物流速递;物流速递
116.574202,39.765086,北京宝德伟业物流园,兴贸二街与Y512交叉路口往西南约50米,北京市,北京市,马驹桥,生活服务;物流速递;物流仓储场地
116.612592,39.736220,北京路平安顺物流(京鲁达)有限公司,长西路(七彩童年双语幼儿园东南侧约250米),北京市,北京市,,生活服务;物流速递;物流速递
116.803144,39.741430,北京和众奥顺达物流有限公司,马黄路,北京市,北京市,,生活服务;物流速递;物流速递
116.670300,39.792547,好旺家物流服务中心,张家湾镇潞西路,北京市,北京市,,生活服务;物流速递;物流速递
116.670810,39.798278,北京威远物流有限公司,[],北京市,北京市,,生活服务;物流速递;物流速递
116.562473,39.733802,德邦物流园,[],北京市,北京市,马驹桥,生活服务;生活服务场所;生活服务场所
116.671732,39.799888,燕明鑫达物流有限公司,[],北京市,北京市,,生活服务;物流速递;物流速递
116.750977,39.934689,众奥物流培训基地,镇工业区路东100米,北京市,北京市,,生活服务;生活服务场所;生活服务场所
116.671633,39.798681,宏宇物流有限公司,[],北京市,北京市,,生活服务;物流速递;物流速递
116.614211,39.734707,盛百物流,长西路,北京市,北京市,,生活服务;物流速递;物流速递
116.705225,39.712313,顺·泰物流,于家务乡顺泰物流园A25-26号,北京市,北京市,,生活服务;生活服务场所;生活服务场所
116.569458,39.731156,柏林伟业(北京)轴承公司物流中心,S226(马朱路),北京市,北京市,马驹桥,生活服务;物流速递;物流速递
116.663710,39.716371,中衡运物流北京通州站点,马驹桥镇鼎福生鲜A区17-18号,北京市,北京市,,生活服务;物流速递;物流速递
116.671213,39.797613,井川物流有限公司,潞西路(北京森工木业有限公司北侧约200米),北京市,北京市,,生活服务;物流速递;物流速递
116.694406,39.849796,北京立峰运输有限公司,[],北京市,北京市,张家湾,生活服务;生活服务场所;生活服务场所
116.571266,39.766334,华润物流基地,马驹桥镇兴贸一街11号(北京配送中心),北京市,北京市,马驹桥,生活服务;物流速递;物流速递
116.663960,39.716305,聚阖物流(总部),马驹桥镇鼎福生鲜产业园A区17-20号,北京市,北京市,,生活服务;物流速递;物流速递
116.698340,39.744375,北方物流,张采路东豪易港B2-7-9号,北京市,北京市,,生活服务;物流速递;物流速递
116.543130,39.808841,东辉物流亦庄东区营业部,经海路5号,北京市,北京市,亦庄,生活服务;物流速递;物流速递
116.541209,39.802817,亦庄国际生物试剂物流中心有限公司,科创六街88号,北京市,北京市,,生活服务;物流速递;物流速递
116.678554,39.988518,物流货运,[],北京市,北京市,,生活服务;物流速递;物流速递
116.777065,39.639413,依诺瓷砖物流中心,永乐店镇柴厂屯村612号,北京市,北京市,,生活服务;物流速递;物流速递
116.698837,39.742856,北京京鲁昌盛物流,张采路,北京市,北京市,,生活服务;物流速递;物流速递
116.817192,39.700697,北方物流,通州区永乐店镇永乐顺通物流园b区24号北方物流,北京市,北京市,,生活服务;物流速递;物流速递
116.689009,39.989269,徐辛庄中通物流,北京市通州区奥发实业发展有限公司院内第二个路口左转,北京市,北京市,,生活服务;物流速递;物流速递
116.571117,39.834960,北京博雅顶盛物流有限公司,[],北京市,北京市,,生活服务;物流速递;物流速递
116.727757,39.844666,达利园物流北京配送中心,张家湾西定福庄393号,北京市,北京市,张家湾,生活服务;物流速递;物流速递
116.699671,39.741990,金万城物流,张采路小耕垡东豪易港C2区16-17号,北京市,北京市,,生活服务;物流速递;物流速递
116.699608,39.742946,印达物流,京津高速张采路出口北行600米东豪易港C2区9-10号,北京市,北京市,,生活服务;生活服务场所;生活服务场所
116.653661,39.981844,京阳光顺达物流有限公司,[],北京市,北京市,,生活服务;物流速递;物流速递
116.812582,39.701215,福运物流,北京市通州区永乐店镇孔东路永乐顺通物流园内福运物流,北京市,北京市,,生活服务;物流速递;物流速递
116.698295,39.743203,北京万翔通物流通州分公司,S202(张采路),北京市,北京市,,生活服务;生活服务场所;生活服务场所
116.698102,39.744813,北京万鑫佳通物流有限公司,张采路小耕垡东豪易港物流园A1区9-11号,北京市,北京市,,生活服务;物流速递;物流速递
116.783477,39.793794,北京金港冠豪纸库,南阳路口,北京市,北京市,,生活服务;物流速递;物流速递
116.658282,39.704878,鑫和物流,九周路,北京市,北京市,,生活服务;物流速递;物流速递
116.705259,39.712329,北京鑫洋众诚物流有限公司,北京市通州区顺泰物流园A区大库19--21号,北京市,北京市,,生活服务;物流速递;物流速递
116.729074,39.777020,嘉里志甄物流(北京仓库),张凤路与王各庄路交叉口西150米,北京市,北京市,,生活服务;物流速递;物流速递
116.704539,39.820465,聚盛晨物流集团有限公司,张家湾张采路北空生产基地院内,北京市,北京市,,生活服务;物流速递;物流速递
116.661327,39.713710,西安凯特物流(北京分公司),鼎福生鲜产业园D区南2号库,北京市,北京市,,生活服务;物流速递;物流速递
116.688955,39.757326,北京翔利物流仓,S303(漷马路),北京市,北京市,,生活服务;物流速递;物流速递
116.546537,39.735677,飞智达物流,马驹桥镇合生世界村i区2号楼307室,北京市,北京市,马驹桥,生活服务;物流速递;物流速递
116.701407,39.681560,快捷好物流,聚和四街6号院B15、17号库,北京市,北京市,,生活服务;物流速递;物流速递
116.672686,39.799276,北京宏万发物流有限公司,三支路,北京市,北京市,,生活服务;物流速递;物流速递
116.698385,39.745040,泰达威远物流,张采路东豪易港电商产业园A4区3-4号,北京市,北京市,,生活服务;物流速递;物流速递
116.798863,39.776681,锅炉厂物流部,[],北京市,北京市,,生活服务;物流速递;物流速递
116.884765,39.711424,北京正浩物流批发,[],北京市,北京市,,生活服务;物流速递;物流速递|购物服务;购物相关场所;购物相关场所
116.671373,39.797595,北京速到集团物流有限公司,潞西路(北京森工木业有限公司北侧约200米),北京市,北京市,,生活服务;物流速递;物流速递
116.663192,39.718229,北京风驰顺通物流有限公司,大松垡村鼎福生鲜产业园B区97号,北京市,北京市,,生活服务;物流速递;物流速递
116.802954,39.852075,海武货物运输,曹肖路与曹大路交叉路口往西北约50米,北京市,北京市,,生活服务;物流速递;物流速递
116.662992,39.712561,振东兴业物流,马驹桥镇大松垡村空基路,北京市,北京市,,生活服务;物流速递;物流速递
116.558505,39.753980,北京神龙快运物流,漷马路旧线与西周路交叉路口往东约150米,北京市,北京市,马驹桥,生活服务;物流速递;物流速递
116.689778,39.756391,178物流,S202(张采路),北京市,北京市,,生活服务;物流速递;物流速递
116.670401,39.799857,北京苏皖通物流,[],北京市,北京市,,生活服务;物流速递;物流速递
116.844100,39.800088,北京航路通物流有限公司,通州区经济开发区东区创益东路162号,北京市,北京市,,生活服务;物流速递;物流速递
116.703127,39.678710,鹏远物流,于家务聚和三街2号,北京市,北京市,,生活服务;物流速递;物流速递
116.802069,39.852152,京广联盟北京配送中心,曹大路与曹肖路交叉路口往西北约150米,北京市,北京市,,生活服务;物流速递;物流速递
116.802810,39.852835,天泰丰合物流,曹肖路与曹大路交叉路口往北约150米,北京市,北京市,,生活服务;物流速递;物流速递
116.655477,39.889502,北京天邦隆国际货运代理有限公司,通马路与九棵树东路交叉路口往南约50米,北京市,北京市,九棵树,生活服务;生活服务场所;生活服务场所
116.674048,39.771580,北京佳运腾达物流有限公司,坨堤603号,北京市,北京市,,生活服务;物流速递;物流速递
116.711026,39.668751,红普物流,聚富苑三街3号,北京市,北京市,,生活服务;物流速递;物流速递
116.583746,39.740053,北京万通翔达货物运输有限公司,马驹桥小周易村821公交总站路北停车场,北京市,北京市,,生活服务;物流速递;物流速递
116.661882,39.709616,嘉赢物流,[],北京市,北京市,,生活服务;物流速递;物流速递
116.723429,39.861913,景礼货运服务,京塘路与张凤路交叉路口往东南约200米(星月泡沫),北京市,北京市,张家湾,生活服务;物流速递;物流速递
116.708154,39.712796,达利园物流集团北京公司,张采路与果村路交汇处顺泰物流园东院,北京市,北京市,,生活服务;物流速递;物流速递
116.677330,39.712771,柏德物流,马驹桥物美大库,北京市,北京市,,生活服务;物流速递;物流速递
116.672800,39.797835,北京福连庆货运有限公司丹东专线,北京市通州区南火垡物流园D区5号,北京市,北京市,,生活服务;生活服务场所;生活服务场所
116.672695,39.799581,入佳物流,三支路,北京市,北京市,,生活服务;物流速递;物流速递
116.659868,39.717368,光明物流,九周路与通房路交叉路口往东南约200米,北京市,北京市,,生活服务;物流速递;物流速递
116.670427,39.798610,硕丰达物流,[],北京市,北京市,,生活服务;物流速递;物流速递
116.816763,39.701921,北京鑫创物流,永乐顺通供应链管理有限公司F区53号,北京市,北京市,,生活服务;物流速递;物流速递
116.696736,39.782208,烟台仁朋货运,南大化路,北京市,北京市,,生活服务;物流速递;物流速递
116.558043,39.781183,北京安信捷达物流有限公司总公司,天通泰科技金融谷(科创十二街南),北京市,北京市,,生活服务;物流速递;物流速递
116.812487,39.701788,物流招商部,[],北京市,北京市,,生活服务;生活服务场所;生活服务场所
116.672749,39.800205,九和物流,三支路,北京市,北京市,,生活服务;物流速递;物流速递
116.673203,39.798233,北京鑫长顺通供应链管理有限公司,南火垡物流中心大户型一号,北京市,北京市,,生活服务;物流速递;物流速递
116.698298,39.782064,万汇物流,张采路大一物流园C区1-2号,北京市,北京市,,生活服务;物流速递;物流速递
116.638942,39.837026,北京众上创北贸易北京仓储物流中心,新城职业学校西南50米,北京市,北京市,,生活服务;物流速递;物流速递
116.663835,39.712407,首达物流,马驹桥大松垡南禾仓储西排7-9号,北京市,北京市,,生活服务;物流速递;物流速递
116.818011,39.701573,乾盛货运(供应链有限公司),达瑞森化工有限公司北京永乐顺通供应链管理有限公司D区24-25号,北京市,北京市,,生活服务;物流速递;物流速递
116.672659,39.798374,北京鑫顺物流有限公司,张家湾镇南火垡村南火垡物流中心A区2号,北京市,北京市,,生活服务;物流速递;物流速递
116.663650,39.717019,北京京阜通物流有限公司,马驹桥镇鼎福生鲜产业园A区11号,北京市,北京市,,生活服务;物流速递;物流速递
116.869830,39.719180,北京丰和园货物运输有限公司,漷县镇北京觅子店中意厨房设备有限公司东,北京市,北京市,,生活服务;物流速递;物流速递
116.665525,39.711756,耀达物流北京有限公司,大松垡空基路南禾仓储东排5号库,北京市,北京市,,生活服务;生活服务场所;生活服务场所
116.574775,39.761852,中外运物流华北有限公司,马驹桥物流基地兴贸二街18号,北京市,北京市,马驹桥,生活服务;物流速递;物流速递
116.706165,39.819883,北京宝邦达物流有限公司北京分拨中心,[],北京市,北京市,,生活服务;物流速递;物流速递
116.674598,39.769514,郑州诺亨物流,三支路金丰垂钓园,北京市,北京市,,生活服务;物流速递;物流速递
116.725523,39.848342,业之峰诺通物流,张家湾镇西定福庄,北京市,北京市,张家湾,生活服务;物流速递;物流速递
116.662745,39.717054,广丰物流,通房路(鼎福生鲜产业园),北京市,北京市,,生活服务;物流速递;物流速递
116.672614,39.797937,北京蓝盾运输服务有限公司,潞西路(北京森工木业有限公司北侧约250米),北京市,北京市,,生活服务;生活服务场所;生活服务场所
116.705177,39.823610,冠力物流,张家湾镇张采路北空会议中心,北京市,北京市,,生活服务;生活服务场所;生活服务场所
116.663993,39.712005,北京市坤宇物流有限公司,马驹桥镇大松垡村空基路南禾仓储西排13号库,北京市,北京市,,生活服务;生活服务场所;生活服务场所
116.656527,39.708827,北京中集信达国际物流258库房,[],北京市,北京市,,生活服务;物流速递;物流仓储场地
116.697086,39.781544,杭运通物流公司,张采路与大北关路交叉路口往西约50米,北京市,北京市,,生活服务;物流速递;物流速递
116.672713,39.800003,北京鑫嘉鑫快运有限公司,三支路,北京市,北京市,,生活服务;物流速递;物流速递
116.697140,39.782112,鑫锋宏霞物流,南大化路与张采路交叉路口往西南约200米,北京市,北京市,,生活服务;物流速递;物流速递
116.697570,39.781413,华信丰物流,张采路与大北关路交叉路口西侧,北京市,北京市,,生活服务;物流速递;物流速递
116.815955,39.701949,吉迅达物流,永乐店镇孔庄村孔东路永乐顺通物流园D区18-20号,北京市,北京市,,生活服务;物流速递;物流速递
116.669963,39.799087,捷顺行物流有限公司,[],北京市,北京市,,生活服务;物流速递;物流速递
116.651105,40.010725,北京华亿达物流有限公司,壁富路,北京市,北京市,,生活服务;物流速递;物流速递
116.697068,39.782126,中海远航货物运输(北京)有限公司,南大化路与张采路交叉路口往西南约200米,北京市,北京市,,生活服务;物流速递;物流速递
116.570089,39.761864,北京一商兰枫叶商业有限公司物流中心,融商六路与兴贸二街交叉路口往西约150米,北京市,北京市,马驹桥,生活服务;物流速递;物流速递
116.544575,39.821456,比斯特物流,科创东二街枢密院1号楼1106室,北京市,北京市,,生活服务;物流速递;物流速递
116.659966,39.717432,世昌物流,九周路与通房路交汇处福鼎生鲜产业园C区,北京市,北京市,,生活服务;物流速递;物流速递
116.663781,39.717079,上海通德物流,通房路(鼎福生鲜产业园),北京市,北京市,,生活服务;物流速递;物流速递
116.659262,39.704465,北京祥龙顺通货运有限公司,柏福路与九周路交叉口西北,北京市,北京市,,生活服务;物流速递;物流速递
116.661120,39.716507,北京航铁通达物流有限公司,九周路(鼎福生鲜产业园),北京市,北京市,,生活服务;物流速递;物流速递
116.680650,39.794547,中铁物流集团(张家湾分公司),X011(潞西路),北京市,北京市,,生活服务;物流速递;物流速递
116.635849,39.910213,北京宝成浩德商贸有限公司配送,通惠河北沿河路与北苑北路交叉路口北侧,北京市,北京市,永顺,生活服务;物流速递;物流速递
116.682725,39.972473,萨莉亚北京物流中心,双疃路(双埠头工业园区),北京市,北京市,,生活服务;物流速递;物流速递
116.697830,39.781330,北京富潍安快货运有限公司,张采路与大北关路交叉路口西侧,北京市,北京市,,生活服务;物流速递;物流速递
116.698082,39.781899,大广发物流,张采路与大北关路交叉路口北侧,北京市,北京市,,生活服务;物流速递;物流速递
116.663919,39.712782,京青物流,马驹桥镇大松垡村空基路,北京市,北京市,,生活服务;物流速递;物流速递
116.662719,39.716548,北京康旭物流,通房路(鼎福生鲜产业园),北京市,北京市,,生活服务;物流速递;物流速递
116.661316,39.716621,思栋物流,九周路(鼎福生鲜产业园),北京市,北京市,,生活服务;物流速递;物流速递
116.670364,39.798561,北京南火岱物流中心,[],北京市,北京市,,生活服务;物流速递;物流速递
116.663853,39.716588,俱进物流北京分拨中心,通房路(鼎福生鲜产业园),北京市,北京市,,生活服务;物流速递;物流速递
116.674554,39.772582,鲲鹏运通,三支路西区10号,北京市,北京市,,生活服务;物流速递;物流速递
116.697821,39.781967,聚点物流,张采路与大北关路交叉路口往西北约50米,北京市,北京市,,生活服务;物流速递;物流速递
116.662843,39.717944,普星物流货物运输有限公司,S304(通房路),北京市,北京市,,生活服务;物流速递;物流速递
116.672740,39.799776,北京昌隆物流运输公司,三支路,北京市,北京市,,生活服务;物流速递;物流速递
116.697355,39.782084,北京宏伟顺通物流有限公司,张采路与南大化路交叉路口往西南约200米,北京市,北京市,,生活服务;物流速递;物流速递
116.671489,39.797590,彬盛嘉业货物运输有限公司,潞西路(北京森工木业有限公司北侧约200米),北京市,北京市,,生活服务;物流速递;物流速递
116.796626,39.773780,冷链物流园,漷兴二街附近,北京市,北京市,,生活服务;物流速递;物流仓储场地|商务住宅;产业园区;产业园区
116.697444,39.781447,金太谷物流,张采路与大北关路交叉路口西侧,北京市,北京市,,生活服务;物流速递;物流速递
116.655906,39.985370,北京小伟嘉城运输物流有限公司,宋庄镇尹各庄村壁富路与徐尹路交叉口南100米,北京市,北京市,,生活服务;物流速递;物流速递
116.660395,39.717390,悠扬物流,九周路(鼎福生鲜产业园),北京市,北京市,,生活服务;物流速递;物流速递
116.582606,39.760223,北京市永明吉运物流有限公司,马驹桥珠江四季悦城17号楼308室,北京市,北京市,马驹桥,生活服务;物流速递;物流速递
116.845403,39.808200,北京安途丰达物流有限公司,北京北水食品工业公司西北(小车路),北京市,北京市,,生活服务;物流速递;物流速递
116.568019,39.808829,北京环运通物流有限公司,S302(通马公路),北京市,北京市,,生活服务;物流速递;物流速递
116.663755,39.716039,大航物流,马驹桥镇九德路与九周路交叉口东鼎福生鲜产业园A区,北京市,北京市,,生活服务;物流速递;物流速递
116.670401,39.799857,北京玖路通物流,[],北京市,北京市,,生活服务;物流速递;物流速递
116.800981,39.849851,北京盛恒物流有限公司,曹大路,北京市,北京市,,生活服务;物流速递;物流速递
116.814138,39.701056,北京永乐顺通供应链管理有限公司,永乐店镇孔庄村北京达瑞森化工有限公司1幢01层,北京市,北京市,,生活服务;物流速递;物流速递
116.813759,39.701362,北京龙旺达物流有限公司,永乐店镇附近孔东路,北京市,北京市,,生活服务;物流速递;物流速递
116.791538,39.764264,北京厚德坤物流有限公司,漷兴五街甲2号,北京市,北京市,,生活服务;生活服务场所;生活服务场所
116.713940,39.670413,苏宁物流云仓于家务仓,刘庄北路北50米北京协昌集团有限公司院内,北京市,北京市,,生活服务;物流速递;物流仓储场地
116.558063,39.781189,国富通物流,天通泰金融谷C座501-01室,北京市,北京市,,生活服务;生活服务场所;生活服务场所
116.599495,39.760900,百世供应链北京运输部,物流路北50米,北京市,北京市,,生活服务;生活服务场所;生活服务场所
116.728083,39.813589,北京旺源物流,X005(张凤路),北京市,北京市,张家湾,生活服务;物流速递;物流速递
116.658237,39.798899,北京鑫聚源物流有限公司,张家湾镇南火垡兴洲通物流C区345号,北京市,北京市,,生活服务;物流速递;物流速递
116.773873,39.810742,北京超联鸿运货运有限公司,中国石油友联加油站西南300米,北京市,北京市,,生活服务;生活服务场所;生活服务场所
116.663404,39.718300,北京鑫隆泽丰物流有限公司,S304(通房路),北京市,北京市,,生活服务;生活服务场所;生活服务场所
116.544548,39.821601,北京嘉荣物流有限公司总部,台湖镇嘉创路10号枢密院1号楼808,北京市,北京市,,生活服务;物流速递;物流速递
116.833865,39.856775,北京永辉捷运仓储物流有限公司,胡燕路与武兴路交叉路口往东约100米,北京市,北京市,,生活服务;生活服务场所;生活服务场所
116.880791,39.710579,京粮物流(觅子店),漷县镇南屯村老粮食库,北京市,北京市,,生活服务;物流速递;物流速递
116.658417,39.705330,柏福打包站物流,九周路与柏福路交叉口,北京市,北京市,,生活服务;生活服务场所;生活服务场所
116.823567,39.811474,中铁物流园,西集镇开发区西集工商所附近(301省道南),北京市,北京市,,生活服务;物流速递;物流速递
116.692707,39.779512,北京中京通物流有限公司,柳营路,北京市,北京市,,生活服务;物流速递;物流速递
116.672525,39.799079,北京川云特货物运输有限公司,张家湾镇南火垡兴洲通物流园D区25-26号,北京市,北京市,,生活服务;生活服务场所;生活服务场所
116.617253,39.757985,北京典道体育用品有限公司物流中心,马大路与马团路东段交叉路口往西约200米,北京市,北京市,,生活服务;物流速递;物流速递
116.673399,39.772010,北京京蒙捷通物流有限公司,坨堤村603号金宇停车场西区12号,北京市,北京市,,生活服务;生活服务场所;生活服务场所
116.636887,39.904175,北京泽坤国际货运代理有限公司物流部,杨庄北里天时名苑14号楼F1层,北京市,北京市,通州西门,生活服务;物流速递;物流速递
116.579421,39.763093,北京马驹桥镇物流基地充电站,兴贸二街16号,北京市,北京市,马驹桥,生活服务;生活服务场所;生活服务场所
116.599041,39.829068,中铁物流集团,黑庄户乡大鲁店一村通马路(348路公交总站斜对面),北京市,北京市,,生活服务;物流速递;物流速递
116.880032,39.718730,北京鲲鹏顺达冷链物流有限公司,鑫觅西二路12号,北京市,北京市,,生活服务;物流速递;物流速递
116.662631,39.717986,金铭诚货物运输有限公司,马驹桥镇大松垡村鼎福生鲜产业园三通道B区50--51号,北京市,北京市,,生活服务;生活服务场所;生活服务场所
116.670401,39.799961,合肥迅通物流有限公司,新江发物流东北50米,北京市,北京市,,生活服务;生活服务场所;生活服务场所
116.671583,39.798682,北京德鑫物流,张家湾镇南火垡三支路兴州通物流园C区175号,北京市,北京市,,生活服务;生活服务场所;生活服务场所
116.617180,39.757737,典道体育物流仓储部,南小营路与长西路交叉口北100米,北京市,北京市,,生活服务;生活服务场所;生活服务场所
116.626560,39.734459,天联快运(中天供应链),马驹桥卡航公路港大院进门左边第1家1号,北京市,北京市,,生活服务;生活服务场所;生活服务场所
116.574747,39.757426,马驹桥镇物流基地,兴贸三街与物流中路交叉口南150米,北京市,北京市,马驹桥,生活服务;物流速递;物流速递
116.565286,39.766985,德利得物流,马驹桥镇兴贸北街18号东方信捷物流园2号库,北京市,北京市,马驹桥,生活服务;物流速递;物流速递
116.667161,39.819013,火车托运,西下营路,北京市,北京市,,生活服务;物流速递;物流速递
116.569924,39.763754,嘉柏物流公司,马驹桥镇苏宁一期南门对面,北京市,北京市,,生活服务;物流速递;物流速递
116.569418,39.763710,嘉柏(中国)国际货运代理有限公司,马驹桥通州物流园兴贸一街16号,北京市,北京市,马驹桥,生活服务;生活服务场所;生活服务场所
116.779734,39.824458,顺财货物运输有限公司,张家湾镇京塘路中国石油凯利加油站,北京市,北京市,,生活服务;生活服务场所;生活服务场所
116.566426,39.767225,东方信捷物流,马驹桥镇兴贸北街18号,北京市,北京市,,生活服务;物流速递;物流速递
116.731099,39.945578,安能物流(宋庄营业部),潞城镇宋梁路路口北200米画家公寓底商,北京市,北京市,宋庄,生活服务;物流速递;物流速递
116.657744,39.898387,德邦(通州果园营业部),新城东里38号楼,北京市,北京市,通州西门,生活服务;物流速递;物流速递
116.538016,39.770257,德邦物流(同济南路营业部),经济技术开发区康定街18号9号楼1层,北京市,北京市,,生活服务;物流速递;物流速递
116.562477,39.733806,德邦快递(北京转运中心),马驹桥镇景盛南二街23号,北京市,北京市,马驹桥,生活服务;生活服务场所;生活服务场所
116.703246,39.687650,宇鑫物流,东西垡路与张采路交叉口东50米,北京市,北京市,,生活服务;物流速递;物流速递
116.703746,39.687680,德邦物流(于家务店),东垡村1号,北京市,北京市,,生活服务;物流速递;物流速递
116.665849,39.792446,北京兴洲通物流园(暂停营业),南火垡湘西路,北京市,北京市,,生活服务;物流速递;物流速递
116.746659,39.848820,物流中心(暂停营业),[],北京市,北京市,张家湾,生活服务;物流速递;物流仓储场地
116.821889,40.379996,北京永聚利物流,兴云路与密西路交叉口东南100米,北京市,北京市,,生活服务;物流速递;物流速递
116.822299,40.326441,百世物流,[],北京市,北京市,,生活服务;物流速递;物流速递
116.755640,40.339695,天津翰承物流北京分公司,西统路,北京市,北京市,,生活服务;物流速递;物流速递
116.920013,40.377989,潮东物流,巨各庄镇青水潭中医医院隔壁,北京市,北京市,,生活服务;物流速递;物流速递
116.790588,40.351634,洪鼎胜物流,明珠花园4-4,北京市,北京市,,生活服务;物流速递;物流速递
116.793286,40.352792,佳利达物流,明珠花园甲2-106,北京市,北京市,,生活服务;物流速递;物流速递
116.810225,40.380927,北京天地众和物流有限公司,密云镇西门外大街30号,北京市,北京市,,生活服务;物流速递;物流速递
116.827947,40.332148,北京正宇通物流有限公司,河南寨镇政府北侧50米,北京市,北京市,,生活服务;物流速递;物流速递
116.792328,40.352461,凯路达物流,明珠花园3号楼7单元102室,北京市,北京市,,生活服务;物流速递;物流速递
116.759639,40.338205,东方家家超市物流配送中心,G101(京密路),北京市,北京市,,生活服务;物流速递;物流速递
116.785943,40.360620,百世快运,[],北京市,北京市,,生活服务;物流速递;物流速递
116.816931,40.322902,北京急速达运输有限公司,河南寨镇套里村西大街116号,北京市,北京市,,生活服务;物流速递;物流速递
116.808822,40.337374,安吉利物流(密云分公司),科技路1号楼附近,北京市,北京市,,生活服务;物流速递;物流速递
116.819738,40.320737,北京捷运顺达运输有限公司,S203(顺密路),北京市,北京市,,生活服务;物流速递;物流速递
116.792081,40.352340,北京昊宇星物流有限公司,明珠花园小区3号楼,北京市,北京市,,生活服务;物流速递;物流速递
116.811124,40.373844,北京四海辰宇运输代理有限公司,新北路(王世海车队),北京市,北京市,,生活服务;物流速递;物流速递
116.868920,40.354111,北京博政翔物流有限公司,[],北京市,北京市,,生活服务;物流速递;物流速递
116.755115,40.366193,龙顺利物流有限公司,雁密路99号正南方向130米,北京市,北京市,,生活服务;物流速递;物流速递
116.808711,40.370784,北京和谐春天医药有限公司配送中心,双井工业大院内,北京市,北京市,,生活服务;物流速递;物流速递
116.802330,40.370213,北京兴达物流有限公司,658乡道东150米,北京市,北京市,,生活服务;生活服务场所;生活服务场所
116.795108,40.342921,密云安能物流,隆源开发区南头,北京市,北京市,,生活服务;物流速递;物流速递
116.835002,40.392225,安能物流,密云镇大唐庄金石通汽修西院,北京市,北京市,,生活服务;物流速递;物流速递
116.827568,40.332472,安能物流,兴企三路南50米,北京市,北京市,,生活服务;物流速递;物流速递
116.792336,40.352503,安能物流(北京密云营业部),明珠花园3号楼1层,北京市,北京市,,生活服务;物流速递;物流速递
116.789006,40.350954,恒路物流(656乡道店),明珠花园6号楼4单元102底商,北京市,北京市,,生活服务;物流速递;物流速递
116.790523,40.351596,中通快运,十里堡镇明珠花园4号楼3单元101底商,北京市,北京市,,生活服务;物流速递;物流速递
116.748303,40.366674,韵达快运(北京密云区公司),仓统路与西统路交叉路口东100米,北京市,北京市,,生活服务;物流速递;物流速递
116.854003,40.365212,庆隆物流(密云站),[],北京市,北京市,,生活服务;物流速递;物流速递
116.960563,40.563677,北京嘉禾祥瑞物流有限公司,[],北京市,北京市,,生活服务;物流速递;物流速递
116.825673,40.330222,空车配货,S203(顺密路),北京市,北京市,,生活服务;生活服务场所;生活服务场所
116.815817,40.365066,北京畅顺达运输有限公司,经济开发区康宝路12-8,北京市,北京市,,生活服务;生活服务场所;生活服务场所
116.822143,40.325465,永兴盛发运输,顺密路(河南寨中学南侧约250米),北京市,北京市,,生活服务;物流速递;物流速递
116.839838,40.338328,北京新芯运输有限公司,[],北京市,北京市,,生活服务;物流速递;物流速递
116.853922,40.365206,吉时宇物流,水源东路新中街交叉口北200米路西,北京市,北京市,,生活服务;物流速递;物流速递
116.861478,40.366945,圣比科配送中心,水源东路与新东路交叉路口往西约100米(华远市场),北京市,北京市,,生活服务;物流速递;物流速递
116.856906,40.368040,北京万亨配送中心,阳光街与花园路交叉路口往西南约50米,北京市,北京市,,生活服务;物流速递;物流速递
116.847694,40.383202,北京柯联货运社(密云分店),沿湖小区24号楼,北京市,北京市,,生活服务;物流速递;物流速递
116.792314,40.352454,物流派,京密路与西大桥路交叉口西南150米,北京市,北京市,,生活服务;物流速递;物流速递
116.828031,40.336533,同方威视技术股份有限公司物流仓库,兴企三路与兴企二路交叉口北200米,北京市,北京市,,生活服务;物流速递;物流仓储场地
116.767581,40.409242,北京北汽福仓储物流有限公司,X013(西统路),北京市,北京市,,生活服务;物流速递;物流速递
116.791506,40.352070,北盛伟业冷藏物流公司,富民路明珠花园3号楼,北京市,北京市,,生活服务;物流速递;物流速递
116.781727,40.347511,德邦(定顺街店),十里堡中学西行200米101国道路南,北京市,北京市,,生活服务;物流速递;物流速递
116.827699,40.332359,德邦快递(河南寨营业部),兴企一路与兴企三路交叉路口东南侧,北京市,北京市,,生活服务;物流速递;物流速递
116.854734,40.363325,德邦物流,新中街189号3号楼8号,北京市,北京市,,生活服务;物流速递;物流速递
116.335769,40.065627,老闫物流,育知东路东100米,北京市,北京市,西三旗,生活服务;物流速递;物流速递
116.137748,40.243169,晓峰物流(南口村路),南口镇东大街五号院,北京市,北京市,南口,生活服务;物流速递;物流速递
116.215776,40.200292,远征物流,水南路31号附近,北京市,北京市,马池口,生活服务;物流速递;物流速递
116.184554,40.185570,北京天地通物流有限公司,红冶小区(017县道北),北京市,北京市,马池口,生活服务;物流速递;物流速递
116.383871,40.172927,北京金盟昌盛货运有限公司(小汤山双兴苑A区南),小汤山镇小汤山双兴苑a区,北京市,北京市,小汤山,生活服务;物流速递;物流速递
116.419721,40.130544,华润医药商业物流配送中心(北亚花园西北),北七家镇北亚花园北门西200米,北京市,北京市,北七家,生活服务;物流速递;物流速递
116.228105,40.212133,宏达益物流,南环路30号一9号底商,北京市,北京市,城南,生活服务;物流速递;物流速递
116.192447,40.176036,北京昌顺捷物流有限公司,马池口镇横桥村1062号,北京市,北京市,,生活服务;生活服务场所;生活服务场所
116.300108,40.154529,安迅兴达物流(百沙路),百沙路188号附近,北京市,北京市,沙河,生活服务;物流速递;物流速递
116.219823,40.218856,昌达兴盛物流,西关御路园小区11号楼,北京市,北京市,,生活服务;物流速递;物流速递
116.322540,40.166702,北京物通达货运公司,百善镇善缘小区13号楼,北京市,北京市,百善,生活服务;物流速递;物流速递
116.222390,40.200047,物达物流,水南路15-12号,北京市,北京市,马池口,生活服务;物流速递;物流速递
116.221017,40.223145,京客隆物流收货处,西关路与西关北路交叉路口往西约200米(琥珀郡),北京市,北京市,,生活服务;物流速递;物流速递
116.312588,40.093452,华北电力大学校园物流服务中心,北农路2号华北电力大学朱北路,北京市,北京市,回龙观,生活服务;物流速递;物流速递
116.249669,40.182587,北京金盟昌盛货运有限公司,马池口白浮村185号,北京市,北京市,,生活服务;物流速递;物流速递
116.212528,40.239339,北京众邦运输有限公司,十三陵镇涧头村(食家鸽园饭店对面),北京市,北京市,,生活服务;物流速递;物流速递
116.202021,40.203110,通晓托运站,辛水路西50米,北京市,北京市,马池口,生活服务;物流速递;物流速递
116.252961,40.170415,沙河物流中心,百葛路301号,北京市,北京市,,生活服务;物流速递;物流速递
116.269260,40.186830,北京杰昌佳宝仓储物流有限公司,南邵镇姜屯村姜屯村委会东口北行100米,北京市,北京市,,生活服务;物流速递;物流速递
116.307137,40.115421,首佳物流(昌平区分店),定泗路豆各庄新村36号楼,北京市,北京市,,生活服务;物流速递;物流速递
116.288677,40.084699,京建物流,西北旺京包路9号院,北京市,北京市,二拨子村,生活服务;物流速递;物流速递
116.414797,40.224041,韵达快递超市,兴寿村65号,北京市,北京市,兴寿,生活服务;物流速递;物流速递
116.404696,40.233728,腾达物流(北京专线),兴寿镇象房铁道南30米路东腾达物流北京专线,北京市,北京市,兴寿,生活服务;物流速递;物流速递
116.419380,40.316086,天地华宇,书画山风景区西,北京市,北京市,,生活服务;物流速递;物流速递
116.414900,40.088039,妈妈驿站,东三旗村委会胡同南100米,北京市,北京市,北七家,生活服务;物流速递;物流速递
116.114703,40.116831,安能物流昌平阳坊营业部,阳坊镇前白虎涧安能物流,北京市,北京市,,生活服务;物流速递;物流速递
116.413985,40.069678,中航联运国际货运(北京)有限公司,天通中苑二区42号楼,北京市,北京市,立水桥,生活服务;物流速递;物流速递
116.223409,40.200415,丰和顺物流,水屯西路1号1-06,北京市,北京市,马池口,生活服务;物流速递;物流速递
116.218428,40.214120,东海货物运输公司,城北街道南郝庄福特4S店向西150米,北京市,北京市,城南,生活服务;物流速递;物流速递
116.431276,40.066698,极兔快递(北京朝阳清苑路网点),天通苑东一区29号楼8单元101号,北京市,北京市,东小口,生活服务;物流速递;物流速递
116.223472,40.178676,吉安顺通运输队,马池口村南,北京市,北京市,,生活服务;物流速递;物流速递
116.160923,40.138564,北京九久通物流有限公司,东贯市村南工业区甲1号,北京市,北京市,阳坊村,生活服务;物流速递;物流速递
116.286038,40.191231,张各庄京东快递直属代收点,南邵镇张各庄村委会南20米,北京市,北京市,,生活服务;物流速递;物流速递
116.432333,40.116344,北京聚想安能货运代理有限公司,北七家镇定泗路218号院底商6号楼4单元101,北京市,北京市,北七家,生活服务;物流速递;物流速递
116.442334,40.223138,中铁物流立水桥分公司,上西路(幸福时光东侧约250米),北京市,北京市,兴寿,生活服务;生活服务场所;生活服务场所
116.191198,40.169830,武汉三江华宇物流有限公司北京昌平分公司,横桥村两岸共赢二区后排10号库,北京市,北京市,,生活服务;物流速递;物流速递
116.439426,40.176207,顺心捷达,小汤山镇赴任辛庄村顺沙路西边红绿灯路北,北京市,北京市,,生活服务;物流速递;物流速递
116.202188,40.199236,北京腾翔伟业物流,宏奤路与水南路交叉口南100米,北京市,北京市,马池口,生活服务;物流速递;物流速递
116.161025,40.138048,北京宝航速达物流有限公司,阳坊镇东贯市东路甲二号院,北京市,北京市,阳坊村,生活服务;物流速递;物流速递
116.131699,40.211625,北京中润优鲜达冷链运输有限公司,南口镇南阳公路东侧南口农场硕春冷库3号库,北京市,北京市,,生活服务;生活服务场所;生活服务场所
116.201964,40.199537,庆隆物流(昌平站),马池口镇水南路与宏奤路交叉口向南二百米,北京市,北京市,马池口,生活服务;物流速递;物流速递
116.160947,40.138549,时代信恒(北京)物流有限公司,阳坊镇东贯市东贯东路甲1号院,北京市,北京市,阳坊村,生活服务;物流速递;物流速递
116.250247,40.171597,吴裕泰物流中心,沙河镇百葛路190号,北京市,北京市,,生活服务;物流速递;物流速递
116.197264,40.169197,北京平运物流,马池口横桥村顺沙路168号,北京市,北京市,,生活服务;物流速递;物流速递
116.204429,40.200936,中国华粮物流集团(水南路),百泉庄607号,北京市,北京市,马池口,生活服务;物流速递;物流速递
116.336547,40.065980,北京国鹏达物流,回龙观吉晟别墅西侧物流大院,北京市,北京市,回龙观,生活服务;物流速递;物流速递
116.320376,40.061128,北京恒通安达物流,西二旗东一路与西二旗北路交叉口北150米,北京市,北京市,回龙观,生活服务;物流速递;物流速递
116.253697,40.121745,欧辉客车事业部物流,沙阳路15号,北京市,北京市,,生活服务;物流速递;物流速递
116.189598,40.168292,北京康达物流公司(昌平分部),马池口镇镇横桥村村委会往西200米,北京市,北京市,,生活服务;生活服务场所;生活服务场所
116.245425,40.200055,德邦物流(白浮泉路),白浮泉路26号龙山华府4号楼,北京市,北京市,城南,生活服务;物流速递;物流速递
116.401448,40.176145,德邦物流(小汤山店),小汤山镇顺沙路典雅庄园1号楼2单元102室,北京市,北京市,小汤山,生活服务;物流速递;物流速递
116.363387,40.069526,中铁快运,科星路(瑞旗家园北侧),北京市,北京市,,生活服务;物流速递;物流速递
116.296592,40.150519,中通快运,百沙路(兰堡公寓南侧约50米),北京市,北京市,沙河,生活服务;物流速递;物流速递
116.140689,40.142968,德邦快递,温南路与阳坊村西大街交叉路口往东约150米,北京市,北京市,阳坊村,生活服务;物流速递;物流速递
116.240165,40.234128,德邦快递,中山口路(三街社区北环文化体育中心),北京市,北京市,,生活服务;物流速递;物流速递
116.415031,40.088200,中国邮政速递物流(东三旗村代办点),立汤路与回南路交叉路口往东南约100米,北京市,北京市,北七家,生活服务;物流速递;物流速递
116.315091,40.082999,德邦快递,[],北京市,北京市,回龙观,生活服务;物流速递;物流速递
116.336397,40.163497,恒路物流,[],北京市,北京市,百善,生活服务;物流速递;物流速递
116.191546,40.169626,天地华宇,S321(顺沙路),北京市,北京市,,生活服务;物流速递;物流速递
116.336783,40.069801,德邦快递,回龙观龙博苑一区2号楼1层8-3号,北京市,北京市,回龙观,生活服务;物流速递;物流速递
116.276009,40.143566,德邦快递(沙河营业部),路松街与北沙河西一路交叉路口往西南约50米,北京市,北京市,沙河,生活服务;物流速递;物流速递
116.380104,40.175484,天地华宇,秦上路与顺沙路交叉口东50米,北京市,北京市,小汤山,生活服务;物流速递;物流速递
116.288239,40.084263,远成快运(海淀分拨库),京包路9号院7号库,北京市,北京市,二拨子村,生活服务;物流速递;物流速递
116.246257,40.216912,百世汇通(中国石油大学营业厅),府学路18号中国石油大学北京分部,北京市,北京市,,生活服务;物流速递;物流速递
116.247532,40.171007,中铁物流集团(昌平分公司),顺沙路72号,北京市,北京市,,生活服务;物流速递;物流速递
116.169044,40.185274,德邦物流(马池口营业部),神牛路东50米,北京市,北京市,马池口,生活服务;物流速递;物流速递
116.387881,40.176223,安能物流昌平分部,小汤山镇双兴苑东区底商24门,北京市,北京市,小汤山,生活服务;物流速递;物流速递
116.403775,40.128816,圆通速递北七家分公司,东北路北150米,北京市,北京市,北七家,生活服务;物流速递;物流速递
116.456726,40.083623,北京安达货运公司,X025(回南路),北京市,北京市,北七家,生活服务;生活服务场所;生活服务场所
116.308119,40.153368,德邦快递(尚上路店),百善镇上东廓村西500米路北王庄工业园1层,北京市,北京市,百善,生活服务;物流速递;物流速递
116.296675,40.103606,德邦物流(史各庄店),回龙观镇史各庄村265号(史各庄桥南路东尚城小区东侧),北京市,北京市,,生活服务;物流速递;物流速递
116.420258,40.092558,德邦快递(昌平区天通苑分公司),东三旗村584号院东三旗旧货市场内,北京市,北京市,北七家,生活服务;物流速递;物流速递
116.424689,40.092798,天凯物流,[],北京市,北京市,北七家,生活服务;物流速递;物流速递
116.343367,40.069565,润泽捷达物流,黄平路与文华西路交叉路口往东约200米,北京市,北京市,回龙观,生活服务;物流速递;物流速递
116.406923,40.154672,中国邮政速递物流(马坊村代办点),立汤路(马坊村幼儿园西北侧约200米),北京市,北京市,,生活服务;物流速递;物流速递
116.403501,40.111552,冷链配送,定泗路(奥北之家家居广场),北京市,北京市,北七家,生活服务;物流速递;物流速递
116.263969,40.123932,诚旭物流,站西路(吉昌隆钢材市场),北京市,北京市,沙河,生活服务;物流速递;物流速递
116.271553,40.133541,一米滴答(沙河南营业部),沙河镇北大桥东展思门路33号,北京市,北京市,沙河,生活服务;物流速递;物流速递
116.445587,40.071662,瑞诚建材(北京)辅材配送中心,北苑东路(白坊家具城东南侧),北京市,北京市,北七家,生活服务;物流速递;物流速递
116.373411,40.093447,北京安捷通达配送有限公司,黄平路60附近,北京市,北京市,北七家,生活服务;物流速递;物流速递
116.323964,40.059290,蜂鸟配送,S216(G6辅路),北京市,北京市,回龙观,生活服务;物流速递;物流速递
116.415097,40.098070,北京弘道泰合轿车托运,S213(立汤路),北京市,北京市,北七家,生活服务;物流速递;物流速递
116.331935,40.232024,北京崔村张青元运输有限公司,[],北京市,北京市,,生活服务;物流速递;物流速递
116.379978,40.081843,京东快递(北京霍营乡营业部),紫金新干线一期24号楼底商202-4,北京市,北京市,东小口,生活服务;物流速递;物流速递
116.138207,40.159251,北京富华伟业货运有限公司,阳坊镇工业北区银湾科技院内,北京市,北京市,,生活服务;生活服务场所;生活服务场所
116.265619,40.131319,金鑫物流,S216(G6辅路),北京市,北京市,沙河,生活服务;生活服务场所;生活服务场所
116.161644,40.163197,北京聚融国际货运代理有限公司,史西路附近,北京市,北京市,,生活服务;物流速递;物流速递
116.191381,40.201773,北京福瑞易德环保技术有限公司,马池口镇上念头村北762号,北京市,北京市,马池口,生活服务;物流速递;物流速递|公司企业;公司;公司
116.433941,40.206498,北京市蒙伊通运输服务有限公司,桃西路甲3号,北京市,北京市,,生活服务;物流速递;物流速递
116.254357,40.167670,北京振山运输服务有限责任公司,沙河镇百葛路301号,北京市,北京市,,生活服务;生活服务场所;生活服务场所
116.286816,40.093664,北京祥龙物流(集团)有限公司大件运输分公司,北清路公交车站(205公交院内),北京市,北京市,回龙观,生活服务;物流速递;物流速递
116.322366,40.169513,德邦物流(百善营业部),百善镇善缘家园1号楼1单元101室,北京市,北京市,百善,生活服务;物流速递;物流速递
116.365397,40.110236,德邦物流(郑上路),北七家镇郑各庄新村宏福苑小区里新村商业街2-3号,北京市,北京市,北七家,生活服务;物流速递;物流速递
116.427599,40.064615,德邦物流(龙德广场营业部),天通苑老6区34号楼1层,北京市,北京市,立水桥,生活服务;物流速递;物流速递
116.220074,40.200046,安达物流,马池口镇水南路上海大众4S店东一百米,北京市,北京市,马池口,生活服务;物流速递;物流速递
116.405580,40.044108,德邦(北京朝阳区立水桥营业部),东小口镇嘉诚花园3号楼底商,北京市,北京市,东小口,生活服务;物流速递;物流速递
116.342682,40.066203,百世快运,东村家园西门底商28号,北京市,北京市,回龙观,生活服务;物流速递;物流速递
116.315110,40.083006,德邦回龙观营业部,回龙观龙禧二街天露园一区21号楼底商,北京市,北京市,回龙观,生活服务;物流速递;物流速递
116.380080,40.081840,德邦物流(霍营店),回龙观东大街200-5号紫金新干线24号楼,北京市,北京市,东小口,生活服务;物流速递;物流速递
116.007039,39.704881,北京八达物流有限公司房山中转库,兴东大街137号,北京市,北京市,房山城关,生活服务;生活服务场所;生活服务场所
115.991437,39.707974,北京货运中心房山营业部,城关街道房山站路7号,北京市,北京市,房山城关,生活服务;物流速递;物流速递
115.991719,39.747907,迅邦润泽物流,燕山东流水路7号,北京市,北京市,燕山,生活服务;物流速递;物流速递
116.167871,39.773888,景江物流有限责任公司,京良桥附近,北京市,北京市,,生活服务;生活服务场所;生活服务场所
116.161755,39.692365,华冠物流中心,良南路16号,北京市,北京市,,生活服务;物流速递;物流仓储场地
116.075819,39.647057,北京汇润源物流货运公司,房窑路与G4京港澳高速交叉口西50米,北京市,北京市,窦店,生活服务;物流速递;物流速递
115.978813,39.715656,北京海天物流有限公司,迎风街道燕山燕房路3号,北京市,北京市,燕山,生活服务;物流速递;物流速递
116.124979,39.610829,北京佳淼物流有限公司房山库区,琉璃河镇东南召村378号北京顺潮电力科技有限公司,北京市,北京市,,生活服务;生活服务场所;生活服务场所
116.115295,39.721276,首发集团货运枢纽,[],北京市,北京市,,生活服务;物流速递;物流速递
116.040037,39.721904,北京兴新运输有限公司,闫村焦庄村大展路,北京市,北京市,,生活服务;生活服务场所;生活服务场所
115.958628,39.764701,北京燕山东方红运输有限公司,燕山双泉滨河路8号,北京市,北京市,燕山,生活服务;物流速递;物流速递
115.974275,39.753673,北京昊鹏运输有限公司,东风街道东流水社区,北京市,北京市,燕山,生活服务;物流速递;物流速递
116.131787,39.669430,昌鑫隆货物运输队,窦店镇江村村委会西200米,北京市,北京市,窦店,生活服务;物流速递;物流速递
116.036525,39.720569,北京燕东畅达运输公司,S326(大件路),北京市,北京市,,生活服务;生活服务场所;生活服务场所
116.125997,39.680950,中盛泰达物流,良乡镇京深路刘仗村西南300米,北京市,北京市,,生活服务;物流速递;物流速递
116.087291,39.659193,重庆伟帆物流有限公司,窦店镇望楚村143号,北京市,北京市,窦店,生活服务;生活服务场所;生活服务场所
116.036625,39.727118,北京好来欣物流有限公司,阎村镇焦庄村西北京消防器材厂内,北京市,北京市,,生活服务;物流速递;物流速递
116.104540,39.718360,京港物流,炒十路,北京市,北京市,,生活服务;物流速递;物流速递
116.027536,39.666542,联杰豪通物流有限公司,石楼镇房窑路联杰豪通物流公司,北京市,北京市,,生活服务;物流速递;物流速递
115.982114,39.649275,日恒配送中心,X010(房琉路),北京市,北京市,,生活服务;物流速递;物流速递
115.958839,39.739391,北京燕山屹燕运输有限公司,向阳街道燕山向阳路1号,北京市,北京市,燕山,生活服务;物流速递;物流速递
116.116439,39.722618,首发物流商贸交易中心,良乡长虹西路33号,北京市,北京市,,生活服务;物流速递;物流速递
116.114749,39.761615,北京顺风飞扬物流中心,青龙湖镇北刘庄98号甲2号,北京市,北京市,,生活服务;物流速递;物流速递
116.026730,39.672422,北京市燕美物流有限公司,夏村路北50米,北京市,北京市,,生活服务;物流速递;物流速递
116.066228,39.663542,瓦窑头菜鸟驿站,窦店镇瓦窑头中街,北京市,北京市,窦店,生活服务;物流速递;物流速递
116.017124,39.696741,韵达快递房山燕化公司,城关街道瓜市村北,北京市,北京市,,生活服务;物流速递;物流速递
116.129680,39.739680,菜鸟驿站(北京房山北潞华店),良乡北潞冠家园4号楼1单元烟酒茶副食,北京市,北京市,良乡,生活服务;物流速递;物流速递
116.224278,39.736836,申通快递房山分公司,长阳镇朱岗子村北海量水箱厂院内,北京市,北京市,,生活服务;物流速递;物流速递
116.115325,39.721272,德邦快递,长虹西路33号,北京市,北京市,,生活服务;物流速递;物流速递
116.120052,39.722929,中铁物流集团,良乡佳世苑30号楼底商,北京市,北京市,,生活服务;物流速递;物流速递
115.975608,39.723093,北京燕山燕盛运输有限公司,向阳街道燕东路5号,北京市,北京市,燕山,生活服务;物流速递;物流速递
116.182977,39.733829,北京中源运输有限公司,[],北京市,北京市,,生活服务;物流速递;物流速递
115.746716,39.524502,北京康博佳华运输有限公司,大石窝镇土堤村村委会北305米,北京市,北京市,,生活服务;物流速递;物流速递
115.962116,39.568477,北京市京南亚辉物流有限公司,韩村河镇郑庄村,北京市,北京市,,生活服务;物流速递;物流仓储场地
116.103805,39.689707,北京龙人电商快递分拨中心,阎村镇后十三里村西,北京市,北京市,,生活服务;物流速递;物流速递
116.036935,39.703199,北京金诺达货运有限公司,阎村镇大石河工校院内,北京市,北京市,,生活服务;物流速递;物流仓储场地
116.220242,39.715020,浩然开德物流有限公司,广阳大地采摘园北440米,北京市,北京市,,生活服务;物流速递;物流速递
116.069706,39.756603,北京鑫淼帝达货运代理有限公司,西庄户北路,北京市,北京市,,生活服务;物流速递;物流速递
116.106528,39.678499,北京市国普物流有限公司,闫村镇小十三里村东500米,北京市,北京市,窦店,生活服务;物流速递;物流速递
116.214013,39.769378,百川物流(北京)集团有限公司,房山区长政北街创新大厦5层,北京市,北京市,,生活服务;物流速递;物流速递
116.009232,39.674262,北京市隆基炜业运输有限公司,城关镇东瓜地村,北京市,北京市,,生活服务;物流速递;物流速递
116.114225,39.721339,壹米滴答物流(良乡店),良乡长虹西路33号首发物流园内,北京市,北京市,,生活服务;物流速递;物流速递
116.042873,39.756298,壹米滴答物流(青龙湖店),大苑上村公交站旁,北京市,北京市,,生活服务;物流速递;物流速递
116.006384,39.725231,北京守信诚达运输有限公司,羊头岗公交站前200米守信诚达物流园,北京市,北京市,,生活服务;物流速递;物流速递
116.211507,39.687782,景晟昂物流,107国道西夏场村村委会南50米,北京市,北京市,,生活服务;物流速递;物流速递
115.945419,39.670142,北京晶圭鑫货物运输有限公司,周口店大韩继北一区1栋2楼201-210,北京市,北京市,,生活服务;生活服务场所;生活服务场所
115.946900,39.663291,北京鼎尖世纪广通物流有限公司,周口店镇大韩继村北10平方15幢,北京市,北京市,,生活服务;物流速递;物流速递
116.193409,39.613984,军鸿腾达运输有限公司,009县道房山养老公寓斜对面,北京市,北京市,,生活服务;生活服务场所;生活服务场所
116.104530,39.718323,北京西南金港物流有限公司,阎村镇炒米店村北1号西南,北京市,北京市,,生活服务;物流速递;物流仓储场地
116.143279,39.724875,北京强利通物流,良乡镇拱辰南大街与昊天大街交叉口东北100米,北京市,北京市,良乡,生活服务;物流速递;物流速递
116.008938,39.672581,德邦快递,东瓜地村密林汽修对面大院,北京市,北京市,,生活服务;生活服务场所;生活服务场所
116.067394,39.661987,宇鑫物流,窦店镇瓦窑头村南,北京市,北京市,窦店,生活服务;物流速递;物流速递
116.225246,39.727165,德邦快递(长阳镇营业部),长阳镇阎仙垡小学公交站旁,北京市,北京市,,生活服务;物流速递;物流速递
116.213344,39.807311,菜鸟驿站(北京房山长龙苑店),长阳镇长龙苑北区南门东侧底商4号,北京市,北京市,,生活服务;物流速递;物流速递
116.073616,39.644179,百世快运,窦店路与京深路交叉路口西北侧(明峻嘉园),北京市,北京市,窦店,生活服务;物流速递;物流速递
115.988966,39.695082,优速快递,兴房大街26号,北京市,北京市,房山城关,生活服务;物流速递;物流速递
116.064943,39.689344,中通快运,X007(大窦路),北京市,北京市,,生活服务;物流速递;物流速递
116.037813,39.619366,百世快运,京深路(滨水雅园小区),北京市,北京市,,生活服务;物流速递;物流速递
116.120113,39.722918,中铁快运(房山区营业部),长虹西路佳世苑北区30号楼底商3号,北京市,北京市,,生活服务;物流速递;物流速递
116.114563,39.721416,嘉里大通物流,良乡镇长虹西路33号首发物流,北京市,北京市,,生活服务;物流速递;物流速递
115.933425,39.655992,德邦快递,新街村新泗路1号,北京市,北京市,,生活服务;物流速递;物流速递
116.004684,39.685309,北京盛辉运输有限公司,房窑路23号院内,北京市,北京市,房山城关,生活服务;生活服务场所;生活服务场所
116.113489,39.719754,天地华宇,良乡镇长虹西路33号首发物流院内3号库,北京市,北京市,,生活服务;物流速递;物流速递
116.112012,39.693702,金鑫物流,凯旋大街东50米,北京市,北京市,,生活服务;生活服务场所;生活服务场所
115.993853,39.656785,北京环球通图书物流有限公司石楼库,石楼镇工业区二街临21号,北京市,北京市,,生活服务;生活服务场所;生活服务场所
116.069275,39.756554,北京鑫龙圣运输有限公司,西庄户北路,北京市,北京市,,生活服务;生活服务场所;生活服务场所
116.026673,39.601389,新邦物流(秀水新村东),岳琉路与京深路交叉路口东南侧(秀水新村东北侧),北京市,北京市,,生活服务;物流速递;物流速递
116.137879,39.674219,北京永诚必达物流有限公司,G107(京深路),北京市,北京市,,生活服务;物流速递;物流速递
115.979439,39.685833,北京京诚优品配送中转站,城关街道永安路26号108,北京市,北京市,房山城关,生活服务;生活服务场所;生活服务场所
115.945788,39.739699,北京盛豪兵伟货物运输有限公司,燕山凤凰亭北里1号楼,北京市,北京市,燕山,生活服务;物流速递;物流速递
115.864834,39.562933,多点拼团提货站,房易路,北京市,北京市,,生活服务;物流速递;物流速递
116.116412,39.722287,美家风尚科技(北京)有限公司物流中心,良乡镇长虹西路33号首发物流中心5号库,北京市,北京市,,生活服务;物流速递;物流速递
116.050595,39.716601,蜀海供应链,阎富路1号-A268阎村工业园区,北京市,北京市,,生活服务;物流速递;物流速递
116.073386,39.679933,京华腾货运有限公司,于庄村,北京市,北京市,窦店,生活服务;生活服务场所;生活服务场所
116.200845,39.606282,北京金博通达货运有限公司,金帝国际高尔夫俱乐部东南(公韩路),北京市,北京市,,生活服务;生活服务场所;生活服务场所
116.193612,39.605970,北京永达物流货运仓储运输公司,贾河村,北京市,北京市,,生活服务;生活服务场所;生活服务场所
116.047717,39.715482,北京外红国际物流有限公司,阎村工业园阎富路1号-326,北京市,北京市,,生活服务;生活服务场所;生活服务场所
116.110071,39.786129,烁宇豪一次性餐盒批发配送中心,新世纪联华超市西北,北京市,北京市,,生活服务;物流速递;物流速递
116.065765,39.728307,东方寰亚货运公司,阎村镇吴庄公交车站西北侧,北京市,北京市,,生活服务;生活服务场所;生活服务场所
116.095313,39.683218,佳远利达运输,阎村镇紫码路,北京市,北京市,窦店,生活服务;生活服务场所;生活服务场所
116.018450,39.691703,北京市金和储运有限责任公司,瓜市村东,北京市,北京市,,生活服务;物流速递;物流速递
115.962055,39.750295,北京燕山祥都货物装卸服务有限公司,燕山石化燕化岗北路4号,北京市,北京市,燕山,生活服务;生活服务场所;生活服务场所
116.071905,39.724349,北京中起伟业吊装运输有限公司,小董村桥与阎河路交叉口东50米,北京市,北京市,,生活服务;物流速递;物流速递|公司企业;公司;公司
116.161552,39.728637,德邦快递,良乡东路56号阳光邑上,北京市,北京市,良乡,生活服务;物流速递;物流速递
116.063454,39.658741,德邦快递(北京市房山区窦店营业点),窦店镇田家园新村二区底商7号,北京市,北京市,窦店,生活服务;生活服务场所;生活服务场所
116.113053,39.719591,华宇物流北京总公司,良乡镇长虹西路33号首发物流园内3号库,北京市,北京市,,生活服务;物流速递;物流速递
116.347652,39.873870,中铁特货运输有限责任公司,南滨河路71-2中铁商务大厦,北京市,北京市,广安门,生活服务;物流速递;物流速递
116.378678,39.952501,中储粮储运公司,[],北京市,北京市,德胜门,生活服务;物流速递;物流速递
116.382163,39.939667,北京明顺货运搬家公司,弘善胡同乙1号,北京市,北京市,,生活服务;搬家公司;搬家公司
116.347137,39.873886,中铁集装箱运输有限责任公司(菜户营西街),鸭子桥路24号中铁商务大厦,北京市,北京市,广安门,生活服务;物流速递;物流速递
116.332227,39.882546,华润医药商业物流配送中心(马连道东街店),广安门外街道马连道东街17号,北京市,北京市,红莲,生活服务;物流速递;物流速递
116.389761,39.889357,平顺搬家货运,天桥街道万明路3号,北京市,北京市,天桥,生活服务;搬家公司;搬家公司
116.339321,39.909288,搬家货运,三里河南七巷32号楼,北京市,北京市,月坛,生活服务;生活服务场所;生活服务场所
116.348687,39.874838,北京好友搬家货运有限公司,广安门南滨河路73号2号门,北京市,北京市,菜户营,生活服务;搬家公司;搬家公司
116.330403,39.882017,蓝眉山茶叶配货中心,茶马东路与茶马北街交叉口西北50米,北京市,北京市,广安门,生活服务;生活服务场所;生活服务场所
116.348355,39.881727,商维国际货运代理公司,南滨河路27号院7贵都国际中心A座7层709室,北京市,北京市,广安门,生活服务;物流速递;物流速递
116.367431,39.934739,万家康物流,大觉胡同16号,北京市,北京市,西直门,生活服务;物流速递;物流速递
116.342201,39.937057,金旺源物流,西直门外南路22附近,北京市,北京市,动物园,生活服务;物流速递;物流速递
116.328093,39.894775,京铁物流,建工大厦附近,北京市,北京市,太平桥,生活服务;物流速递;物流速递
116.346087,39.917505,中储粮物流有限公司,月坛街道月坛北街26号恒华国际商务中心D座4楼,北京市,北京市,月坛,生活服务;物流速递;物流速递
116.358957,39.900631,中国邮政速递物流,西城宣武门西大街131号,北京市,北京市,复兴门,生活服务;邮局;邮政速递
116.330170,39.881987,德邦快递(茶马东路店),[],北京市,北京市,红莲,生活服务;物流速递;物流速递
116.348249,39.882953,中铁现代物流科技股份有限公司,椿树馆街与西二环交叉路口西南侧(金工宏洋大厦),北京市,北京市,广安门,生活服务;生活服务场所;生活服务场所
116.370522,39.883145,安迅物流,盆儿胡同甲1附近,北京市,北京市,白纸坊,生活服务;物流速递;物流速递
116.329937,39.882495,三元及递(太平桥配送中心),茶马北街1号院5号楼东南80米,北京市,北京市,广安门,生活服务;物流速递;物流速递
116.394374,39.887162,速递物流大院,永安路121号,北京市,北京市,珠市口,生活服务;生活服务场所;生活服务场所
116.377815,39.884559,德邦物流(陶然亭店),菜市口大街6号院3-12号,北京市,北京市,,生活服务;物流速递;物流速递
116.347021,39.874571,中铁快运(北京白纸坊营业部),南滨河路71-2中铁商务大厦,北京市,北京市,广安门,生活服务;物流速递;物流速递
116.325917,39.895868,中铁快运北京西站营业部托运处,莲花池东路,北京市,北京市,太平桥,生活服务;物流速递;物流速递
116.350526,39.810601,瀛海世纪物流,汉龙物流园,北京市,北京市,新发地,生活服务;物流速递;物流速递
116.349769,39.813603,三晋物流,新发地汉龙南站中区6号,北京市,北京市,新发地,生活服务;物流速递;物流速递
116.347015,39.811736,北京京利达物流有限公司,京开路汉龙南站大户型1号,北京市,北京市,新发地,生活服务;物流速递;物流速递
116.238680,39.850967,北京祥龙物流有限公司大件运输分公司,西道口站刘庄子路,北京市,北京市,,生活服务;物流速递;物流速递
116.315770,39.790696,福运通汽车运输有限公司,花乡高立庄636号花香国际家居南门,北京市,北京市,,生活服务;物流速递;物流速递
116.325327,39.834080,金海长恒物流有限公司,新房子村166号,北京市,北京市,,生活服务;物流速递;物流速递
116.348074,39.810761,神速威远物流,新发地汉龙南站南b区9号,北京市,北京市,新发地,生活服务;物流速递;物流速递
116.350780,39.812270,广隆昌物流,新发地汉龙货运中心北二门左转33号,北京市,北京市,新发地,生活服务;物流速递;物流速递
116.379005,39.830094,北京大红门物流基地,马家堡路,北京市,北京市,大红门,生活服务;物流速递;物流速递
116.128471,39.833503,航天二院物流基地,王佐镇沙锅村路北350米,北京市,北京市,,生活服务;生活服务场所;生活服务场所
116.349222,39.813053,鑫京沈物流,花乡新发地汉龙南站物流中区2号,北京市,北京市,新发地,生活服务;物流速递;物流速递
116.251530,39.851664,北京外运陆运公司(丰台西路),丰台西路259号南门附近,北京市,北京市,,生活服务;物流速递;物流速递
116.347032,39.872888,中铁特货运输有限责任公司市场开发部,天伦北里8楼,北京市,北京市,广安门,生活服务;物流速递;物流速递
116.205160,39.847426,北京二七宏业汽车运输有限公司,杜家坎乙7号,北京市,北京市,长辛店,生活服务;物流速递;物流速递
116.261514,39.821165,北京龙盛丰物流中心,永合庄16号院,北京市,北京市,,生活服务;物流速递;物流速递
116.431637,39.859151,百福运通国际货运代理有限公司,芳群园四区22号金城中心1101室,北京市,北京市,方庄,生活服务;物流速递;物流速递
116.348558,39.809849,鑫江发物流,右安门街道新发地汉龙南站南B区22号,北京市,北京市,新发地,生活服务;物流速递;物流速递
116.348330,39.808660,先迅达物流,新发地汉龙南站南C区65号,北京市,北京市,新发地,生活服务;物流速递;物流速递
116.247143,39.830811,丰西创达钢材物流中心,卢沟桥晓月西路7号,北京市,北京市,,生活服务;物流速递;物流速递
116.257699,39.879884,民祥水暖阀门仓储物流(双林东路),小屯双林东路1号,北京市,北京市,,生活服务;物流速递;物流速递
116.260443,39.850220,京西物流仓储服务中心,丰台西路41号,北京市,北京市,,生活服务;物流速递;物流仓储场地
116.193004,39.827741,北京二七长铁运输有限责任公司,长辛店光明里75号201室,北京市,北京市,长辛店,生活服务;物流速递;物流速递
116.255646,39.831488,北京西南兆隆物流有限公司,花乡榆树庄段庄116号北京西南,北京市,北京市,,生活服务;物流速递;物流速递
116.344271,39.821163,亿通空车配货,京开路中国农产品市场协会附近,北京市,北京市,新发地,生活服务;物流速递;物流速递
116.284773,39.820835,中特物流,南四环西路188号十二区36,北京市,北京市,,生活服务;物流速递;物流速递
116.350359,39.810175,冀邮物流,汉龙物流园南C区37号,北京市,北京市,新发地,生活服务;物流速递;物流速递
116.305251,39.878077,富磊刚物流公司(7号货站),西局西路保利百合花园58-6号,北京市,北京市,,生活服务;物流速递;物流速递
116.347228,39.813217,北京泽翰通达物流有限公司,花乡新发地汉龙南站8号,北京市,北京市,新发地,生活服务;物流速递;物流速递
116.347192,39.812874,内蒙古远征物流有限责任公司,汉龙南站大户型5号,北京市,北京市,新发地,生活服务;物流速递;物流速递
116.182237,39.805048,北京安能卓创货运代理有限公司,[],北京市,北京市,,生活服务;物流速递;物流速递
116.182622,39.838674,北京一路行货运有限公司,长兴路2号,北京市,北京市,长辛店,生活服务;物流速递;物流速递
116.379562,39.827864,大红门货运站,马家堡路北50米,北京市,北京市,大红门,生活服务;物流速递;物流速递
116.347071,39.809395,北京新发地菜篮子物流配送有限公司,花乡乡京良路新发地桥东,北京市,北京市,新发地,生活服务;物流速递;物流速递
116.202410,39.801068,京粮物流,长辛店镇赵辛店964号,北京市,北京市,,生活服务;物流速递;物流速递
116.430310,39.858860,北京捷尔国际货运代理有限公司,方庄芳群园四区21号楼中北投资大厦126-128室,北京市,北京市,方庄,生活服务;生活服务场所;生活服务场所
116.326515,39.840757,瑞福物流有限公司,纪家庙168号,北京市,北京市,纪家庙村,生活服务;物流速递;物流速递
116.230639,39.845334,北京通盛伦货运有限公司,卢沟桥南里甲1号,北京市,北京市,,生活服务;物流速递;物流速递
116.350082,39.809683,德邦物流(新发地营业部),新发地汉龙南站货运中心南区B7号,北京市,北京市,新发地,生活服务;物流速递;物流速递
116.282794,39.822964,中铁特货大件运输有限责任公司,南四环西路188号七区24,北京市,北京市,科技园区,生活服务;物流速递;物流速递
116.235839,39.848742,中通快递丰台看丹中通,东关南侧一号院,北京市,北京市,,生活服务;物流速递;物流速递
116.165935,39.853315,德邦快递园博园经营分部,白草洼村302号,北京市,北京市,,生活服务;物流速递;物流速递
116.316276,39.855661,天地华宇,西国贸汽配城东门恒福街路南,北京市,北京市,,生活服务;物流速递;物流速递
116.348480,39.809566,长通物流,花乡乡新发地汉龙货运中心南站C区45号,北京市,北京市,新发地,生活服务;物流速递;物流速递
116.348466,39.813038,中通快递南苑分部,海子公园南门对面,北京市,北京市,新发地,生活服务;物流速递;物流速递
116.349798,39.810074,安能物流(新发地营业部),汉龙货运中心南C28,北京市,北京市,新发地,生活服务;物流速递;物流速递
116.348436,39.811400,北京福运腾达物流有限公司,新发地汉龙南站F区41号,北京市,北京市,新发地,生活服务;物流速递;物流速递
116.348266,39.808126,北京城市之星建生物流有限公司丰台分公司,太平桥街道新发地汉龙南站南区C81号,北京市,北京市,新发地,生活服务;物流速递;物流速递
116.342253,39.844204,北京门顺达锁具配送中心(玉泉营店),玉泉营建材装饰市场南5厅12号,北京市,北京市,,生活服务;物流速递;物流速递
116.325210,39.893697,北京铁路局行包快运中心,广莲路7号,北京市,北京市,太平桥,生活服务;物流速递;物流速递
116.302291,39.827112,中世运(北京)国际物流有限公司,汽车博物馆东路1号院诺德中心二期5号楼12层,北京市,北京市,科技园区,生活服务;物流速递;物流速递
116.348354,39.809193,天意通快运,汉龙货运中心南B区17-1号,北京市,北京市,新发地,生活服务;物流速递;物流速递
116.399028,39.843962,北京胜日通达物流中心,溢云居宾馆24号院内,北京市,北京市,大红门,生活服务;物流速递;物流速递
116.346264,39.811108,鑫德隆物流,新发地汉龙南站558号,北京市,北京市,新发地,生活服务;物流速递;物流速递
116.335200,39.813569,新发地新达物流中心,新发地9号,北京市,北京市,新发地,生活服务;物流速递;物流速递
116.253653,39.859032,北京外运陆运有限公司(五里店),丰台西路五里店259号,北京市,北京市,,生活服务;物流速递;物流速递
116.327049,39.828146,北京翔龙合力搬家物流有限公司,花乡乡南四环丰台南路,北京市,北京市,,生活服务;搬家公司;搬家公司
116.339534,39.807362,京宏成运空车配货,京良路与黄陈路交叉口西北200米,北京市,北京市,新发地,生活服务;物流速递;物流速递
116.152058,39.859500,北京恒源亿丰仓储有限公司第六货运物流仓储基地,大灰厂东路甲22号附近,北京市,北京市,,生活服务;物流速递;物流仓储场地
116.311779,39.786037,花卉运输,京良路东200米盛芳国际花卉市场院内停车场,北京市,北京市,,生活服务;物流速递;物流速递
116.295711,39.796080,北京鹏旺鑫源配送中心,[],北京市,北京市,,生活服务;物流速递;物流速递
116.349158,39.809551,新石田储运,汉龙货运中心南区B4号,北京市,北京市,新发地,生活服务;物流速递;物流速递
116.348984,39.808968,北京展亿翔物流有限公司,汉龙货运中心南B区24号,北京市,北京市,新发地,生活服务;物流速递;物流速递
116.349006,39.809858,北京鑫展望物流有限公司,汉龙南站南B区3号,北京市,北京市,新发地,生活服务;物流速递;物流速递
116.303053,39.795162,滴滴货运,新华国际中心c座502,北京市,北京市,,生活服务;物流速递;物流速递
116.183962,39.832123,北京立木运输有限公司,[],北京市,北京市,长辛店,生活服务;物流速递;物流速递
116.419776,39.795744,北京市发利达货物运输有限责任公司,东高地梅园西门44栋211层,北京市,北京市,南苑,生活服务;物流速递;物流速递
116.350864,39.812487,洪城物流,新发地汉龙货运中心北区东排37-38号,北京市,北京市,新发地,生活服务;物流速递;物流速递
116.313326,39.792805,远洋骏达物流有限公司,高鑫家园东100米上海大众库,北京市,北京市,,生活服务;物流速递;物流速递
116.350597,39.811128,亿帮物流,京开高速(北京新发地汉龙货运中心),北京市,北京市,新发地,生活服务;物流速递;物流速递
116.348766,39.808542,北京焕睿达物流有限公司,汉龙南站南B区25号,北京市,北京市,新发地,生活服务;物流速递;物流速递
116.350919,39.812779,吉安腾达物流,汉龙北区46号,北京市,北京市,新发地,生活服务;物流速递;物流速递
116.350584,39.810556,北京中盛凯亚货运公司,"京开辅路东200米,汉龙货运中心,精品6号",北京市,北京市,新发地,生活服务;物流速递;物流速递
116.347350,39.813080,宝利丰物流,北京丰台区新发地汉龙物流园大户型七号院,北京市,北京市,新发地,生活服务;物流速递;物流速递
116.311130,39.829565,广东顺速高铁物流有限公司北京铁路运输分公司,东旭国际中心C座2层212,北京市,北京市,,生活服务;物流速递;物流速递
116.293796,39.869899,北京迎春物流有限公司,万丰路300号2号楼B座615室,北京市,北京市,七里庄,生活服务;物流速递;物流速递
116.313181,39.792112,北京京顺宝物流有限公司,高鑫家园东一百米上海大众库,北京市,北京市,,生活服务;物流速递;物流速递
116.348778,39.808353,庆隆物流,花乡乡新发地汉龙货运中心南B区二十六号,北京市,北京市,新发地,生活服务;物流速递;物流速递
116.348473,39.809484,京彭城物流,汉龙物流园南C区48号,北京市,北京市,新发地,生活服务;物流速递;物流速递
116.350731,39.811922,盛利达物流,新发地汉龙货运中心27号,北京市,北京市,新发地,生活服务;物流速递;物流速递
116.360414,39.850398,北京首农物流有限公司,草桥东路2号农供应链管理有限公司,北京市,北京市,草桥,生活服务;物流速递;物流速递
116.348435,39.811372,北京鼎鑫速达物流有限公司,新发地汉龙物流中心F区43号,北京市,北京市,新发地,生活服务;物流速递;物流速递
116.348416,39.811574,鑫熹伟晔物流,新发地汉龙货运中心南站F区37号,北京市,北京市,新发地,生活服务;物流速递;物流速递
116.348038,39.810008,瑞诺世纪物流,新发地村汉龙货运南站南b区13号,北京市,北京市,新发地,生活服务;物流速递;物流速递
116.350960,39.813184,汉龙货运服务中心,南苑街道新发地,北京市,北京市,新发地,生活服务;生活服务场所;生活服务场所
116.349219,39.813320,明达通业物流,卢球路鹅房村奥肯尼农行大牌坊左堤路南北畅通物流园内,北京市,北京市,新发地,生活服务;物流速递;物流速递
116.349090,39.812976,富利达物流,新发地汉龙南站中区3号,北京市,北京市,新发地,生活服务;物流速递;物流速递
116.348901,39.811844,大德物流,京开高速(北京新发地汉龙货运中心),北京市,北京市,新发地,生活服务;物流速递;物流速递
116.349605,39.813614,双利华辉物流,汉龙南站北区74号,北京市,北京市,新发地,生活服务;物流速递;物流速递
116.348687,39.812251,铭岳物流,花乡新发地汉龙南站中区7号,北京市,北京市,新发地,生活服务;物流速递;物流速递
116.348974,39.810119,北京御顺物流有限公司,新发地汉龙南站南C14号,北京市,北京市,新发地,生活服务;物流速递;物流速递
116.347042,39.811971,丰通达物流,新发地汉龙南站2号,北京市,北京市,新发地,生活服务;物流速递;物流速递
116.347086,39.812249,大庆北方物流,汉龙南站大户型3号,北京市,北京市,新发地,生活服务;物流速递;物流速递
116.436849,39.868420,北京鹤鸣搬家货运公司,芳城园3区5号楼,北京市,北京市,方庄,生活服务;搬家公司;搬家公司
116.294528,39.87791,新国线运输集团有限公司,卢沟桥广安路316号,北京市,北京市,,生活服务;物流速递;物流速递
116.399026,39.843807,泓源林物流中心,临泓路6号院西排37号铺,北京市,北京市,马家堡村,生活服务;物流速递;物流速递
116.436280,39.856714,北京金旅翼物流有限公司,南方庄1号院2号安富大厦1808,北京市,北京市,成寿寺社区,生活服务;物流速递;物流速递
116.436280,39.856714,毓柏双华国际运输服务有限公司,南方庄1号院2号安富大厦1006,北京市,北京市,成寿寺社区,生活服务;物流速递;物流速递
116.347852,39.813291,京广物流有限公司,新发地汉龙南站东区b区1号,北京市,北京市,新发地,生活服务;物流速递;物流速递
116.255838,39.831459,西南物流中心冷链事业部,段庄116号,北京市,北京市,,生活服务;物流速递;物流速递
116.260165,39.846179,北京西南物流中心东区,花乡刘庄子路(雨馨超市右侧胡同),北京市,北京市,,生活服务;物流速递;物流速递
116.340405,39.850974,北京双宇冷链物流,南三环西路85号院c座商务楼,北京市,北京市,,生活服务;物流速递;物流速递
116.340081,39.850913,西南郊冷冻厂物流配送,东方友谊商务楼,北京市,北京市,,生活服务;物流速递;物流速递
116.281315,39.832182,中铁快运股份有限公司(中核路),丰台科技园中核路9号,北京市,北京市,科技园区,生活服务;物流速递;物流速递
116.251792,39.877834,北京安路通托运有限责任公司,小屯路89号航天标准大厦11层,北京市,北京市,,生活服务;物流速递;物流速递
116.257681,39.833840,北京西南物流中心有限公司,花乡乡段庄86号西南物流中心南区,北京市,北京市,,生活服务;物流速递;物流速递
116.281271,39.875766,欧可铭电工北京物流中心,丰台路口甲215号万隆汇洋灯具灯饰时代北广场1927号,北京市,北京市,岳各庄,生活服务;物流速递;物流速递
116.250687,39.844906,西南物流西2区,西洪太庄169号,北京市,北京市,,生活服务;物流速递;物流速递
116.325033,39.893706,中铁快运股份有限公司北京分公司,北京西站南广场广莲路7号,北京市,北京市,太平桥,生活服务;物流速递;物流速递
116.331093,39.813218,大百鲜物流,花乡乡新发地北水嘉伦B厅,北京市,北京市,新发地,生活服务;物流速递;物流速递
116.409318,39.845478,中国邮政速递物流,大红门南顶村甲41号,北京市,北京市,大红门,生活服务;邮局;邮政速递|生活服务;物流速递;物流仓储场地
116.249760,39.844900,西南物流西二区仓库,洪泰庄169号,北京市,北京市,,生活服务;物流速递;物流速递
116.306331,39.878803,行包托运,西局西路58号,北京市,北京市,,生活服务;物流速递;物流速递
116.379394,39.830344,北京货运中心,南四环中路130号,北京市,北京市,南苑,生活服务;物流速递;物流速递
116.426985,39.858798,万龙振华国际物流公司,南三环东路23号1号楼天创盛方中心8层中段,北京市,北京市,方庄,生活服务;物流速递;物流速递
116.289302,39.823862,中国物流股份有限公司,南四环西路188号总部基地6区17号楼A座9至12层,北京市,北京市,科技园区,生活服务;生活服务场所;生活服务场所
116.335927,39.802182,九龙辉峰商贸有限公司,西红门总工会兴旺大街1号往东30米路北,北京市,北京市,西红门,生活服务;物流速递;物流速递
116.282309,39.868882,祥龙物流,西四环南路48号,北京市,北京市,,生活服务;物流速递;物流速递
116.313550,39.817930,恒安金创货运代理有限公司,樊羊路69号附近,北京市,北京市,,生活服务;物流速递;物流速递
116.249839,39.840383,北京西南物流中心,人民村68号,北京市,北京市,,生活服务;物流速递;物流速递
116.145265,39.817556,北京星航机电装备有限公司,云岗东王佐北路9号,北京市,北京市,,生活服务;生活服务场所;生活服务场所
116.207029,39.828456,京津冀货物快运办理站(长辛店站),教堂胡同与长辛店大街交叉口西150米,北京市,北京市,长辛店,生活服务;物流速递;物流速递
116.260903,39.829519,北京西南物流中心南1区,民村路科技节能附近,北京市,北京市,,生活服务;物流速递;物流速递
116.257766,39.833490,北京西南物流中心南区,段庄86号,北京市,北京市,,生活服务;物流速递;物流速递
116.348219,39.811527,北京汉龙物流,京开路,北京市,北京市,新发地,生活服务;物流速递;物流速递
116.362034,39.843297,三元及递草桥配送中心,北京市丰台区春季星空一号楼东北角三元及递底商,北京市,北京市,草桥,购物服务;综合市场;农副产品市场|生活服务;物流速递;物流速递
116.348207,39.835195,北京固废物流有限公司,新村街道草桥赵村店420号,北京市,北京市,草桥,生活服务;物流速递;物流速递
116.375931,39.840542,万家康物流,角门13号院一号楼外平房,北京市,北京市,角门,生活服务;物流速递;物流速递
116.231723,39.844103,北京宇通八方道路运输有限公司,卢沟桥南里甲2号院3号楼4层416室,北京市,北京市,,生活服务;物流速递;物流速递
116.171711,39.860187,中通快运,大灰厂东路(槐树岭4号院),北京市,北京市,,生活服务;物流速递;物流速递
116.420577,39.842864,德邦快递,南顶路与榴乡路交叉路口往西北约200米,北京市,北京市,大红门,生活服务;物流速递;物流速递
116.247550,39.848259,安能物流(丰台南五里店),刘庄子路(北京宏程顺达仓储有限公司东南侧),北京市,北京市,,生活服务;物流速递;物流速递
116.239745,39.870249,德邦快递卢沟桥营业部,卢沟桥乡新丰路88号巴厘岛公寓院内,北京市,北京市,,生活服务;物流速递;物流速递
116.351161,39.853545,德邦快递,西铁营西路(中汇国际文创园D座),北京市,北京市,,生活服务;物流速递;物流速递
116.402692,39.857734,北京中铁快运有限公司(南三环分公司),西木樨园7号楼,北京市,北京市,木樨园,生活服务;生活服务场所;生活服务场所
116.325042,39.893716,中铁快运北京西站南托运厅,广莲路7号中铁快运,北京市,北京市,太平桥,生活服务;物流速递;物流速递
116.325686,39.895953,中铁快运(北京西站营业部),莲花池东路118号,北京市,北京市,太平桥,生活服务;物流速递;物流速递
116.349679,39.809723,盛辉物流集团,京开高速(北京新发地汉龙货运中心),北京市,北京市,新发地,生活服务;物流速递;物流速递
116.399273,39.812013,北京巨辰物流有限公司,嘉禾庄路1号,北京市,北京市,南苑,生活服务;物流速递;物流速递
116.301017,39.825730,北京金冠方舟纸业物流有限公司,花乡乡四环西路126号诺德中心二期11号楼36层,北京市,北京市,科技园区,生活服务;物流速递;物流速递
116.400158,39.837465,原龙河物流,南苑路与大红门西路交叉口西北100米,北京市,北京市,马家堡村,生活服务;物流速递;物流速递
116.389595,39.823425,北京锦荣货运有限公司,通久路北50米,北京市,北京市,南苑,生活服务;物流速递;物流速递
116.347806,39.810939,汉龙货运中心南站,京开高速与新发地桥交叉口东南100米,北京市,北京市,新发地,生活服务;物流速递;物流速递
116.350673,39.819594,北京日月顺通物流,新发地海子公园停车场办公室23号,北京市,北京市,南苑,生活服务;物流速递;物流速递
116.363685,39.850127,格格货站,北甲地路6号院玺萌丽苑,北京市,北京市,马家堡村,生活服务;物流速递;物流速递
116.347087,39.872881,中铁特货汽车物流有限责任公司(菜户营西街店),太平桥街道菜户营桥北天伦北里8号楼,北京市,北京市,太平桥,生活服务;物流速递;物流速递
116.260681,39.850294,宏兴中发物流公司,卢沟桥街道丰台西路程庄子85号京西物流中心,北京市,北京市,,生活服务;物流速递;物流速递
116.342999,39.814864,北京新发地国际绿色物流区,新发地桥北京开辅路,北京市,北京市,新发地,生活服务;物流速递;物流速递
116.286164,39.805013,德邦快递(芦花路店),芦花路欣葆家园一区底商A-09号,北京市,北京市,,生活服务;物流速递;物流速递
116.180392,39.803939,德邦(北京丰台区云岗路快递分部),云岗镇云岗路199号,北京市,北京市,,生活服务;物流速递;物流速递
116.348760,39.811796,汉龙货运中心南站东排,花乡乡汉龙南站558号北京新发地汉龙货运中心汉龙货运中心南站东排,北京市,北京市,新发地,生活服务;物流速递;物流速递
116.311771,39.821016,天地华宇,樊羊路69号2-378,北京市,北京市,,生活服务;物流速递;物流速递
116.289347,39.823843,中散集物流有限公司(北京办公室),南四环西路188号6区17号楼A座4层,北京市,北京市,科技园区,生活服务;物流速递;物流速递
116.289228,39.824273,北京诚通物流有限公司,南四环西路188号总部基地六区17号楼中国诚通大厦A座,北京市,北京市,科技园区,生活服务;物流速递;物流速递
116.347867,39.809142,胜隆物流,京开高速与京良路交叉路口往东约200米,北京市,北京市,新发地,生活服务;物流速递;物流速递
116.348030,39.810243,新速物流,新发地汉龙货运中心南B区12号,北京市,北京市,新发地,生活服务;物流速递;物流速递
116.464626,39.856056,中铁物流集团,吕营大街(北京市朝阳区三环肿瘤医院东南侧约50米),北京市,北京市,十八里店,生活服务;物流速递;物流速递
116.330076,39.836403,小胖熊物流配送中心-南库,火车头企业园45号院4库-7,北京市,北京市,,生活服务;生活服务场所;生活服务场所
116.270106,39.820088,振四海物流永合庄3号,看杨路(北京市丰台区永河庄骨灰堂),北京市,北京市,,生活服务;物流速递;物流速递
116.350868,39.812608,赋兴腾达物流,京开高速(北京新发地汉龙货运中心),北京市,北京市,新发地,生活服务;物流速递;物流速递
116.351319,39.812493,华宇配货站,新宫商业二街,北京市,北京市,新发地,生活服务;物流速递;物流速递
116.319062,39.784035,北京小车物流有限公司,宏康路,北京市,北京市,,生活服务;物流速递;物流速递
116.348978,39.810977,北京新发地汉龙货运,[],北京市,北京市,新发地,生活服务;物流速递;物流速递
116.347292,39.809798,好运来物流有限公司,京开高速与京良路交叉路口往东北约200米,北京市,北京市,新发地,生活服务;物流速递;物流速递
116.351004,39.813016,新昌物流,新宫商业二街,北京市,北京市,新发地,生活服务;物流速递;物流速递
116.348020,39.810360,北京冀中运输有限公司,新发地汉龙市场南B区11号,北京市,北京市,新发地,生活服务;物流速递;物流速递
116.350399,39.813597,恒达李博物流北京分公司,京开高速(北京新发地汉龙货运中心),北京市,北京市,,生活服务;物流速递;物流速递
116.331161,39.802560,天镇县绿泽园配送中心,京良路(北京新发地国际名酒城),北京市,北京市,,生活服务;物流速递;物流速递
116.405386,39.849940,泓泰物资配送中心,大红门路28东90米,北京市,北京市,大红门,生活服务;物流速递;物流速递
116.348420,39.808999,京北物流,新发地汉龙物流园南区C55号,北京市,北京市,新发地,生活服务;物流速递;物流速递
116.314558,39.794006,辽运通轿车托运物流北京花乡营业部,樊羊路588号老车易拍院内,北京市,北京市,,生活服务;生活服务场所;生活服务场所
116.351855,39.822648,铭诚物流(丰台区新发地总部),南苑西路铁道西边路北,北京市,北京市,南苑,生活服务;物流速递;物流速递
116.282870,39.879535,中国-以色列(酒泉)绿色生态产业园戈壁产品配送中心,[],北京市,北京市,岳各庄,生活服务;物流速递;物流速递
116.347283,39.812901,鑫秋阳物流,京开高速(北京新发地汉龙货运中心),北京市,北京市,新发地,生活服务;物流速递;物流速递
116.350937,39.812820,北京鸿利发物流有限公司,新发地汉龙物流北区10号,北京市,北京市,新发地,生活服务;物流速递;物流速递
116.350706,39.811689,恒昌亿达物流山西专线,京开高速(北京新发地汉龙货运中心),北京市,北京市,新发地,生活服务;物流速递;物流速递
116.351004,39.812995,鑫静旭物流,新宫商业二街,北京市,北京市,新发地,生活服务;物流速递;物流速递
116.278479,39.880142,疆域情食品配送中心,梅市口东路与西四环中路交叉路口往东约150米,北京市,北京市,岳各庄,生活服务;物流速递;物流速递
116.349696,39.813651,鑫石田物流,京开高速(北京新发地汉龙货运中心),北京市,北京市,新发地,生活服务;物流速递;物流速递
116.350419,39.828975,优途管家物流有限公司,新发地二手车老旧机动车南部中心,北京市,北京市,,生活服务;物流速递;物流速递
116.395887,39.822234,万泽龙快递(西门),久敬庄,北京市,北京市,南苑,生活服务;物流速递;物流速递
116.312802,39.855380,博达物流,卢沟桥西三环丰益桥西国贸汽配城A3楼院内,北京市,北京市,,生活服务;物流速递;物流速递
116.347976,39.809835,金运桥物流,京开高速(北京新发地汉龙货运中心),北京市,北京市,新发地,生活服务;物流速递;物流速递
116.350904,39.812456,南昌龙岩专线物流,新发地汉龙货运中心北区东排39号,北京市,北京市,新发地,生活服务;物流速递;物流速递
116.264265,39.891978,北京急吉货运代理中心,大成里秀园2号楼1层0114室,北京市,北京市,青塔,生活服务;物流速递;物流速递
116.350733,39.811834,四海佳讯物流,京开高速(北京新发地汉龙货运中心),北京市,北京市,新发地,生活服务;物流速递;物流速递
116.337383,39.802483,北京福源超市物流配送中心,欣荣北大街(新发地果品批发市场),北京市,北京市,西红门,生活服务;物流速递;物流速递
116.350832,39.812332,神飞亿物流,京开高速(北京新发地汉龙货运中心),北京市,北京市,新发地,生活服务;物流速递;物流速递
116.348912,39.811933,乐盛物流,新发地汉龙物流F区18号,北京市,北京市,新发地,生活服务;物流速递;物流速递
116.332926,39.802531,北京集采配送中心,京良路与宏都路交叉路口往西北约100米,北京市,北京市,,生活服务;物流速递;物流速递
116.347247,39.812237,凯瑞通物流,新发地汉龙南站二门北区70号,北京市,北京市,新发地,生活服务;物流速递;物流速递
116.347868,39.813479,华福物流汉龙营业部,丰台区新发地汉龙物流园北一门精品一号院华福,北京市,北京市,新发地,生活服务;物流速递;物流速递
116.443880,39.871264,北京亿丰轿车托运公司,龙潭东路9号,北京市,北京市,左安门,生活服务;生活服务场所;生活服务场所
116.292573,39.802242,北京乐信韵达货运代理有限公司,葆台东路(大溪地2区东南侧约150米),北京市,北京市,,生活服务;物流速递;物流速递
116.414252,39.859949,三元及递赵公口配送中心,定安路1号附近,北京市,北京市,刘家窑,生活服务;物流速递;物流速递
116.309113,39.848315,养乐多配送中心,商业街与桥安路交叉路口往西约100米,北京市,北京市,,生活服务;物流速递;物流速递
116.327851,39.801157,美味加仓储物流中心,京良路与黄陈路交汇处新发地菌菇交易区(新发地派出所南500米),北京市,北京市,,生活服务;物流速递;物流速递
116.294565,39.808296,汇鑫通汽车物流,花乡乡郭公庄路1198号,北京市,北京市,,生活服务;物流速递;物流速递
116.350814,39.812263,远大物流,京开高速(北京新发地汉龙货运中心),北京市,北京市,新发地,生活服务;物流速递;物流速递
116.347985,39.813090,增志物流(福运来)运输有限公司,南四环汉龙货运中心南区C30号,北京市,北京市,新发地,生活服务;物流速递;物流速递
116.348643,39.810148,北京鑫天明货物运输公司,京开高速(北京新发地汉龙货运中心),北京市,北京市,新发地,生活服务;物流速递;物流速递
116.339428,39.821459,全顺空车配货,黄陈路与丰台南路交叉路口往西南约150米,北京市,北京市,新发地,生活服务;物流速递;物流速递
116.337993,39.819706,漳州佰达物流有限公司,银地东路与六圈路交叉路口往东南约200米,北京市,北京市,,生活服务;物流速递;物流速递
116.347679,39.810932,北京鑫亿隆物流有限公司,花乡乡新发地汉龙货运中心鑫德隆院内东边,北京市,北京市,新发地,生活服务;物流速递;物流速递
116.193934,39.801330,壹米滴答,S317(周口店路),北京市,北京市,长辛店,生活服务;物流速递;物流速递
116.240798,39.848556,北京盛和安业物流有限公司,刘庄子路,北京市,北京市,,生活服务;物流速递;物流速递
116.255327,39.854022,北京通用易达科技有限公司物流中心,五里店259号东区17号库,北京市,北京市,,生活服务;物流速递;物流速递
116.344148,39.820350,安顺达货运部,京开高速与南苑西路交叉路口往西南约200米,北京市,北京市,新发地,生活服务;物流速递;物流速递
116.320192,39.874293,中铁鑫豪宠物托运公司,北京西路东局甲8号,北京市,北京市,太平桥,生活服务;物流速递;物流速递
116.338013,39.810556,哈尔滨天睿物流有限公司,黄陈路(北京新发地农产品批发市场),北京市,北京市,新发地,生活服务;物流速递;物流速递
116.348895,39.811919,北京馨海佳运物流有限公司,京开高速(北京新发地汉龙货运中心),北京市,北京市,新发地,生活服务;物流速递;物流速递
116.315276,39.856428,七配物流,丰管路16号院1号楼-a1-1031号、a1-1附近,北京市,北京市,,生活服务;物流速递;物流速递
116.396645,39.850228,云裳物流,珠江骏景南区东路6号,北京市,北京市,木樨园,生活服务;物流速递;物流速递
116.348495,39.811942,北京乾坤通达物流有限公司,新发地汉龙货运中心f区20号,北京市,北京市,新发地,生活服务;物流速递;物流速递
116.349444,39.810019,北京华通伟业物流有限公司,汉龙物流园南C区23号,北京市,北京市,新发地,生活服务;物流速递;物流速递
116.332893,39.805024,金秋航果蔬配送中心,黄陈路国际名酒城北41号库房,北京市,北京市,新发地,生活服务;物流速递;物流速递
116.347426,39.813337,北京鑫阳腾达物流,花乡乡新发地汉龙货运中心8号,北京市,北京市,新发地,生活服务;物流速递;物流速递
116.344466,39.810617,北京新发地百宝源配送中心,新发地水果批发市场东五门海南厅背后15号门店,北京市,北京市,新发地,生活服务;物流速递;物流速递
116.349769,39.813603,金万城物流,京开高速(北京新发地汉龙货运中心),北京市,北京市,新发地,生活服务;生活服务场所;生活服务场所
116.349440,39.809989,北京日月行物流有限公司,京开辅路汉龙物流园南C区21号,北京市,北京市,新发地,生活服务;物流速递;物流速递
116.349805,39.809339,金鑫伟业物流公司,花乡乡新发地汉龙南站金星捷便物流11号,北京市,北京市,新发地,生活服务;物流速递;物流速递
116.347576,39.811674,诚运物流汉龙分公司,新发地汉龙货运中心院内,北京市,北京市,新发地,生活服务;生活服务场所;生活服务场所
116.327775,39.800798,北京首杨水果仓储物流中心,花乡乡新发地派出所往南走800米,北京市,北京市,,生活服务;生活服务场所;生活服务场所
116.348507,39.809425,北京赤兔物流有限公司,京开高速(北京新发地汉龙货运中心),北京市,北京市,新发地,生活服务;物流速递;物流速递
116.348950,39.809240,北京鑫江发货运代理有限公司,右安门街道新发地汉龙南站南B区22号,北京市,北京市,新发地,生活服务;生活服务场所;生活服务场所
116.347856,39.808721,万隆顺通物流(大兴分部),国道106汉龙货运中心南B区18号库房,北京市,北京市,新发地,生活服务;物流速递;物流速递
116.419658,39.841300,北京京深海洋货物运输有限公司,南顶路24号附近,北京市,北京市,大红门,生活服务;物流速递;物流速递
116.315651,39.856242,诚运物流,永福东路与恒福北街交叉路口西南侧(西国贸汽配城),北京市,北京市,,生活服务;物流速递;物流速递
116.350427,39.809378,北京吉祥顺通物流有限公司,新发地汉龙物流南B区8号对面,北京市,北京市,新发地,生活服务;生活服务场所;生活服务场所
116.396254,39.849416,北京派川宠物托运公司,京顺路火神营路口西500米白露雅园,北京市,北京市,马家堡村,生活服务;物流速递;物流速递
116.362747,39.810220,格格货站,新宫新宫家园南区,北京市,北京市,南苑,生活服务;物流速递;物流速递
116.349557,39.809278,金星捷便物流,花乡新发地汉龙南站,北京市,北京市,新发地,生活服务;物流速递;物流速递
116.348111,39.811011,君航物流公司,新发地汉龙货运中心(汉龙餐厅右拐第二家),北京市,北京市,新发地,生活服务;物流速递;物流速递
116.328003,39.874573,北京庆红诚达客货运输咨询公司,卫强校村118号万丰基业大厦A座101室,北京市,北京市,太平桥,生活服务;信息咨询中心;信息咨询中心
116.347248,39.812671,北京鑫巨龙物流有限公司,新发地汉龙南站北区大户型6号院,北京市,北京市,新发地,生活服务;物流速递;物流速递
116.347017,39.809839,北京金泰顺达物流有限公司,花乡新发地村汉龙南站鑫德隆后院23-24号,北京市,北京市,新发地,生活服务;物流速递;物流速递
116.348451,39.811386,君英达货运代理有限公司,新村街道北京汉龙南站货物运输基地,北京市,北京市,新发地,生活服务;生活服务场所;生活服务场所
116.348413,39.809298,北京舜源伟业物流有限公司,汉龙旅馆东70米(京开高速公路东),北京市,北京市,新发地,生活服务;物流速递;物流速递
116.349435,39.810082,北京市盛世嘉诚物流有限公司,新发地汉龙南站南区B3号,北京市,北京市,新发地,生活服务;物流速递;物流速递
116.371443,39.836719,物流世界,马家堡西路名流未来大厦7层,北京市,北京市,马家堡村,生活服务;物流速递;物流速递
116.336458,39.820597,北京京创基业食品配送中心,六圈路与黄陈路交叉口东南100米,北京市,北京市,新发地,生活服务;物流速递;物流速递
116.346976,39.811017,泰泽源物流(河南全境郑州专线),花乡新发地汉龙货运中心西门进门右侧鑫德隆院进门右侧2号,北京市,北京市,新发地,生活服务;生活服务场所;生活服务场所
116.350805,39.812173,北京长德物流有限公司,花乡新发地汉龙南站北二号门外东三号院,北京市,北京市,新发地,生活服务;物流速递;物流速递
116.348700,39.810564,东信泽物流,新发地汉龙南站京楚物流院内,北京市,北京市,新发地,生活服务;物流速递;物流速递
116.347025,39.872893,中铁特货运输有限责任公司审计和考核部,鸭子桥南里与鸭子桥路交叉路口往南约50米,北京市,北京市,广安门,生活服务;物流速递;物流速递
116.396972,39.847836,北京安路通物流,南苑路15号北京大红门服装商贸城后院一号,北京市,北京市,大红门,生活服务;物流速递;物流速递
116.342953,39.817709,太熟悉配送中心(山西农产品商城店),京开高速(新发地农产品批发市场),北京市,北京市,新发地,生活服务;物流速递;物流速递
116.350246,39.813554,北京宏鑫世纪物流有限公司(新发地汉龙南站),新发地汗龙南站北二门66号,北京市,北京市,新发地,生活服务;物流速递;物流速递
116.262093,39.824,北京市华联达储运服务中心,东老庄77号华联达储运有限公司,北京市,北京市,,生活服务;物流速递;物流速递
116.389400,39.863891,鸿讯物流(北京配送中心),西罗园北路14号院,北京市,北京市,西罗园,生活服务;物流速递;物流速递
116.262742,39.822856,北京西南物流中心南2区,东老庄108号,北京市,北京市,,生活服务;物流速递;物流速递
116.388413,39.835373,德邦,马家堡东路168号院海上海花园南侧,北京市,北京市,南苑,生活服务;物流速递;物流速递
116.434212,39.855048,德邦快递(东铁营桥营业部),成寿寺中路18号福臻家园1号楼108,北京市,北京市,成寿寺社区,生活服务;物流速递;物流速递
116.337707,39.856760,百世汇通(东管头街),万泉寺村梆子井168号腾退安置办公室旁,北京市,北京市,太平桥,生活服务;物流速递;物流速递
116.270846,39.883427,德邦快递(岳各庄北路店),岳各庄红星美凯龙北门西50米,北京市,北京市,岳各庄,生活服务;物流速递;物流速递
116.320369,39.846741,德邦(芳菲路),万芳园一区5号楼8单元1层9号,北京市,北京市,,生活服务;物流速递;物流速递
116.178863,39.819974,武汉三江华宇物流有限公司(北京杜家坎分公司),珠江御景小区底商27号楼27号,北京市,北京市,长辛店,生活服务;物流速递;物流速递
116.296992,39.807532,北京万象物流世界公园部,丰葆路262号,北京市,北京市,,生活服务;物流速递;物流速递
116.255558,39.850987,中外运北京物流中心,五里店259号,北京市,北京市,,生活服务;物流速递;物流速递
116.427681,39.856178,德邦物流,刘家窑嘉业大厦二期606室物流,北京市,北京市,宋家庄,生活服务;物流速递;物流速递
116.298734,39.809382,福兴顺物流中心(暂停营业),花乡郭公庄182号,北京市,北京市,,生活服务;物流速递;物流速递
116.348062,39.810612,广西贵州云南四川浙江(建设中),新发地汉龙物流南2门东侧附近,北京市,北京市,,生活服务;物流速递;物流速递
116.224421,39.953663,北京翔远通储运有限公司,四季青杏石口88号,北京市,北京市,香山,生活服务;物流速递;物流速递
116.230095,39.931373,老闫货运,锦绣大地批发市场附近,北京市,北京市,,生活服务;物流速递;物流速递
116.229156,39.93069,锦绣大地物流港,阜石路69号,北京市,北京市,,生活服务;物流速递;物流仓储场地
116.290386,40.079649,正时货运服务公司,泰川羽毛球馆南300米(7国道北),北京市,北京市,二拨子村,生活服务;物流速递;物流速递
116.206186,40.123524,恒远物流,沙阳路上庄东小营,北京市,北京市,,生活服务;物流速递;物流速递
116.202084,40.121764,海淀物流基地上庄义成物流园,沙阳路152号附近,北京市,北京市,,商务住宅;产业园区;产业园区|生活服务;物流速递;物流速递
116.331604,40.053919,天保隆货运服务公司,西三旗桥东南95栋办公楼,北京市,北京市,清河,生活服务;物流速递;物流速递
116.278307,40.026899,中国农业大学物流服务中心,圆明园西路2号中国农业大学西区,北京市,北京市,马连洼,生活服务;物流速递;物流速递
116.357592,39.986241,北京大学物流服务中心,花园路街道38号北京大学医学部北门,北京市,北京市,,生活服务;物流速递;物流速递
116.311432,39.960260,北京理工大学物流服务中心,中关村南大街5号北京理工大学内,北京市,北京市,,生活服务;物流速递;物流速递
116.332757,39.898428,铁运新世纪物流公司,北蜂窝2号中盛大厦3层315A,北京市,北京市,,生活服务;物流速递;物流速递
116.288532,40.015543,北京顺畅货运,小清河路肖家河塔桥公寓,北京市,北京市,马连洼,生活服务;物流速递;物流速递
116.264900,39.919009,圳峰货物储运公司,金沟河路5号821楼1层底商,北京市,北京市,,生活服务;物流速递;物流速递
116.272887,40.094795,扬子江药业集团北京海燕药业有限公司物流部,生命科学园西路14号附近,北京市,北京市,,生活服务;物流速递;物流速递
116.286421,39.907965,新兴物流,复兴路65号电信实业大厦11层,北京市,北京市,五棵松,生活服务;物流速递;物流速递
116.288787,39.949668,北京天福号物流有限公司(远大东路),四季青板井路60号西门,北京市,北京市,世纪城,生活服务;物流速递;物流速递
116.290763,40.080162,百腾物流(北京分公司),西北旺镇唐家岭北平房铁盟物流院内,北京市,北京市,二拨子村,生活服务;物流速递;物流速递
116.303239,40.051156,科捷物流集团,上地9街9号数码科技广场南楼四层M单元,北京市,北京市,西二旗,生活服务;物流速递;物流速递
116.234761,39.932413,勇芹配送中心,田村路,北京市,北京市,,生活服务;物流速递;物流速递
116.276371,39.967548,北京市海淀汽车运输公司,西四环北路10号院1号楼,北京市,北京市,,生活服务;物流速递;物流速递
116.372492,39.974912,中航海丰国际物流(北京)有限公司,北太平庄路2号德恒商务会馆B座B307,北京市,北京市,牡丹园,生活服务;物流速递;物流速递
116.117740,40.106948,北京言江时代货物运输有限公司,聂各庄路18号,北京市,北京市,,生活服务;物流速递;物流速递
116.200712,40.091367,北京学校基地直供仓储物流中心,上庄马坊中路365,北京市,北京市,,生活服务;物流速递;物流仓储场地
116.109306,40.080698,润泽物流,阳台山路东100米,北京市,北京市,,生活服务;物流速递;物流速递
116.331754,40.054181,北京鑫淼货运服务有限公司,西三旗桥东东南角运输七厂院内,北京市,北京市,西三旗,生活服务;物流速递;物流速递
116.234323,39.949235,西平庄菜鸟驿站,西平庄51号世纪家家福隔壁,北京市,北京市,西山,生活服务;物流速递;物流速递
116.231255,40.029129,北京上地中通快递,冷泉东路66号李子园库房5-4,北京市,北京市,西北旺,生活服务;物流速递;物流速递
116.322071,39.932972,德邦物流,车公庄西路华通大厦B座908,北京市,北京市,车公庄,生活服务;物流速递;物流速递
116.267137,39.931290,中通快运,田村半壁店8号内1号,北京市,北京市,,生活服务;物流速递;物流速递
116.287831,40.016218,顺丰速运北大营业点,肖家河东临100号,北京市,北京市,马连洼,生活服务;物流速递;物流速递
116.202773,40.122369,宇鑫物流北京海淀门店,上庄镇沙阳路义成物流园39号,北京市,北京市,,生活服务;物流速递;物流速递
116.326371,39.897549,德邦快递军事博物馆营业部,[],北京市,北京市,,生活服务;物流速递;物流速递
116.336692,39.978816,中外运敦豪(北京中关村服务中心),中关村街道中关村南4街18号紫金数码园4号楼北侧1层底商,北京市,北京市,,生活服务;物流速递;物流速递
116.348891,40.004231,北京林业大学物流服务中心,学院路街道清华东路35号,北京市,北京市,,生活服务;物流速递;物流速递
116.331168,40.043634,宏泰伟业货物运输公司,安宁庄东路18号光华创业园,北京市,北京市,清河,生活服务;物流速递;物流速递
116.359657,40.038155,超市发连锁公司配送中心,清河街道永泰东路甲18号,北京市,北京市,永泰,生活服务;物流速递;物流速递
116.198089,40.148852,伊利北京分公司北库物流中心,双塔村176号,北京市,北京市,,生活服务;物流速递;物流速递
116.202798,40.121666,智慧通物流,清华园街道东小营义成物流园,北京市,北京市,,生活服务;物流速递;物流速递
116.219476,40.035081,北京兄弟惠通搬家有限公司,冷泉西路,北京市,北京市,西北旺,生活服务;物流速递;物流速递
116.356876,40.045538,快递小店,永泰庄北路40号,北京市,北京市,清河,生活服务;物流速递;物流速递
116.211271,40.113157,京诚速通物流海淀上庄营业部,翠湖北路与上庄路交叉路口往西南约100米,北京市,北京市,,生活服务;物流速递;物流速递
116.226144,40.032767,蚂蚁货运公司(海淀店),大红门公寓,北京市,北京市,西北旺,生活服务;生活服务场所;生活服务场所
116.229699,39.931688,壹米滴答快运(新四季青营业部),田村路锦绣大地物流港东门壹米,北京市,北京市,,生活服务;物流速递;物流速递
116.315828,40.036301,北京新源时代货物运输有限公司,上地东二路路东86号a9,北京市,北京市,上地,生活服务;物流速递;物流速递
116.173276,40.128556,北京兴通达货运有限公司,上庄镇前章沙阳路488号,北京市,北京市,,生活服务;物流速递;物流速递
116.210707,40.112761,庆隆物流上庄站,"金运盛达物流园内,上庄卫生院对面大院里",北京市,北京市,,生活服务;物流速递;物流速递
116.350904,39.957466,北京中通易达物流有限公司,笑祖北路1号便民停车场,北京市,北京市,西直门,生活服务;物流速递;物流速递
116.260183,39.950312,北京京宝龙物流服务有限公司,杏石口路23号,北京市,北京市,,生活服务;物流速递;物流速递
116.350095,40.043756,盒马配送站,东升镇东生镇文龙四里悦茂购物中心一层,北京市,北京市,清河,生活服务;物流速递;物流速递
116.285810,40.006780,北京市家佳物流中心,大有庄大街,北京市,北京市,,生活服务;物流速递;物流速递
116.237708,40.129086,捷顺行物流,G7(京新高速),北京市,北京市,,生活服务;物流速递;物流速递
116.358940,40.001467,中国农业大学·物流服务中心,清华东路17号中国农业大学科贸楼D229号(近金码大厦),北京市,北京市,,生活服务;物流速递;物流速递
116.201932,40.122967,瀛海世纪物流,物流基地上庄义成物流园,北京市,北京市,,生活服务;物流速递;物流速递
116.320688,39.902083,中车物流有限公司,羊坊店路11号521-523室,北京市,北京市,,生活服务;物流速递;物流速递
116.360167,40.037655,格格货站,永泰庄北路怡清园2-2-401号或,北京市,北京市,永泰,生活服务;物流速递;物流速递
116.249388,40.043019,北京金东方物流有限公司,西北旺镇黑龙潭路58号,北京市,北京市,西北旺,生活服务;物流速递;物流速递
116.317538,39.983471,顺丰速运物流,中关村大街18号科贸电子城一层,北京市,北京市,中关村,生活服务;物流速递;物流速递
116.318192,39.922019,航天物流有限公司,航天桥阜成路14号,北京市,北京市,,生活服务;物流速递;物流速递
116.255526,40.041907,北京禾谷园连锁经营有限公司配送中心,西北旺付家窑丁2号,北京市,北京市,西北旺,生活服务;物流速递;物流速递
116.349568,39.951972,中铁快运,交大东路30号-2号楼,北京市,北京市,西直门,生活服务;物流速递;物流速递
116.198713,40.104809,德邦快递,[],北京市,北京市,,生活服务;物流速递;物流速递
116.340852,39.980496,德邦快递(知春路分部),五道口新村路甲4号,北京市,北京市,,生活服务;物流速递;物流速递
116.270450,40.034501,德邦快递,永丰路润千秋佳苑12号楼底商,北京市,北京市,马连洼,生活服务;物流速递;物流速递
116.194205,40.149683,北京福道物流有限公司,叮当幼儿园东50米,北京市,北京市,,生活服务;物流速递;物流速递
116.297887,39.933037,吉时达物流有限公司(颐安嘉园店),又一村路与蓝靛厂南路交叉路口东南侧(颐安嘉园),北京市,北京市,,生活服务;物流速递;物流速递
116.201406,40.124139,北京亿帮(安利)物流,沙阳路与信苑西路交叉路口东南侧(上庄蘑菇园),北京市,北京市,,生活服务;物流速递;物流速递
116.201027,40.124014,原野物流,沙阳路与信苑西路交叉路口东南侧(上庄蘑菇园),北京市,北京市,,生活服务;物流速递;物流速递
116.202747,40.121836,东方鑫海沛然物流,沙阳路(上庄蘑菇园东南侧约250米),北京市,北京市,,生活服务;物流速递;物流速递
116.202747,40.121898,北京裕华物流,沙阳路(上庄蘑菇园东南侧约250米),北京市,北京市,,生活服务;物流速递;物流速递
116.152269,40.114013,志远达货运有限公司北京分公司到货部,温阳路,北京市,北京市,,生活服务;物流速递;物流速递
116.227511,39.931519,巨辰佳隆物流,巨山路与田村路交叉路口往东南约100米,北京市,北京市,,生活服务;物流速递;物流速递
116.204573,40.123890,东方世粮北京物流配送中心,沙阳路与信苑中路交叉路口东南侧,北京市,北京市,,生活服务;物流速递;物流仓储场地
116.295975,39.911456,大型物资运输公司,万寿路20号院附近,北京市,北京市,公主坟,生活服务;生活服务场所;生活服务场所
116.253881,39.930972,北京京粮物流有限公司,田村路43号,北京市,北京市,,生活服务;物流速递;物流速递
116.134076,40.049490,北京海绿运运输有限公司,南安河路狂飚乐园往西200米,北京市,北京市,,生活服务;物流速递;物流速递
116.195084,40.125330,北京大正物流,上庄镇罗家坟村11号,北京市,北京市,,生活服务;生活服务场所;生活服务场所
116.261739,39.955271,京鑫渣土运输公司,燕桥金路西50米,北京市,北京市,,生活服务;生活服务场所;生活服务场所
116.210822,40.130531,北京兴通达货运有限公司,上庄路(上庄馨悦家园西北侧约200米),北京市,北京市,,生活服务;物流速递;物流速递
116.313599,40.039558,中国中欧国际货运代理有限公司,上地东路27号春生泰克大厦3层301室,北京市,北京市,上地,生活服务;物流速递;物流速递
116.142801,40.081026,北京金东方物流苏家坨仓库,柳林路与苏家坨西路交叉口西100米,北京市,北京市,,生活服务;物流速递;物流仓储场地
116.361308,40.040429,北京水木通达运输有限公司,西小口路66号东升科技园(永泰庄东路西),北京市,北京市,西三旗,生活服务;物流速递;物流速递
116.224502,39.953580,北京翔运通物流公司,西五环杏石口路88号,北京市,北京市,香山,生活服务;物流速递;物流速递
116.225157,39.953326,北京三元食品有限公司,四季青杏石口路德盛坊后,北京市,北京市,香山,生活服务;物流速递;物流速递
116.229378,39.931709,安达顺发(京北)物流菜篮子配送基地,巨山路与田村路交叉口东200米,北京市,北京市,,生活服务;物流速递;物流速递
116.285850,40.006350,安东自助仓储(北大店),北大燕北园南院家佳物流中心1F,北京市,北京市,,生活服务;生活服务场所;生活服务场所
116.291852,39.982652,八通物流,万柳海淀公园路海淀公园南口,北京市,北京市,,生活服务;物流速递;物流速递
116.245634,40.034823,嘉泰物流,西北旺韩家川路52号,北京市,北京市,西北旺,生活服务;物流速递;物流速递
116.229785,39.931194,锦绣大地物流港D区,田村锦绣大地物流港D区(田村路西),北京市,北京市,,生活服务;物流速递;物流速递
116.334320,39.956804,北京超市发连锁股份有限公司果菜配送中心,学院南路68号吉安大厦A座,北京市,北京市,北下关,生活服务;物流速递;物流速递
116.320045,39.992882,北京大学运输中心,颐和园路5号北京大学,北京市,北京市,,生活服务;物流速递;物流速递
116.289075,40.082646,北京通源物流有限公司,上地京包路9号,北京市,北京市,二拨子村,生活服务;生活服务场所;生活服务场所
116.290787,40.079036,铁盟物流,二拨子工业园区中路17号,北京市,北京市,二拨子村,生活服务;物流速递;物流速递
116.317162,39.983612,北京市新速货物运输有限公司(中关村科贸分部),中关村大街科贸大厦物流港中关村科技贸易中心,北京市,北京市,中关村,生活服务;物流速递;物流速递
116.198120,40.149008,北京星月力成物流有限公司,上庄镇双塔村176号,北京市,北京市,,生活服务;物流速递;物流仓储场地
116.337888,40.053029,天地华宇(悦秀路),西三旗悦秀路77号,北京市,北京市,清河,生活服务;物流速递;物流速递
116.211707,40.11511,海淀德邦(上庄营业部),上庄中心小学对面德邦快递,北京市,北京市,,生活服务;物流速递;物流速递
116.147749,40.052332,百世快运,温泉村口500米,北京市,北京市,,生活服务;生活服务场所;生活服务场所
116.188522,40.112322,康达物流,上庄上庄镇八家村,北京市,北京市,,生活服务;物流速递;物流速递
116.222596,39.952896,新杰物流,四季青杏石口路88号北京翔远通仓库8号库,北京市,北京市,香山,生活服务;物流速递;物流速递
116.343440,39.994808,小麦公社北语校园派送中心,成府路(北京语言大学),北京市,北京市,五道口,生活服务;物流速递;物流速递
116.317238,39.983822,德邦快递,中关村大街18号科贸写字楼A座15楼,北京市,北京市,中关村,生活服务;物流速递;物流速递
116.185759,40.126370,中通快运(海淀三部营业厅),后章村公交站北(沙阳路北),北京市,北京市,,生活服务;物流速递;物流速递
116.276475,39.933388,华宇天地物流中心,[],北京市,北京市,四季青,生活服务;物流速递;物流速递
116.348897,40.004191,近邻宝物流中心(林大店)(暂停营业),学院路街道静淑苑路西侧,北京市,北京市,,生活服务;物流速递;物流速递
116.287407,40.072060,首农配送中心(暂停营业),唐家岭路(中关村森林公园东北侧),北京市,北京市,西北旺,生活服务;物流速递;物流速递
