lon,lat,name,address,pname,cityname,business_area,type
103.940952,30.973723,四川省邮政速递物流公司(彭州分公司),南大街461号,四川省,成都市,天彭,生活服务;邮局;邮政速递|公司企业;公司;公司
103.866112,31.046517,圆通速递,隆丰镇隆新路北段199号,四川省,成都市,,生活服务;物流速递;物流速递
103.940107,31.087936,中通速递,葛仙山镇楠杨社区东街99号楠杨加油站上来100米,四川省,成都市,,生活服务;物流速递;物流速递
103.972600,30.996191,中通速递,金华东路311号附近,四川省,成都市,,生活服务;物流速递;物流速递
103.834608,31.158523,圆通速递,通济镇仙溪后街68号,四川省,成都市,,生活服务;物流速递;物流速递
104.111399,30.948383,百世速递,建业中路,四川省,成都市,,生活服务;物流速递;物流速递
103.792666,31.033899,圆通速递,金桂西街12东北60米,四川省,成都市,,生活服务;物流速递;物流速递
103.979308,31.045767,圆通速递,军乐镇政通街12号,四川省,成都市,,生活服务;物流速递;物流速递
103.951111,30.992031,速递易,朝阳中路460号国色天香小区,四川省,成都市,天彭,生活服务;生活服务场所;生活服务场所
103.953363,30.980121,圆通速递(彭州分部),兴盛巷7-9号,四川省,成都市,天彭,生活服务;物流速递;物流速递
103.861127,30.974226,圆通速递(丽春营业部),白鹤路23号,四川省,成都市,,生活服务;物流速递;物流速递
103.938153,30.985132,中通速递(西北市街),西北市街62号附7号,四川省,成都市,天彭,生活服务;物流速递;物流速递
103.829641,31.161759,韵达速递,闽东路,四川省,成都市,,生活服务;物流速递;物流速递
103.932994,30.977547,彭州中通速递,天府西路413号附近,四川省,成都市,,生活服务;物流速递;物流速递
103.757877,31.187445,中通速递(小鱼洞分部),复兴路81号,四川省,成都市,,生活服务;物流速递;物流速递
103.954861,30.957390,极兔速递,金光中路,四川省,成都市,致和街道,生活服务;物流速递;物流速递
103.866950,31.045441,极兔速递,彭白路,四川省,成都市,,生活服务;物流速递;物流速递
103.969122,30.985333,极兔速递,[],四川省,成都市,天彭,生活服务;物流速递;物流速递
104.117131,30.949295,极兔速递,学子路,四川省,成都市,,生活服务;物流速递;物流速递
103.937725,30.985534,极兔速递,[],四川省,成都市,天彭,生活服务;物流速递;物流速递
104.109332,30.948308,韵达快运(蒙阳分部),蒙阳镇农物流小区22栋5单元,四川省,成都市,,生活服务;物流速递;物流速递
103.955074,30.963514,泰便利速递,九江南路与清白江西路交叉路口往西北约50米,四川省,成都市,致和街道,生活服务;物流速递;物流速递
104.117768,30.951540,极兔速递(濛阳网点),濛三北路779号,四川省,成都市,,生活服务;物流速递;物流速递
104.110564,30.957791,中通速递濛阳镇网点,园石街23,四川省,成都市,,生活服务;物流速递;物流速递
103.948701,30.974938,韵达快运,天彭镇朝阳南路320号,四川省,成都市,致和街道,生活服务;物流速递;物流速递
104.126501,30.943513,承宏物流,[],四川省,成都市,,生活服务;物流速递;物流速递
104.127312,30.943609,快点物流,[],四川省,成都市,,生活服务;物流速递;物流速递
104.126645,30.943542,元邦物流,[],四川省,成都市,,生活服务;物流速递;物流速递
103.978225,31.043551,百世快运百世快递,军乐镇乐兴西路27-29,四川省,成都市,,生活服务;物流速递;物流速递
104.104187,31.021309,圆通快递公司,三界镇育才街118号,四川省,成都市,,生活服务;物流速递;物流速递
104.021176,31.025682,圆通快递公司,升平镇升玉南街139号,四川省,成都市,,生活服务;物流速递;物流速递
104.037249,30.994041,圆通快递公司,九尺镇上兴街19号,四川省,成都市,,生活服务;物流速递;物流速递
104.004039,31.142805,红岩圆通快递,[],四川省,成都市,,生活服务;物流速递;物流速递
103.925713,30.980463,飞豪物流,天彭街道天人小区东一巷52号,四川省,成都市,,生活服务;物流速递;物流速递
103.904197,30.976963,兰丰物流,天彭镇安彭路谢家社区3组,四川省,成都市,,生活服务;物流速递;物流速递
103.987255,31.091710,中通快递(敖兴街店),敖平镇敖兴街66号,四川省,成都市,敖平镇,生活服务;物流速递;物流速递
103.868715,30.971658,丽春韵达快递,彭温路64号,四川省,成都市,,生活服务;物流速递;物流速递
104.127985,30.926572,诺邦物流,什新路与千佛路交叉路口往西北约50米,四川省,成都市,,生活服务;物流速递;物流速递
103.947239,30.985989,韵达快运(东湖大街便民服务部),红照壁南街122号,四川省,成都市,天彭,生活服务;物流速递;物流速递
103.958489,30.996566,韵达快递(牡丹新城便民分部),天彭镇回龙西路196号,四川省,成都市,,生活服务;物流速递;物流速递
103.872776,30.972585,中通快递(丽春镇),丽春镇丽蓉大道209号邮政储蓄所对面,四川省,成都市,丽春街道,生活服务;物流速递;物流速递
103.940932,30.978468,韵达快递,天彭街道天府西路44号赵氏靓粥旁,四川省,成都市,天彭,生活服务;生活服务场所;生活服务场所
104.116621,30.954507,韵达快递,蒙三北路923号,四川省,成都市,,生活服务;物流速递;物流速递
104.107876,30.959799,成都丰通物流,蒙阳镇凤凰大道78号,四川省,成都市,,生活服务;物流速递;物流速递
104.110047,30.947940,力展物流蒙阳配送中心,濛阳镇农物流小区1期20栋1单元,四川省,成都市,,生活服务;生活服务场所;生活服务场所
104.116268,30.941240,安能物流,四川省彭州市濛阳镇万贯服装产业园A区一号门249号,四川省,成都市,,生活服务;物流速递;物流速递
104.126789,30.943548,宇鑫物流,[],四川省,成都市,,生活服务;物流速递;物流速递
104.127312,30.943609,紫马物流,[],四川省,成都市,,生活服务;物流速递;物流速递
104.113430,30.941073,壹米滴答·金桥物流(蒙阳),物流大道中段附近,四川省,成都市,,生活服务;物流速递;物流速递
104.127151,30.943581,杰缘物流有限公司,[],四川省,成都市,,生活服务;物流速递;物流速递
104.127756,30.943625,西部风物流(濛阳营业部),[],四川省,成都市,,生活服务;物流速递;物流速递
103.957233,30.982043,中国邮政便民服务,[],四川省,成都市,天彭,生活服务;生活服务场所;生活服务场所
103.888541,31.025684,中国邮政便民服务,彭白路,四川省,成都市,,生活服务;生活服务场所;生活服务场所
103.968747,30.990386,中通快运,调露寺东路63号,四川省,成都市,天彭,生活服务;物流速递;物流速递
104.001491,31.163707,中国邮政,湔红路,四川省,成都市,,生活服务;邮局;邮局
103.912251,31.189444,白鹿邮政代办所,水观村森林美地小区,四川省,成都市,,生活服务;邮局;邮局
103.878125,30.975385,中通快运,[],四川省,成都市,,生活服务;物流速递;物流速递
103.957607,30.961970,中通快运,天彭镇青白江东路111号,四川省,成都市,致和,生活服务;物流速递;物流速递
103.970968,30.996136,成都市鸿顺康物流有限责任公司,天彭街道回龙东路270号,四川省,成都市,,生活服务;物流速递;物流速递
103.854063,31.067135,彭州市丹景山镇农村电子商务物流中心,[],四川省,成都市,,生活服务;物流速递;物流速递
103.932607,30.953497,四川诺特冷链物流有限公司,致和镇健康大道198号,四川省,成都市,,生活服务;物流速递;物流速递
103.951125,31.012521,彭州兴博达物流有限公司,锦阳东路了53号,四川省,成都市,,生活服务;物流速递;物流速递
104.121369,30.945720,成都恒昌运通物流有限公司,四川国际农产品交易中心8号出入口对面,四川省,成都市,,生活服务;物流速递;物流速递
103.837047,30.953928,成都巨仓物流有限公司,[],四川省,成都市,,生活服务;物流速递;物流速递
103.948154,30.980423,四川坤特麦斯物流有限公司,[],四川省,成都市,天彭,生活服务;物流速递;物流速递
103.950645,31.014718,成都新正兴物流有限公司,[],四川省,成都市,,生活服务;物流速递;物流速递
103.868114,31.046465,皓晨物流有限公司,隆裕街,四川省,成都市,隆丰,生活服务;物流速递;物流速递
103.961674,31.015602,成都驰伟物流有限公司,[],四川省,成都市,,生活服务;物流速递;物流速递
103.966352,30.990986,成都强昇物流有限公司,牡丹北路东段,四川省,成都市,天彭,生活服务;物流速递;物流速递
104.142172,30.999062,成都北新不锈钢物流有限公司,三界镇袛园村,四川省,成都市,,生活服务;物流速递;物流速递
104.117597,30.936979,中铁物流四川有限公司蒙阳营业部,蒙阳镇蒙兴东路168号,四川省,成都市,,生活服务;物流速递;物流速递
103.939636,30.984046,彭州永莲物流配送有限公司,西大街71附近,四川省,成都市,天彭,生活服务;物流速递;物流速递
104.099577,30.946095,四川瓯锦物流有限公司,蒙阳镇伏龙小区996号12栋二单元,四川省,成都市,,生活服务;物流速递;物流速递
103.945649,30.934538,成都金克星物流有限公司,协和大道香颂园附近协和路129号,四川省,成都市,,生活服务;物流速递;物流速递
103.901351,30.976940,成都市金胜利物流有限公司,天彭镇亚东水泥厂(方圆动物药业对面),四川省,成都市,,生活服务;物流速递;物流速递
104.119118,30.947059,海南鸿运达物流有限公司,蒙三北路539号附近,四川省,成都市,,生活服务;物流速递;物流速递
103.869191,31.045016,兴丰源物流有限公司,隆裕街与兴隆大街交叉路口往北约100米,四川省,成都市,隆丰,生活服务;物流速递;物流速递
103.956874,30.963991,成都腾乐物流有限责任公司,清白江北路,四川省,成都市,致和街道,生活服务;物流速递;物流速递
103.966956,30.986701,云程物流彭州指挥部,汉彭路与105省道交叉口南100米二楼,四川省,成都市,天彭,生活服务;物流速递;物流速递
103.926073,30.979496,峨眉西部风物流,天彭街道天人小区东四巷子77号,四川省,成都市,,生活服务;物流速递;物流速递
104.121882,30.939669,四川领鲜未来物流,濛三北路,四川省,成都市,,生活服务;物流速递;物流速递
104.117485,30.949879,成都欣蓉物流有限公司,学子路71号,四川省,成都市,,生活服务;物流速递;物流速递
103.926855,30.979633,四川君健物流有限公司,天人东四巷27号,四川省,成都市,,生活服务;物流速递;物流速递
103.913093,30.977175,彭州市亚利物流有限公司,天彭镇谢家村(亚东水泥厂旁边),四川省,成都市,,生活服务;物流速递;物流速递
103.864441,31.070032,彭州恒伟嘉润物流有限公司,丹景山东前村赵家巷子,四川省,成都市,,生活服务;物流速递;物流速递
103.966879,30.990592,成都潇顺物流有限公司,天彭镇调露寺西路44号,四川省,成都市,天彭,生活服务;物流速递;物流速递
103.927129,30.980777,余氏东风物流(天人东一巷),天彭镇天人小区天人路19号,四川省,成都市,,生活服务;物流速递;物流速递
103.957829,30.961922,中铁物流集团,致和镇清白江东路103号,四川省,成都市,天彭,生活服务;物流速递;物流速递
103.965936,30.972566,暴风物流,花龙西路1东南60米,四川省,成都市,天彭,生活服务;物流速递;物流速递
103.927414,30.979670,三志物流,[],四川省,成都市,,生活服务;物流速递;物流速递
103.952253,30.950471,速通物流,西河东路166号29栋1号,四川省,成都市,,生活服务;物流速递;物流速递
103.925532,30.980723,宇鑫物流,天人东一巷72号西南方,四川省,成都市,,生活服务;物流速递;物流速递
104.107165,31.024262,佳捷物流,三界北街与西南巷交叉口东南50米,四川省,成都市,,生活服务;物流速递;物流速递
104.097967,30.946764,永辉物流,兴农西路388号,四川省,成都市,,生活服务;物流速递;物流仓储场地
103.948280,30.929167,丹郡湖岸申通快递,致和镇协和路399号10栋附101号,四川省,成都市,,生活服务;物流速递;物流速递
104.107567,31.021791,彭州市三界邮政代办所,三界镇三界南街158号,四川省,成都市,,生活服务;邮局;邮局
104.017009,31.022822,升平邮政代办所,升平镇升玉南街315号,四川省,成都市,,生活服务;邮局;邮局
103.973507,30.948465,菜鸟快递驿站,致斑路,四川省,成都市,,生活服务;物流速递;物流速递
103.874401,30.974204,中国邮政便民服务站(惠民老邻居副食店),丽蓉大道285西北方向180米,四川省,成都市,,生活服务;生活服务场所;生活服务场所
103.945621,30.944108,韵达,贤清南路与护贤西一路交叉路口往南约100米,四川省,成都市,致和,生活服务;物流速递;物流速递
103.931334,30.941211,韵达GROUND,致和镇黑龙泉小区19栋1单元,四川省,成都市,,生活服务;物流速递;物流速递
103.944444,30.978713,中通彭州东南街公司,天彭镇东南市街157号,四川省,成都市,天彭,生活服务;物流速递;物流速递
103.850612,31.065305,中国邮政快邮驿站,[],四川省,成都市,,生活服务;邮局;邮政速递
103.936623,30.992340,中国邮政便民服务站,[],四川省,成都市,天彭,生活服务;生活服务场所;生活服务场所
103.911802,31.189261,中国邮政便民服务站,[],四川省,成都市,,生活服务;生活服务场所;生活服务场所
104.007647,30.967957,中国邮政便民服务站,[],四川省,成都市,,生活服务;生活服务场所;生活服务场所
103.807152,30.966533,中国邮政便民服务站,北桂路,四川省,成都市,,生活服务;生活服务场所;生活服务场所
103.942037,30.986402,彭州市北大街邮政所,北大街109号,四川省,成都市,天彭,生活服务;邮局;邮局
103.936392,30.981473,彭州申通快递有限公司西海北街营业部,西海北街68-70号,四川省,成都市,天彭,生活服务;物流速递;物流速递
103.830551,30.979595,中国邮政村邮站,[],四川省,成都市,,生活服务;邮局;邮政速递
103.856906,30.975764,彭州市三五邮政代办所,丽春镇荷花路5719工厂,四川省,成都市,,生活服务;邮局;邮局
103.837812,30.952760,北君平邮政代办所,丽春镇,四川省,成都市,,生活服务;邮局;邮局
103.949758,30.975517,彭州市朝阳南路邮政所,朝阳南路372号,四川省,成都市,天彭,生活服务;邮局;邮局
103.960012,30.987611,彭州市金彭东路邮政所,金彭东路158号,四川省,成都市,天彭,生活服务;邮局;邮局
103.875718,30.973095,彭州市丽春邮政支局,丽春镇丽蓉大道208-210号,四川省,成都市,,生活服务;邮局;邮局
103.851003,31.071899,彭州市九陇邮政支局,丹景山镇南郡西街31号,四川省,成都市,,生活服务;邮局;邮局
103.927022,30.991830,德邦快递彭州营业部,滨河路302-305,四川省,成都市,天彭,生活服务;物流速递;物流速递
103.956803,30.987432,丰巢快递柜(置信·逸都城),天彭街道金彭东路122号置信逸都城逸都中心写字楼百博教育,四川省,成都市,天彭,生活服务;生活服务场所;生活服务场所
103.935945,30.939698,荣鑫顺物流(彭州)办事处,南部新城黑龙泉小区47-7-101,四川省,成都市,,生活服务;物流速递;物流速递
103.860198,30.974420,德邦快递取货点,丽春镇荷花路144号,四川省,成都市,,生活服务;生活服务场所;生活服务场所
103.918068,30.989589,京东物流(成都天彭营业部),天彭镇白马社区12栋4单元,四川省,成都市,,生活服务;物流速递;物流速递
103.949936,30.979136,吉泰物流(四川分公司),新民东街6号-附8号附近,四川省,成都市,天彭,生活服务;物流速递;物流速递
103.866150,31.048268,东京物流(成都隆丰站),隆裕街,四川省,成都市,,生活服务;物流速递;物流速递
103.943845,30.975305,申通快递南门营业部,南河东街30附近,四川省,成都市,致和街道,生活服务;物流速递;物流速递
103.926446,30.979727,力展物流(天人中路),天人东四巷46-50号,四川省,成都市,,生活服务;物流速递;物流速递
103.926048,30.979622,佳明物流(彭州办事处),天人东三巷与天人中路交叉口西50米,四川省,成都市,,生活服务;物流速递;物流速递
103.757985,31.187351,中通快递小鱼洞镇自取点,小鱼洞镇丙人街27号,四川省,成都市,,生活服务;物流速递;物流速递
103.935193,30.985177,彭州申通快递有限公司(西门分部),翠湖东路83附近,四川省,成都市,天彭,生活服务;物流速递;物流速递
103.952182,30.986473,彭州申通快递有限公司(东门分部),东升街137附近,四川省,成都市,天彭,生活服务;物流速递;物流速递
103.956502,30.961536,彭州市京东快运集配站,金彭故径街229号,四川省,成都市,致和,生活服务;物流速递;物流速递
103.932084,30.952912,国药集团四川医学检验有限公司物流中心,长寿中路,四川省,成都市,,生活服务;物流速递;物流速递
103.850604,31.065466,丹景山镇中通申通快递,丹寿苑小区二栋附103-104,四川省,成都市,,生活服务;物流速递;物流速递
104.125257,30.939632,彭州舞东风农产品物流中心,濛三北路152号,四川省,成都市,,生活服务;物流速递;物流速递
104.006928,31.143351,申通快递代收点(会元街),会元街25号附近,四川省,成都市,,生活服务;物流速递;物流速递
103.864443,31.049845,彭州市隆丰邮政支局,隆丰镇隆裕街301号,四川省,成都市,,生活服务;邮局;邮局
103.780138,31.101083,彭州市磁峰邮政支局,磁峰镇蹯江路80号,四川省,成都市,,生活服务;邮局;邮局
103.988035,31.094180,彭州市敖平邮政局,106省道附近,四川省,成都市,敖平镇,生活服务;邮局;邮局
103.760049,31.191531,彭州市小渔洞邮政代办所,小渔洞镇复兴路280号,四川省,成都市,,生活服务;邮局;邮局
104.117469,30.950744,天地精华农业开发有限责任公司物流配送中心,蒙三北路,四川省,成都市,,生活服务;物流速递;物流仓储场地
104.110383,30.957865,余氏东风物流蒙阳镇营业部,蒙阳镇园石街8号,四川省,成都市,,生活服务;物流速递;物流速递
103.988843,31.096435,余氏东风物流敖平镇服务部,S106(敖红路北段),四川省,成都市,,生活服务;物流速递;物流速递
103.960269,31.131468,彭州市葛仙山邮政代办所,官仓路西50米,四川省,成都市,,生活服务;邮局;邮局
103.780505,31.103187,磁峰申通快递,蟠江路15号,四川省,成都市,,生活服务;物流速递;物流速递
103.834376,31.158503,中通快递公司,通济镇仙溪北街128号,四川省,成都市,,生活服务;物流速递;物流速递
103.917049,30.928707,太平中通快递,致和镇太平社区太平路北段147号,四川省,成都市,,生活服务;物流速递;物流速递
103.970793,30.981440,彭州百世快递,天府东路377号,四川省,成都市,天彭,生活服务;物流速递;物流速递
103.928286,30.952645,德邦快递,健康大道199号湔江大厦楼下,四川省,成都市,,生活服务;物流速递;物流速递
103.926241,30.980576,海风物流(彭州店),天人北街40,四川省,成都市,,生活服务;物流速递;物流速递
104.111215,30.948333,中通快运彭州濛阳营业部,蒙阳镇建业中路198号,四川省,成都市,,生活服务;生活服务场所;生活服务场所
103.958915,30.962159,优速快递,清白江东路38西60米,四川省,成都市,天彭,生活服务;物流速递;物流速递
103.968786,30.989799,顺泰配送,[],四川省,成都市,天彭,生活服务;生活服务场所;生活服务场所
104.113511,30.938501,华厨乐商贸仓储配送中心,蒙阳万贯服装工业园区蒙兴中路145号,四川省,成都市,,生活服务;生活服务场所;生活服务场所
104.124992,30.945148,洋阳配送,[],四川省,成都市,,生活服务;物流速递;物流速递
104.119700,30.937556,成都标果科技有限公司仓储配送中心,濛兴东路与濛三西路交叉路口往东北约50米,四川省,成都市,,生活服务;物流速递;物流速递
103.957964,30.977737,菜鸟驿站(成都彭州恋城公馆店),天彭街道天府东路88号碧美恋城公馆附12号,四川省,成都市,天彭,生活服务;物流速递;物流速递
103.956250,30.989010,菜鸟驿站(成都彭州牡丹西路21号顺风港店),天彭街道牡丹西路21号,四川省,成都市,天彭,生活服务;物流速递;物流速递
104.107840,30.944340,菜鸟驿站(成都蒙阳凤凰大道南段711号店),蒙阳镇凤凰大道南段711号,四川省,成都市,,生活服务;物流速递;物流速递
103.945650,30.940690,菜鸟驿站(成都彭州贤清南路291号店),致和镇贤清南路291号,四川省,成都市,,生活服务;物流速递;物流速递
103.867221,31.047773,顺丰速运,隆裕街与兴府街交叉路口往北约150米,四川省,成都市,,生活服务;物流速递;物流速递
103.947713,30.943923,润怡物流,[],四川省,成都市,致和,生活服务;物流速递;物流速递
103.813573,30.963909,宇超物流,[],四川省,成都市,,生活服务;物流速递;物流速递
104.035613,30.993356,余氏东风物流,观音泉南街114号,四川省,成都市,,生活服务;物流速递;物流速递
103.925787,30.979321,渝诚物流,天彭街道天人小区高铁站对面峰旭超市2楼,四川省,成都市,,生活服务;物流速递;物流速递
103.951250,30.981350,菜鸟驿站(成都彭州润和园后门店),天彭街道新民路242号,四川省,成都市,天彭,生活服务;物流速递;物流速递
103.919821,30.990558,菜鸟驿站(成都彭州天泉小区2栋104号店),天彭街道彭白路天泉小区2栋十单元104号,四川省,成都市,,生活服务;物流速递;物流速递
104.110539,30.956442,四川幸福有菜供应链配送中心,[],四川省,成都市,,生活服务;物流速递;物流速递
103.944145,30.930098,菜鸟驿站(成都彭州丽都府连封北街35号店),天彭街道连封北街35号,四川省,成都市,,生活服务;物流速递;物流速递
103.936637,30.976510,货拉拉LalaPartner一辰汽车销售和服务伙伴,繁江南路378号,四川省,成都市,天彭,生活服务;物流速递;物流速递|汽车销售;汽车销售;汽车销售
103.936583,30.976557,滴滴货运,繁江南路,四川省,成都市,天彭,生活服务;物流速递;物流速递
103.927019,30.980193,宏金龙物流,天人东街1号-11号,四川省,成都市,,生活服务;生活服务场所;生活服务场所
103.911342,31.202530,菜鸟驿站(成都白鹿左岸路店),白鹿镇左岸路136号,四川省,成都市,,生活服务;物流速递;物流速递
103.947100,30.991540,菜鸟驿站(成都彭州团结巷30号店),天彭街道团结巷30号,四川省,成都市,天彭,生活服务;物流速递;物流速递
103.800239,31.035621,彭州市宏顺废品回收站,"利济村九组19号,上庭瓦有限业公司对面",四川省,成都市,,生活服务;物流速递;物流仓储场地
103.986585,30.984094,成都市鸿复剑运输服务有限公司,[],四川省,成都市,,生活服务;生活服务场所;生活服务场所
103.832557,31.161267,顺丰速运,鼓浪屿路与崇德路交叉路口南侧,四川省,成都市,,生活服务;物流速递;物流速递
103.780504,31.101721,顺丰速运,磁峰镇蟠江路63号65号,四川省,成都市,,生活服务;物流速递;物流速递
103.968846,30.984719,新邦物流,天彭街道爱国小区爱国南路311号,四川省,成都市,天彭,生活服务;物流速递;物流速递
103.927543,30.980170,菜鸟驿站(成都彭州天人小区天人路59号店),天彭街道天人路59号,四川省,成都市,,生活服务;物流速递;物流速递
103.933609,30.981429,菜鸟驿站(成都彭州柳河店),天彭街道绣城路南段109号,四川省,成都市,天彭,生活服务;物流速递;物流速递
103.953690,30.987550,菜鸟驿站(成都彭州航利星海湾北区店),天彭街道朝阳中路242号鑫和兴副食,四川省,成都市,天彭,生活服务;物流速递;物流速递
103.943390,30.976050,菜鸟驿站(成都彭州外南街89号店),天彭街道外南街89号,四川省,成都市,天彭,生活服务;物流速递;物流速递
104.103515,30.947010,四川浩润供应链管理服务有限公司,蒙阳镇兴农路228号1栋1号,四川省,成都市,,生活服务;物流速递;物流速递
103.861181,30.968314,天地华宇,彭温路,四川省,成都市,,生活服务;物流速递;物流速递
104.004114,30.962684,直销配送中心,万护路,四川省,成都市,,生活服务;物流速递;物流速递
104.118477,30.937872,昌海商贸仓储中心,[],四川省,成都市,,生活服务;物流速递;物流仓储场地
103.866275,31.048214,京东快递成都隆丰营业部,隆裕街,四川省,成都市,,生活服务;物流速递;物流速递
103.947075,30.943762,龙翔伞四川省配送中心,[],四川省,成都市,,生活服务;生活服务场所;生活服务场所
103.927434,30.979674,壹米滴答,[],四川省,成都市,,生活服务;物流速递;物流速递
103.997420,30.979730,彭州市天彭镇林兵货运部,[],四川省,成都市,,生活服务;物流速递;物流速递
104.035604,30.993372,菜鸟驿站(成都彭州九尺希望路36号店),九尺镇观音泉南街122-124号,四川省,成都市,,生活服务;物流速递;物流速递
103.930635,30.982956,材料配送中心,绣城北路42号附近,四川省,成都市,天彭,生活服务;物流速递;物流速递
103.941190,30.979607,兄弟配送,西南市街273号附近,四川省,成都市,天彭,生活服务;中介机构;中介机构
103.856152,31.063205,成都坤文运输有限公司,[],四川省,成都市,,生活服务;物流速递;物流速递
103.767650,31.028770,菜鸟驿站(成都彭州丰乐场广场北街二号店),桂花镇丰乐场广场北街二号,四川省,成都市,,生活服务;物流速递;物流速递
103.958432,30.996579,韵达EXPRESS回龙西路服务站,[],四川省,成都市,,生活服务;物流速递;物流速递
103.969372,30.988577,潮康农产品配送,七号支渠路,四川省,成都市,天彭,生活服务;物流速递;物流速递
103.946240,30.995697,农门的水彭州配送部,朝阳北路69东60米,四川省,成都市,,生活服务;物流速递;物流速递
103.907851,30.998927,菜鸟驿站(成都彭州牌坊村2组39号店),天彭街道牌坊村2组39号白马中学对面白马文具副食店,四川省,成都市,,生活服务;物流速递;物流速递
104.105118,31.020527,菜鸟驿站(成都彭州三界裕民路132号店),濛阳街道裕民路132号,四川省,成都市,,生活服务;物流速递;物流速递
103.963250,30.951120,菜鸟驿站(成都彭州白鹿河西路162号店),白鹿河西路162号蜀南超市,四川省,成都市,,生活服务;物流速递;物流速递
103.933030,30.947580,菜鸟驿站(成都彭州万都城店),致和街道西河西路333号,四川省,成都市,,生活服务;物流速递;物流速递
104.125950,30.934070,菜鸟驿站(成都蒙阳杨湾小区踏水巷2号店),蒙阳镇踏水巷2号,四川省,成都市,,生活服务;物流速递;物流速递
103.932728,30.953271,沁林物流,致和镇成都国际医药港C3栋,四川省,成都市,,生活服务;物流速递;物流速递
103.939322,31.087650,韵达EXPRESS楠木寄存点,[],四川省,成都市,,生活服务;物流速递;物流速递
104.021312,31.026177,顺丰速运,兴农街与文学街交叉路口往西南约100米,四川省,成都市,,生活服务;物流速递;物流速递
103.936331,30.973605,友义货运,天彭镇来寿路107号,四川省,成都市,,生活服务;物流速递;物流速递
103.933344,30.963721,菜鸟驿站(成都彭州育才路701号店),天彭街道致和街道育才路701号,四川省,成都市,,生活服务;物流速递;物流速递
103.917749,30.929111,菜鸟驿站(成都彭州太平路北段116号店),致和街道太平社区太平路北段116号,四川省,成都市,,生活服务;物流速递;物流速递
103.931633,30.944170,菜鸟驿站(成都彭州黑龙泉小区店),致和街道黑龙泉小区6栋1单元1号游春贵副食店,四川省,成都市,,生活服务;物流速递;物流速递
103.955850,30.924310,菜鸟驿站(成都彭州福兴大道63号附1号店),致和镇百祥村福兴大道63号附1号,四川省,成都市,,生活服务;物流速递;物流速递
103.930638,30.974327,菜鸟驿站(成都彭州顾繁新居店),天彭街道天彭街道繁兴路271-275号家家优超市,四川省,成都市,,生活服务;物流速递;物流速递
104.006470,31.142340,菜鸟驿站(成都红岩会元街27号店),敖平镇会元街27号,四川省,成都市,,生活服务;物流速递;物流速递
103.927131,30.980590,百世快运(彭州市一部),天人路119号,四川省,成都市,,生活服务;物流速递;物流速递
103.937980,30.983130,菜鸟驿站(成都彭州西南市街45号店),天彭街道西南市街45号,四川省,成都市,天彭,生活服务;物流速递;物流速递
103.791967,31.241421,菜鸟驿站(成都龙门山顺河路60号店),龙门山镇顺河路60号,四川省,成都市,,生活服务;物流速递;物流速递
103.950520,30.972988,菜鸟驿站(成都彭州双龙路南5巷91号店),天彭街道双龙路南5巷91号,四川省,成都市,天彭,生活服务;物流速递;物流速递
103.948181,30.984066,菜鸟驿站(成都彭州东顺苑东大街233号店),天彭街道东大街233号,四川省,成都市,天彭,生活服务;物流速递;物流速递
103.941854,30.982564,菜鸟驿站(成都彭州香溢街2号店),天彭街道天彭镇香溢街2号,四川省,成都市,天彭,生活服务;物流速递;物流速递
103.932981,30.977553,菜鸟驿站(成都彭州天佑嘉园店),天彭街道天彭街道办成都周边天府西路369号川铁天佑嘉园,四川省,成都市,,生活服务;物流速递;物流速递
103.934484,30.990485,公德家庭服务中心,体育场东街116号附近,四川省,成都市,天彭,生活服务;物流速递;物流速递
103.937263,31.001771,陈老五饲料配送中心,[],四川省,成都市,,生活服务;物流速递;物流速递
104.004101,31.143044,红岩邮政代办所,红岩镇向阳街137号,四川省,成都市,,生活服务;邮局;邮局
103.936160,30.995120,菜鸟驿站(成都彭州农贸市场店),天彭街道龙锦路20号,四川省,成都市,天彭,生活服务;物流速递;物流速递
103.960358,30.948118,菜鸟驿站(成都彭州护国林小区店),天彭街道万护路98号,四川省,成都市,致和,生活服务;物流速递;物流速递
103.757689,31.189458,大盟集运有限公司,千喜街与罗阳路交叉路口西侧,四川省,成都市,,公司企业;公司;公司|生活服务;物流速递;物流速递
103.942852,30.998321,菜鸟驿站(成都彭州上河新界店),天彭街道朝阳北路116号附1号上河新界小区正大门旁边,四川省,成都市,,生活服务;物流速递;物流速递
104.124848,30.944120,老铺子配送中心,[],四川省,成都市,,生活服务;物流速递;物流速递
103.956688,30.963447,菜鸟驿站(成都海德花园店),致和镇青白江北路43号,四川省,成都市,天彭,生活服务;物流速递;物流速递
103.935114,30.985170,菜鸟驿站(成都彭州城市花园店),天彭街道翠湖东路85号,四川省,成都市,天彭,生活服务;物流速递;物流速递
104.117117,30.949271,泰来配送,蒙阳镇学子路30号,四川省,成都市,,生活服务;物流速递;物流速递
104.123431,30.945799,杨氏商超配送,[],四川省,成都市,,生活服务;物流速递;物流速递
104.113019,30.941301,四川欣康绿分拣配送中心,濛兴中路与物流大道中段交叉路口往南约50米,四川省,成都市,,生活服务;物流速递;物流速递
104.116497,30.940252,成都尚果仓储配送中心,[],四川省,成都市,,生活服务;物流速递;物流速递
103.939452,30.978434,菜鸟驿站(成都彭州天府西路96号店),天彭街道天府西路96号,四川省,成都市,天彭,生活服务;物流速递;物流速递
104.103410,30.957378,彭州市秀春蔬菜种植农民专业合作社农资配送中心,九高路,四川省,成都市,,生活服务;物流速递;物流速递
103.759734,31.188969,菜鸟驿站(成都小鱼洞复兴路128号店),小渔洞镇复兴路128号,四川省,成都市,,生活服务;物流速递;物流速递
103.811181,30.965327,庆兴邮政支局,丽春镇长庆街东段87-91号,四川省,成都市,,生活服务;邮局;邮局
103.866907,31.045480,菜鸟驿站(成都隆丰隆新路北段139号店),隆丰街道隆新路北段139号,四川省,成都市,,生活服务;物流速递;物流速递
103.950450,30.976640,菜鸟驿站(成都彭州东南苑店),天彭街道朝阳南路393号惠多多超市,四川省,成都市,天彭,生活服务;物流速递;物流速递
103.943872,30.975305,菜鸟驿站(成都彭州清溪苑南河东街26号店),天彭街道南河东街26号,四川省,成都市,天彭,生活服务;物流速递;物流速递
103.951845,30.989950,菜鸟驿站(成都彭州升华台店),天彭街道朝阳中路升华台17幢55号,四川省,成都市,天彭,生活服务;物流速递;物流速递
104.105313,30.942357,顺丰速运,蒙阳镇物流大道西段77、79号,四川省,成都市,,生活服务;生活服务场所;生活服务场所
104.113558,30.941123,成都伟杰超市耗材配送中心,濛兴中路与物流大道中段交叉路口往南约50米,四川省,成都市,,生活服务;物流速递;物流速递|购物服务;购物相关场所;购物相关场所
104.128261,30.943671,瑞峰行成都同城配送,[],四川省,成都市,,生活服务;物流速递;物流速递
103.947468,30.981412,菜鸟驿站(成都彭州新民西街111号店),天彭街道新民西街111号,四川省,成都市,天彭,生活服务;物流速递;物流速递
103.952160,30.986770,菜鸟驿站(成都彭州东升街178号店),天彭街道东升街178号,四川省,成都市,天彭,生活服务;物流速递;物流速递
103.869882,31.041896,大盟集运有限公司,彭白路与新五路交叉路口往西南约100米,四川省,成都市,,生活服务;物流速递;物流速递
104.123016,30.944985,明通食品配送,[],四川省,成都市,,生活服务;物流速递;物流速递
104.122717,30.945810,周氏商超配送,[],四川省,成都市,,生活服务;物流速递;物流速递
104.116293,30.941366,成都同合货运代理有限公司,物流大道中段,四川省,成都市,,生活服务;物流速递;物流速递
104.104143,30.944485,成都得安运输,物流大道西段与利民路交叉路口往东北约200米,四川省,成都市,,生活服务;物流速递;物流速递
104.101077,30.946442,菜鸟驿站(成都蒙阳伏龙小区店),蒙阳镇伏龙小区四期4栋6单元1层,四川省,成都市,,生活服务;物流速递;物流速递
104.114731,30.938540,成都焰阳商贸有限公司濛阳配送中心,濛兴中路,四川省,成都市,,生活服务;物流速递;物流速递
103.918315,30.991045,成都星锐建材配送,彭白路,四川省,成都市,,生活服务;物流速递;物流速递
104.110184,30.957805,佳欣百货仓储服务部,园石街与西街交叉路口西南侧(丽苑西侧),四川省,成都市,,生活服务;物流速递;物流速递
103.780063,31.102736,韵达磁峰营业部,新冯街119号附近,四川省,成都市,,生活服务;物流速递;物流速递
103.933233,30.987854,政务e家24小时自助服务区,翠湖路188号附近,四川省,成都市,天彭,生活服务;物流速递;物流速递
103.959778,30.972841,菜鸟联盟天猫直送成都彭州站,致和镇同一医院对面长江东路185号碧城旺丽旁边,四川省,成都市,天彭,生活服务;物流速递;物流速递
104.119148,30.947065,米易县强鑫运输有限公司,兴农路623号,四川省,成都市,,生活服务;物流速递;物流速递
103.966581,30.993942,菜鸟驿站(成都彭州调露小区金华东路店),天彭街道金华东路90号,四川省,成都市,,生活服务;物流速递;物流速递
103.943463,30.938463,菜鸟驿站(成都彭州南部新城星悦城店),致和镇天彭街道南三环路二段336号昌建星悦城,四川省,成都市,,生活服务;物流速递;物流速递
103.972628,30.996192,菜鸟驿站(成都彭州龙锦c区回龙东路店),天彭街道回龙东路311号,四川省,成都市,,生活服务;物流速递;物流速递
103.937820,30.979720,菜鸟驿站(成都彭州丽都苑西海南街60号店),天彭街道西海南街60号,四川省,成都市,天彭,生活服务;物流速递;物流速递
103.945033,30.946616,菜鸟驿站(成都南部新城世纪华府店),致和镇贤清南路70号每天惠,四川省,成都市,致和,生活服务;物流速递;物流速递
103.868676,30.971483,菜鸟驿站(成都丽春丽蓉大道64号店),丽春镇丽蓉大道64号,四川省,成都市,,生活服务;物流速递;物流速递
103.948691,30.929442,菜鸟驿站(成都置信丽岛大门店),致和镇置信丽岛湖岸滨湖路50号,四川省,成都市,,生活服务;物流速递;物流速递
103.957168,30.997245,菜鸟驿站(成都紫光兴城回龙西路店),天彭街道回龙西路246号,四川省,成都市,,生活服务;物流速递;物流速递
103.958984,31.000930,菜鸟驿站(成都泰安北路锦城国际店),天彭街道泰安北路761号,四川省,成都市,,生活服务;物流速递;物流速递
103.951370,30.992743,菜鸟驿站(成都彭州国色天香店),天彭镇朝阳中路460号,四川省,成都市,天彭,生活服务;物流速递;物流速递
103.912921,31.202655,菜鸟驿站(成都白鹿樵人街店),白鹿镇樵人街274号,四川省,成都市,,生活服务;物流速递;物流速递
103.830429,31.161497,菜鸟驿站(成都通济青杠林1号店),通济镇崇德路188号,四川省,成都市,,生活服务;物流速递;物流速递
103.949302,30.963776,菜鸟驿站(成都彭州顺和苑一期店),致和街道青白江西路306号,四川省,成都市,天彭,生活服务;物流速递;物流速递
104.037941,30.996834,天天快递(九尺营业部),S105(九兴中路),四川省,成都市,,生活服务;物流速递;物流速递
103.956906,30.964074,申通快递(致和营业部),清白江北路,四川省,成都市,致和,生活服务;物流速递;物流速递
103.960824,30.928619,申通快递(彭州分拨中心),致和镇清洋村7组百祥工业园,四川省,成都市,,生活服务;物流速递;物流速递
103.966820,30.997410,菜鸟驿站(成都牡丹名城大门蟠龙南路80号),天彭街道蟠龙南路82号,四川省,成都市,,生活服务;物流速递;物流速递
103.937615,30.973096,菜鸟驿站(成都天彭丹郡兰庭来寿路55号店),天彭街道来寿路55号,四川省,成都市,,生活服务;物流速递;物流速递
103.951471,30.975292,菜鸟驿站(成都华庆小区店),致和镇长江路63号彭州中通,四川省,成都市,天彭,生活服务;物流速递;物流速递
104.122836,30.944972,忠华配送,蒙三北路成都雨润现代食品城内,四川省,成都市,,生活服务;物流速递;物流速递
103.958957,31.000927,中通快递(彭州国色天香分部),泰安北路761号,四川省,成都市,,生活服务;物流速递;物流速递
104.117691,30.952520,中通快递(蒙阳店),濛三北路,四川省,成都市,,生活服务;物流速递;物流速递
103.808482,30.965897,中通快递(庆兴分部),谭家场社区三路车终点站对面,四川省,成都市,,生活服务;物流速递;物流速递
103.927091,30.980710,彭州市天彭镇天宏货运信息咨询服务部,天人路16号,四川省,成都市,,生活服务;物流速递;物流速递
103.969200,30.988668,众兴配送,观泉路与105省道交叉口西北150米,四川省,成都市,天彭,生活服务;生活服务场所;生活服务场所
104.004035,31.142825,百世汇通红岩自取点,红岩镇金阳街98号,四川省,成都市,,生活服务;物流速递;物流速递
103.980653,31.050313,京东(军乐店),[],四川省,成都市,,生活服务;物流速递;物流速递
103.866896,31.045497,申通快递(隆丰街道服务点),彭白路隆新路,四川省,成都市,,生活服务;物流速递;物流速递
103.812546,30.966310,申通快递(彭州庆兴营业部),长庆街附近,四川省,成都市,,生活服务;物流速递;物流速递
103.947055,31.019479,韵达彭州公司(万人小区营业部),锦阳西南路129号2栋附近,四川省,成都市,,生活服务;物流速递;物流速递
103.929042,30.993036,顺丰速运（滨河路速运营业部）,滨河路219号-222号,四川省,成都市,天彭,生活服务;生活服务场所;生活服务场所
103.912396,31.202522,顺丰速运,五龙路23号,四川省,成都市,,生活服务;生活服务场所;生活服务场所
103.872056,30.972157,中国邮政(彭州市丽春邮政支局),丽蓉大道269号,四川省,成都市,,生活服务;邮局;邮局
103.940892,30.973535,中国邮政(彭州市邮政局),南大街461号,四川省,成都市,天彭,生活服务;邮局;邮局
103.984647,31.087904,韵达快递(楠桥店),楠桥二组29号,四川省,成都市,敖平镇,生活服务;物流速递;物流速递
104.106011,31.022545,韵达快递(三界镇分部),三界北街与西南巷交叉口东南50米,四川省,成都市,,生活服务;物流速递;物流速递
103.867821,31.044773,天天快递(隆丰分部),隆丰镇隆新路北段122号,四川省,成都市,隆丰,生活服务;物流速递;物流速递
103.955570,30.993450,百世快递(金华西路一段),金华西路一段98号,四川省,成都市,天彭,生活服务;物流速递;物流速递
103.943350,30.934010,中通快递(香颂大街),致和镇清洋大街77号,四川省,成都市,,生活服务;物流速递;物流速递
103.947175,31.013891,中通快递(石化大道),天彭镇万人小区3期1幢,四川省,成都市,,生活服务;物流速递;物流速递
103.868731,30.971665,申通快递(丽春便民自取点),丽蓉大道70号,四川省,成都市,,生活服务;物流速递;物流速递
103.988022,31.089424,申通快递(敖平转接点),龙江江路中段,四川省,成都市,敖平镇,生活服务;物流速递;物流速递
103.946291,30.975519,申通快递(彭州营业部),南河东街115-119号,四川省,成都市,天彭,生活服务;物流速递;物流速递
103.951489,30.975271,中通快递(彭州华庆分部),致和镇长江路63号,四川省,成都市,天彭,生活服务;物流速递;物流速递
103.949952,30.989236,天天快递(彭洲分部),花园路26号,四川省,成都市,天彭,生活服务;物流速递;物流速递
103.957927,30.961908,壹米滴答(金桥物流),清白江东路99号附近,四川省,成都市,天彭,生活服务;物流速递;物流速递
104.111551,30.948338,百世快运蒙阳一部,蒙阳镇建业中路206号,四川省,成都市,,生活服务;物流速递;物流速递
104.111400,30.948140,菜鸟驿站(成都彭州濛阳农物流小区店),蒙阳镇什新路农物流小区8栋,四川省,成都市,,生活服务;物流速递;物流速递
103.962540,30.991220,菜鸟驿站(成都彭州鸿运星城店),天彭街道鸿运星城牡丹北路289号,四川省,成都市,天彭,生活服务;物流速递;物流速递
103.861352,30.973766,顺丰速运,白鹤路48号,四川省,成都市,,生活服务;物流速递;物流速递
103.846960,31.118651,中国邮政(新兴邮政支局),顺瞿街169-173,四川省,成都市,,生活服务;邮局;邮局
103.837792,30.952767,中国邮政(北君平邮政所),丽春镇北君平乡白果巷,四川省,成都市,,生活服务;邮局;邮局
103.927029,30.980690,物流全国,天彭镇天人小区天人路19号,四川省,成都市,,生活服务;物流速递;物流速递
103.977519,31.044973,中国邮政(军乐邮政代办所),军乐镇乐兴街21号,四川省,成都市,,生活服务;邮局;邮局
103.759057,31.187629,中国邮政(小鱼洞邮政所),复兴路57号,四川省,成都市,,生活服务;邮局;邮局
103.959747,30.972005,京东服务中心(彭州店),致和镇长江东路233号,四川省,成都市,天彭,生活服务;物流速递;物流速递
103.964937,30.971560,彭州蚂蚁物流有限公司,牡丹大道中段420号,四川省,成都市,天彭,生活服务;物流速递;物流速递
103.936499,30.992828,日日顺,四通北街与新康路交叉口北50米,四川省,成都市,天彭,生活服务;物流速递;物流速递|购物服务;家电电子卖场;家电电子卖场
103.965170,30.991327,成都宏扬远航运业有限公司,天彭镇牡丹北路东段15号,四川省,成都市,,公司企业;公司;公司|生活服务;物流速递;物流速递
103.961780,30.978505,菜鸟驿站(成都晋林小区大门店),天彭街道天府东路161号晋林小区,四川省,成都市,天彭,生活服务;物流速递;物流速递
103.958216,30.961834,顺丰速运(清白江东路),天彭街道清白江东路93号,四川省,成都市,致和,生活服务;物流速递;物流速递
103.949667,30.963687,中国邮政(致和邮政代办所),天彭大道1016号附近,四川省,成都市,致和,生活服务;邮局;邮局
103.936228,30.988440,中国邮政(彭州市西干道邮政所),金彭西路228-234号,四川省,成都市,天彭,生活服务;邮局;邮局
103.926944,30.980040,绵阳东方物流(天人东三巷),天彭镇高铁站对面峨眉西部风背后,四川省,成都市,,生活服务;物流速递;物流速递
104.115076,30.958523,彭州市蒙阳邮政支局,蒙阳镇商业街2号,四川省,成都市,,生活服务;邮局;邮局
103.926903,30.980314,吉道物流,[],四川省,成都市,,生活服务;物流速递;物流速递
104.034535,30.994930,神龙瓜子中通快递,九尺镇发发火锅对面神龙瓜子,四川省,成都市,,生活服务;物流速递;物流速递
103.980366,31.049648,菜鸟驿站(成都军乐军屯路399号店),隆丰街道民生银行对面军屯路399号申通快递,四川省,成都市,,生活服务;物流速递;物流速递
103.943343,30.934014,菜鸟驿站(成都彭州塞纳花园西区店),致和镇清洋大街81号,四川省,成都市,,生活服务;物流速递;物流速递
103.945568,30.947826,俞达物流,贤清南路,四川省,成都市,致和,生活服务;物流速递;物流速递
103.832641,31.156910,通济邮政代办所,通济大桥与湔江路交叉口东北150米附近,四川省,成都市,,生活服务;邮局;邮局
103.958628,30.961808,卡行天下直通车(清白江东路),致和镇牡丹大道南段青白江东路83号(海德花园这条路邦德对面),四川省,成都市,致和,生活服务;物流速递;物流速递
103.968798,30.990702,曹玉家宴配送,天彭街道调露小区露诗东路71号,四川省,成都市,天彭,生活服务;生活服务场所;生活服务场所|购物服务;购物相关场所;购物相关场所
103.926954,30.980025,成都顺兴货运有限责任公司(天人东街),天人东三巷12号,四川省,成都市,,生活服务;物流速递;物流速递
103.926577,30.979732,宏骏货运,天人路与安信路交叉路口往南约100米(天人小区),四川省,成都市,,生活服务;物流速递;物流速递
103.927267,30.978542,李静副食配送中心,天仁小区,四川省,成都市,,生活服务;物流速递;物流速递
103.861028,30.968237,德邦快递(丽春镇营业部),丽春镇花街子社区6组40号(天地华宇旁),四川省,成都市,,生活服务;物流速递;物流速递
104.106738,30.958052,京东快递(成都蒙阳营业部),九高路与凤凰大道南段交叉路口西南侧,四川省,成都市,,生活服务;物流速递;物流速递
104.118433,30.939587,四川仲达物流(蒙阳办事处),蒙兴东路100号,四川省,成都市,,生活服务;物流速递;物流速递
104.102971,30.946644,四川燕林物流有限公司,濛阳镇伏龙三期八单元101号,四川省,成都市,,生活服务;物流速递;物流速递
103.927391,30.979996,良伟货运,天人路62号,四川省,成都市,,生活服务;物流速递;物流速递
104.116323,30.941103,德邦,成都万贯服装产业园A区245号,四川省,成都市,,生活服务;物流速递;物流速递
104.107484,30.941062,成都恒大玖珑湾永辉外展点,濛兴西路50号,四川省,成都市,,生活服务;物流速递;物流速递
103.952257,30.971700,友佳商贸中心,双龙路222号,四川省,成都市,致和街道,生活服务;物流速递;物流速递|购物服务;购物相关场所;购物相关场所
103.947071,30.989797,成都万发货运,天彭街道红照壁北街43号,四川省,成都市,天彭,生活服务;物流速递;物流速递
103.937721,31.089236,彭州市楠杨邮政代办所,楠杨北街70号,四川省,成都市,,生活服务;邮局;邮局
103.932799,30.977553,顺丰速运(成都市彭州市天府西路营业点),天彭镇天府西路369号,四川省,成都市,,生活服务;物流速递;物流速递
103.935808,30.985508,成都亚兴运输有限公司,翠湖东路59号,四川省,成都市,天彭,生活服务;物流速递;物流速递
103.931220,31.025136,成都五鑫车业有限公司,石化大道西50米,四川省,成都市,,生活服务;物流速递;物流速递
104.008150,30.985766,顺丰快运(彭州集配站),致和镇观泉村3组70号,四川省,成都市,,生活服务;物流速递;物流速递
103.937724,31.089217,中国邮政(楠杨邮政代办所),楠林路与106省道交叉口北200米,四川省,成都市,,生活服务;邮局;邮局
103.986603,31.088967,中通快运(敖平军乐营业厅),九龙江路4号,四川省,成都市,敖平镇,生活服务;物流速递;物流速递
103.929607,30.984854,彭州市华西运业有限责任公司,绣城路北段136号绣城路北,四川省,成都市,天彭,公司企业;公司;公司|生活服务;物流速递;物流速递
103.852604,31.121413,彭州市新兴邮政支局,新兴镇顺瞿街338号,四川省,成都市,,生活服务;邮局;邮局
104.037999,30.994191,中国邮政(九尺邮政代办所),九尺镇兴隆街116号,四川省,成都市,,生活服务;邮局;邮局
103.937359,31.001840,宏发配送中心,005乡道东50米,四川省,成都市,,购物服务;便民商店/便利店;便民商店/便利店|生活服务;生活服务场所;生活服务场所
103.926882,30.979842,建国货运(天人东五巷),天彭镇天人小区东四巷28号,四川省,成都市,,生活服务;物流速递;物流速递
104.137650,30.961170,菜鸟驿站(成都彭州蒙阳公园路343号店),蒙阳镇北岛公园路343号,四川省,成都市,,生活服务;物流速递;物流速递
103.946643,30.935064,菜鸟驿站(成都彭州香颂苑40栋1号店),致和镇协和路69号香颂苑40栋1单元1号,四川省,成都市,,生活服务;物流速递;物流速递
104.115384,30.947172,菜鸟驿站(成都彭州市蒙阳印象店),蒙阳镇建业中路366号蒙阳印象5栋附103,四川省,成都市,,生活服务;物流速递;物流速递
103.935880,30.988020,菜鸟驿站(成都彭州金彭西路243号店),天彭街道金彭西路243号,四川省,成都市,天彭,生活服务;物流速递;物流速递
104.114768,30.959722,百世汇通快递,蒙阳镇商业街77号,四川省,成都市,,生活服务;物流速递;物流速递
104.032294,30.993837,顺丰,天鹅街7号,四川省,成都市,,生活服务;物流速递;物流速递
104.125415,30.959478,富邦货运,九高路北50米,四川省,成都市,,生活服务;物流速递;物流速递
103.942213,30.933569,菜鸟驿站(成都置信逸景苑北大门店),致和镇清洋大街58号,四川省,成都市,,生活服务;物流速递;物流速递
103.874761,31.046229,韵达快递隆丰分部,[],四川省,成都市,隆丰,生活服务;物流速递;物流速递
103.958329,30.962225,成都安蓉达彭州分公司,清白江东路96号,四川省,成都市,天彭,生活服务;物流速递;物流速递|公司企业;公司;公司
103.964796,30.971071,彭州余氏东风(新博美2分店),博美装饰城大门南侧,四川省,成都市,天彭,生活服务;物流速递;物流速递
103.958820,30.962177,德邦(致和街道营业部),致和镇青白江东路48号,四川省,成都市,天彭,生活服务;物流速递;物流速递
103.959761,30.971879,京东(彭州配送站),长江东路229-231号,四川省,成都市,天彭,生活服务;物流速递;物流速递
103.923936,31.039207,鑫鑫腾达物流,[],四川省,成都市,,生活服务;物流速递;物流速递
103.873052,30.972279,快邮驿站,[],四川省,成都市,,生活服务;物流速递;物流速递
103.953188,30.980146,妈妈驿站,朝阳南路718号附近,四川省,成都市,天彭,生活服务;物流速递;物流速递
103.952150,30.981631,鑫毅达运输,[],四川省,成都市,天彭,生活服务;物流速递;物流速递
103.947020,30.929162,韵达快递,临湖路一段,四川省,成都市,,生活服务;物流速递;物流速递
103.876485,30.973154,百世快递,丽蓉大道328,四川省,成都市,,生活服务;物流速递;物流速递
103.986576,31.087338,妈妈驿站,敖红路南段,四川省,成都市,敖平镇,生活服务;物流速递;物流速递
104.021226,31.026007,韵达快递,兴农街,四川省,成都市,,生活服务;物流速递;物流速递
104.004919,31.144823,妈妈驿站,[],四川省,成都市,,生活服务;物流速递;物流速递
104.119350,30.947106,妈妈驿站,兴农路,四川省,成都市,,生活服务;物流速递;物流速递
104.113664,30.954414,妈妈驿站,濛江西路,四川省,成都市,,生活服务;物流速递;物流速递
103.791936,31.241527,中通快递,滨河路,四川省,成都市,,生活服务;物流速递;物流速递
103.939301,31.087651,申通快递,[],四川省,成都市,,生活服务;物流速递;物流速递
103.866231,31.046721,妈妈驿站,彭白路,四川省,成都市,,生活服务;物流速递;物流速递
103.793460,31.034043,峨眉山龙门洞饮用天然矿泉水,S106(金桂东街),四川省,成都市,,生活服务;生活服务场所;生活服务场所
103.938356,31.086893,韵达快递,敖平镇楠杨镇,四川省,成都市,,生活服务;物流速递;物流速递
103.944246,30.938596,中通快递,南三环路二段,四川省,成都市,,生活服务;物流速递;物流速递
104.107341,31.023287,汇通快递,什新路,四川省,成都市,,生活服务;物流速递;物流速递
103.933250,30.963629,百世快递,育才路790号附近,四川省,成都市,,生活服务;物流速递;物流速递
104.032287,30.993858,圆通快递,天鹅街7号,四川省,成都市,,生活服务;生活服务场所;生活服务场所
103.945468,30.984919,中通快递,天彭街道龙锦东路50号龙锦小区25栋二单元,四川省,成都市,天彭,生活服务;物流速递;物流速递
103.873088,31.046392,汇通快递,兴隆大街230北60米,四川省,成都市,隆丰,生活服务;物流速递;物流速递
104.036730,30.993815,申通快递,希望路36号,四川省,成都市,,生活服务;物流速递;物流速递
103.937734,30.984396,大脸猫生鲜配送,西北市街34号附近,四川省,成都市,天彭,生活服务;物流速递;物流速递
103.954878,30.942897,锦绣前程货运部,致和镇护贤南路139号华贸大厦一层多,四川省,成都市,,生活服务;物流速递;物流速递
103.936427,30.981464,菜鸟驿站,西海北街68-70号,四川省,成都市,天彭,生活服务;物流速递;物流速递
103.947148,31.013924,菜鸟驿站,天彭街道牡丹大道北三段528号,四川省,成都市,,生活服务;物流速递;物流速递
103.957195,30.993860,菜鸟驿站,天彭街道天彭街道金华西路一段223号恒昌贵筑汽车进口右侧一家便利店,四川省,成都市,,生活服务;物流速递;物流速递
103.929702,30.970030,铁路货运(彭县站),天彭街道来寿路,四川省,成都市,,生活服务;物流速递;物流速递
103.950950,30.974597,亿嘉天下,天彭镇双龙小区南一巷37号,四川省,成都市,天彭,公司企业;公司;公司|生活服务;物流速递;物流速递
103.946209,30.995242,中通,天彭镇朝阳北路67号,四川省,成都市,天彭,生活服务;物流速递;物流速递
103.792701,31.033966,桂花快递自取点,北桂路与金桂北街交叉口东北50米,四川省,成都市,,生活服务;物流速递;物流速递
103.926398,30.980057,安能(天人中路店),天人东街39号,四川省,成都市,,生活服务;物流速递;物流速递
103.953402,30.980134,YTO(彭州分部),兴盛路与朝阳南路交叉路口东侧(金豪城宾馆),四川省,成都市,天彭,生活服务;物流速递;物流速递
103.958180,30.921739,艾丽斯顿,齐心大道5号,四川省,成都市,,生活服务;物流速递;物流仓储场地
104.122594,30.945746,六兄妹果蔬,成都市雨润现代食品城107栋129号,四川省,成都市,,生活服务;物流速递;物流速递
103.952463,30.981597,京东帮,新民路171号东50米,四川省,成都市,天彭,生活服务;物流速递;物流速递
104.131176,30.927306,货车保温棉被,什新路铁路口,四川省,成都市,,生活服务;物流速递;物流速递
103.948178,31.013920,百世汇通,天彭镇锦阳西路40号东湖小区(彭州),四川省,成都市,,生活服务;物流速递;物流速递
103.953469,30.943552,京东快递(彭州营业部),致和镇华茂工业园东方米兰40栋A区,四川省,成都市,致和,生活服务;物流速递;物流速递
103.986573,31.088814,百世快递,敖平镇凤楼南街111号,四川省,成都市,敖平镇,生活服务;物流速递;物流速递
103.768514,31.030446,百世快递,桂两路(彭州市桂花镇丰乐九年制学校),四川省,成都市,,生活服务;物流速递;物流速递
103.980427,31.049585,申通快递,彭敖路与军屯西街交叉路口西南侧,四川省,成都市,,生活服务;物流速递;物流速递
103.850767,31.064418,百世快递,佛光路,四川省,成都市,,生活服务;物流速递;物流速递
103.944439,30.987035,百世快递,上升街,四川省,成都市,天彭,生活服务;物流速递;物流速递
103.830588,31.161799,申通快递,鼓浪屿路205西南60米,四川省,成都市,,生活服务;物流速递;物流速递
103.917370,30.927092,韵达快递,致和镇太平社区滨河路48号,四川省,成都市,,生活服务;物流速递;物流速递
103.868830,31.042663,中通快递,彭白路,四川省,成都市,,生活服务;物流速递;物流速递
103.957156,30.997242,中通快递,回龙西路与泰安北路交叉路口东南侧(紫光·兴城),四川省,成都市,,生活服务;物流速递;物流速递
103.955792,31.131923,中通快递,府江路104号附近,四川省,成都市,,生活服务;物流速递;物流速递
103.945691,31.015134,申通快递,牡丹大道北三段604号附近,四川省,成都市,,生活服务;物流速递;物流速递
103.979315,31.043959,百世快递,彭敖路168号附近,四川省,成都市,,生活服务;物流速递;物流速递
103.979327,31.045712,百世快递,军屯路187号,四川省,成都市,,生活服务;物流速递;物流速递
103.850599,31.065425,中通快递,丹寿苑小区2栋附103号,四川省,成都市,,生活服务;物流速递;物流速递
103.938297,30.985373,汇通快递,天彭镇小北街63号附3号,四川省,成都市,天彭,生活服务;物流速递;物流速递
103.950649,30.959053,中通快递,天彭大道671号,四川省,成都市,致和街道,生活服务;物流速递;物流速递
104.116081,30.954304,申通快递,濛阳街道濛海街130号,四川省,成都市,,生活服务;物流速递;物流速递
103.866920,31.045470,菜鸟驿站(成都彭州隆丰隆兴北路135号店),隆丰街道隆新北路135号申通快递,四川省,成都市,,生活服务;物流速递;物流速递
103.968631,30.988950,物流运输,七号支渠路,四川省,成都市,天彭,生活服务;物流速递;物流速递
103.958694,30.982016,苏宁易购(彭州快递点),天彭镇东湖西三巷36号,四川省,成都市,天彭,生活服务;物流速递;物流速递
104.121651,30.937877,奥特林宏总部基地,蒙阳镇万贯服装产业园蒙祥南巷49号,四川省,成都市,,公司企业;公司;公司
104.106986,30.942122,永辉超市BRAVO YH(濛阳店),濛兴西路50号,四川省,成都市,,生活服务;物流速递;物流仓储场地|购物服务;超级市场;超市
104.128178,30.945639,峨眉山藤椒油,[],四川省,成都市,,购物服务;专卖店;专营店
103.960925,30.990932,峨眉山原汁双双烧烤,天彭镇牡丹北路272号,四川省,成都市,天彭,餐饮服务;中餐厅;特色/地方风味餐厅
103.680891,30.852219,邮政快递,石羊镇徐渡乡徐兴路,四川省,成都市,,生活服务;物流速递;物流速递
103.731088,31.017478,中国邮政快递收寄中心,共和路与驾虹路交叉路口往北约50米,四川省,成都市,,生活服务;邮局;邮政速递|生活服务;物流速递;物流速递
103.685144,30.943796,中国邮政快递包裹收投点,永兴街9附近,四川省,成都市,,生活服务;邮局;邮政速递
103.621605,30.917811,都江堰市中兴邮政支局,南街174-176号,四川省,成都市,,生活服务;邮局;邮局
103.609177,30.824381,中国邮政便民服务,[],四川省,成都市,,生活服务;生活服务场所;生活服务场所
103.644380,30.849306,中国邮政便民服务,北大街375附近,四川省,成都市,,生活服务;生活服务场所;生活服务场所
103.643054,30.852307,中国邮政,XA24(中崇路),四川省,成都市,,生活服务;邮局;邮局
103.668977,30.782745,中国邮政,古天下街44附近,四川省,成都市,,生活服务;邮局;邮局
103.692029,30.996892,中国邮政,石龙上街141附近,四川省,成都市,,生活服务;邮局;邮局
103.629196,30.974786,中国邮政,凉水井路767号,四川省,成都市,江安路,生活服务;邮局;邮局
103.630084,31.002082,蒲阳路邮政所,蒲阳路327号,四川省,成都市,灌口,生活服务;邮局;邮局
103.633497,30.995300,都江堰市观景路邮政支局,幸福镇观景路343号,四川省,成都市,幸福,生活服务;邮局;邮局
103.575166,30.895581,青城山-邮政信筒,青城山内,四川省,成都市,,生活服务;邮局;邮局
103.620422,30.978635,都江堰市青城路邮政所,近郊青城路396号,四川省,成都市,幸福,生活服务;邮局;邮局
103.652666,30.980387,都江堰市宝莲路邮政所,宝莲路374-376号,四川省,成都市,幸福,生活服务;邮局;邮局
103.611717,30.964207,四川省成都市都江堰市玉堂邮政支局,玉堂镇玉府街704号-706号,四川省,成都市,玉堂,生活服务;邮局;邮局
103.665257,31.115615,四川省成都市都江堰市虹口邮政代办所,龙池镇虹口社区白八路漂流欣居6栋附8,四川省,成都市,,生活服务;邮局;邮局
103.612096,30.787072,都江堰市安龙邮政代办所,海棠路与盆景路交叉口西北50米,四川省,成都市,,生活服务;邮局;邮局
103.623697,30.925421,中国邮政便民服务张哥放心店,中环路中环路北段,四川省,成都市,,生活服务;邮局;邮局
103.643091,30.988557,都江堰市江都庭院邮政所,都江堰大道190-192号,四川省,成都市,幸福大道,生活服务;邮局;邮局
103.625635,30.988249,中国邮政江安路营业所,走马河街264-276号,四川省,成都市,江安路,生活服务;邮局;邮局
103.625670,30.988240,中共中国邮政集团有限公司委员会,[],四川省,成都市,幸福,生活服务;邮局;邮局
103.558308,31.058025,都江堰市龙池邮政代办所,祥龙路2号,四川省,成都市,,生活服务;邮局;邮局
103.643952,30.971122,中国邮政便民服务站,[],四川省,成都市,,生活服务;邮局;邮局
103.682517,31.039574,中国邮政便民服务站,干河子路,四川省,成都市,,生活服务;生活服务场所;生活服务场所
103.713616,31.088158,四川省成都市都江堰市向峨邮政代办所,向峨乡爱莲路156号,四川省,成都市,,生活服务;邮局;邮局
103.598584,30.888101,四川省成都市都江堰市东软学院邮政代办所,东软大道1号,四川省,成都市,,生活服务;邮局;邮局
103.598511,30.888122,中国邮政(芙蓉路),青城山镇东软大道1号东软校园内,四川省,成都市,,生活服务;邮局;邮政速递
103.643962,30.971172,中国邮政(安居路),翔凤路781号,四川省,成都市,,生活服务;邮局;邮局
103.636103,30.882624,都江堰市中国邮政翠月湖邮政代办所,翠月湖镇下兴街216号,四川省,成都市,,生活服务;邮局;邮局
103.596163,30.876663,四川省成都市都江堰市青城山邮政支局,青城山镇南北大道122-128号,四川省,成都市,,生活服务;邮局;邮局
103.590623,31.021767,四川省成都市都江堰市紫坪邮政代办所,龙池镇紫宽路白沙新居5栋3号,四川省,成都市,,生活服务;邮局;邮局
103.652646,30.980391,中国邮政(宝莲路邮政所),[],四川省,成都市,幸福,生活服务;邮局;邮局
103.760232,30.973832,中国邮政(天马邮政支局),金马街247号,四川省,成都市,,生活服务;邮局;邮局
103.575604,30.846953,都江堰市大观邮政支局,道观路102号,四川省,成都市,大观,生活服务;邮局;邮局
103.657798,31.001413,都江堰市高桥邮政支局,发展路38-40,四川省,成都市,,生活服务;邮局;邮局
103.682797,31.030374,都江堰市蒲阳邮政支局,上阳街111号,四川省,成都市,,生活服务;邮局;邮局
103.667816,30.786173,都江堰市柳街邮政支局,柳街镇柳油街26号,四川省,成都市,,生活服务;邮局;邮局
103.731030,30.915838,都江堰市崇义邮政支局,崇义镇梳妆街66号,四川省,成都市,,生活服务;邮局;邮局
103.669063,30.782890,中国邮政(便民服务点),前进街1号附1,四川省,成都市,,生活服务;邮局;邮局
103.646800,30.843618,都江堰市石羊邮政支局,石羊镇解放街76号,四川省,成都市,石羊,生活服务;邮局;邮局
103.619652,30.991241,菜鸟驿站(天乙街邮政所611830151),天乙街167号(天乙街邮政所邮政自提点),四川省,成都市,江安路,生活服务;物流速递;物流速递
103.587185,30.893412,问道邮局,环山路青城前山停车场内,四川省,成都市,,生活服务;邮局;邮局
103.669976,30.637249,四川省邮政速递物流有限公司,蜀州北路204号,四川省,成都市,崇阳,生活服务;邮局;邮局
103.669964,30.637130,中国邮政EMS,蜀州北路192-200号,四川省,成都市,崇阳,生活服务;邮局;邮政速递
103.670212,30.637293,四川省邮政速递物流有限公司崇州市分公司(北门),双发巷与蜀州北路交叉口东50米,四川省,成都市,崇阳,通行设施;临街院门;临街院门
103.723960,30.584998,中国邮政员工邮件收发中心,大划镇青年公苑,四川省,成都市,,生活服务;物流速递;物流速递
103.690892,30.686890,中国邮政便民服务,[],四川省,成都市,,生活服务;生活服务场所;生活服务场所
103.688827,30.591583,中国邮政便民服务,宏业大道南段,四川省,成都市,,生活服务;生活服务场所;生活服务场所
103.573110,30.624503,中国邮政便民服务,东兴路,四川省,成都市,,生活服务;邮局;邮局
103.633077,30.643457,中国邮政,川兴街与幸福街交叉路口往东约50米(协和社区北侧),四川省,成都市,,生活服务;邮局;邮局
103.701338,30.749988,中国邮政,梓潼街,四川省,成都市,,生活服务;邮局;邮局
103.588651,30.603848,王场邮政支局,王场镇白头天竺一组34号,四川省,成都市,王场,生活服务;邮局;邮局
103.689492,30.578553,集贤邮政代办所,集贤乡梧桐街25号,四川省,成都市,,生活服务;邮局;邮局
103.608577,30.547303,崇州市燎原邮政代办,燎原顺西街10号,四川省,成都市,,生活服务;邮局;邮局
103.659846,30.675824,崇州市锦江邮政代办所,锦江乡军民路176号,四川省,成都市,,生活服务;邮局;邮局
103.415493,30.756143,崇州市怀远文井江邮政代办所,文井江镇文井街65号,四川省,成都市,,生活服务;邮局;邮局
103.609310,30.598635,崇州市工地邮政所,白头镇工地营门口街12号便民站,四川省,成都市,,生活服务;邮局;邮局
103.628226,30.730049,崇州市元通邮政支局,涌泉街81-83,四川省,成都市,,生活服务;邮局;邮局
103.538483,30.769405,崇州市何家邮政代办所,怀远镇德通村4组,四川省,成都市,,生活服务;邮局;邮局
103.651347,30.544225,崇州市桤泉邮政代办所,桤泉镇灵通村一组,四川省,成都市,,生活服务;邮局;邮局
103.542068,30.780070,崇州市三郎邮政支局,三郎镇达通路217号,四川省,成都市,,生活服务;邮局;邮局
103.739368,30.582609,崇州市大划邮政代办所,立申路东50米,四川省,成都市,,生活服务;邮局;邮局
103.695710,30.709848,崇州市廖家邮政代办所,廖兴西街4号,四川省,成都市,,生活服务;邮局;邮局
103.570384,30.627036,崇州市东关邮政代办所,王场镇东关社区东兴路212号,四川省,成都市,,生活服务;邮局;邮局
103.569846,30.548174,中国邮政便民服务站,[],四川省,成都市,,生活服务;生活服务场所;生活服务场所
103.489643,30.755683,崇州市怀远西山邮政代办所,西山青峰岭社区1组,四川省,成都市,,生活服务;邮局;邮局
103.601504,30.704968,崇州市公议邮政代办所,公议乡天冬偃村5组55号,四川省,成都市,,生活服务;邮局;邮局
103.720418,30.680439,崇州市崇平邮政代办所,崇平镇明珠一组56号,四川省,成都市,,生活服务;邮局;邮局
103.673298,30.733798,崇州市观胜邮政代办所,观胜镇天裕路24号,四川省,成都市,,生活服务;邮局;邮局
103.626432,30.646740,崇州市济协邮政代办所,济协乡文昌街75号,四川省,成都市,,生活服务;邮局;邮局
103.669785,30.619583,中国邮政崇州市蜀州南路支局,崇阳镇蜀州南路59号,四川省,成都市,崇阳,生活服务;邮局;邮局
103.781952,30.588760,江源邮政代办所,江源镇青石桥街9号,四川省,成都市,,生活服务;邮局;邮局
103.628913,30.578492,中国邮政(隆兴邮政支局),府青路93号,四川省,成都市,,生活服务;邮局;邮局
103.694146,30.748512,梓潼邮政代办所,梓潼镇观梓街120号,四川省,成都市,,生活服务;邮局;邮局
103.559826,30.814226,街子邮政支局,街子镇清明街35-37号,四川省,成都市,,生活服务;邮局;邮局
103.671732,30.629347,崇州市西街邮政所,西街28号,四川省,成都市,崇阳,生活服务;邮局;邮局
103.689169,30.640285,崇州市安乐邮政代办所,凤鸣西路,四川省,成都市,崇阳,生活服务;邮局;邮局
103.587898,30.783963,上元邮政代办所,上元商业街47号,四川省,成都市,,生活服务;邮局;邮局
103.652840,30.624375,西江邮政代办所,崇阳镇朱氏街76号,四川省,成都市,,生活服务;邮局;邮局
103.807552,30.560158,听江邮政代办所,听江敬贤街31号,四川省,成都市,,生活服务;邮局;邮局
103.525911,30.742447,崇州市怀远邮政支局,怀远镇文井中路163号,四川省,成都市,,生活服务;邮局;邮局
103.601469,30.663723,崇州市道明邮政支局,银桦路96号,四川省,成都市,道明,生活服务;邮局;邮局
103.669964,30.637079,蜀州北路邮政所,蜀州北路184号,四川省,成都市,崇阳,生活服务;邮局;邮局
103.568999,30.560032,崇州市崇德邮政代办所,崇德东街,四川省,成都市,,生活服务;邮局;邮局
103.774287,30.541809,崇州市三江邮政支局,通胜街91号,四川省,成都市,三江,生活服务;邮局;邮局
103.748072,30.661765,崇州市羊马邮政支局,中心南街16号,四川省,成都市,,生活服务;邮局;邮局
103.386751,30.797652,崇州市鸡冠山乡邮政代办所,鸡冠山乡鞍子街126-136号附近,四川省,成都市,,生活服务;邮局;邮局
103.616550,30.615788,白头邮政代办所,白头东街197号,四川省,成都市,,生活服务;邮局;邮局
103.609608,30.614470,中国邮政(崇州市王场邮政支局),重庆路与幸福路交叉路口往南约100米,四川省,成都市,,生活服务;邮局;邮局
103.676333,30.612227,菜鸟驿站(中南街2便民站611230125),崇阳镇中南街593号(中南街2便民站邮政自提点),四川省,成都市,,生活服务;物流速递;物流速递
103.775210,30.629630,菜鸟驿站(崇州水利学院五栋邮政银行旁),羊马镇羊马新城永和大道366号水利校里面五栋楼下邮政银行隔壁,四川省,成都市,,生活服务;物流速递;物流速递
103.606750,30.735760,菜鸟驿站(禹王村便民站611230031),元通镇禹王村1组28号(禹王村便民站邮政自提点),四川省,成都市,,生活服务;物流速递;物流速递
103.512428,30.303333,中国邮政快递EMS指定收货点,[],四川省,成都市,西来镇,生活服务;邮局;邮政速递
103.375775,30.284958,圆通速递,蒲塘路42号附近,四川省,成都市,,生活服务;物流速递;物流速递
103.623625,30.272087,中通速递,寿安镇隆盛小区市场对面,四川省,成都市,,生活服务;物流速递;物流速递
103.377835,30.176360,圆通速递,少城街与麟凤街交叉口西南50米,四川省,成都市,,生活服务;物流速递;物流速递
103.619825,30.265983,圆通速递,寿安镇蒲新路西段鹤景名苑98号,四川省,成都市,,生活服务;物流速递;物流速递
103.503788,30.299369,圆通速递,安居街(西来镇),四川省,成都市,西来镇,生活服务;物流速递;物流速递
103.518490,30.191486,圆通速递,鹤山镇南丝路70号,四川省,成都市,鹤山,生活服务;物流速递;物流速递
103.422708,30.241280,圆通速递,大兴镇蒲塘路农商银行前50米,四川省,成都市,,生活服务;物流速递;物流速递
103.540054,30.206806,圆通速递,鹤山镇县城工业集中发展区工业南路29号佳晟印务包装有限公司内,四川省,成都市,,生活服务;物流速递;物流速递
103.511284,30.296062,圆通速递,寿高路,四川省,成都市,,生活服务;物流速递;物流速递
103.521751,30.199405,圆通速递(江东国际店),盐井路与海川路交叉路口往东南约50米(江东国际),四川省,成都市,鹤山,生活服务;物流速递;物流速递
103.501657,30.174682,中通速递(蒲江公司),一零六省道近鹤山镇西南小学正南方向100米,四川省,成都市,,生活服务;物流速递;物流速递
103.415821,30.242626,快递物流点,蒲塘路,四川省,成都市,,生活服务;物流速递;物流速递
103.622624,30.271262,极兔速递,百合路99号,四川省,成都市,,生活服务;物流速递;物流速递
103.520074,30.192606,极兔速递,南丝路与石象街交叉路口西侧(驭广小区),四川省,成都市,鹤山,生活服务;物流速递;物流速递
103.509317,30.192931,极兔速递,龙江街与成祥街交叉路口北侧(兰苑东侧),四川省,成都市,鹤山,生活服务;物流速递;物流速递
103.373827,30.287294,极兔速递,京昆线与蒲塘路交叉路口往西南约100米,四川省,成都市,,生活服务;物流速递;物流速递
103.420479,30.240147,大兴中通速递,大西路街10,四川省,成都市,,生活服务;物流速递;物流速递
103.623533,30.271962,快递物流之家,利民路北段与蒲回路交叉路口往西约100米,四川省,成都市,,生活服务;物流速递;物流速递
103.512396,30.195227,中通快递蒲江分公司,邮政巷43号,四川省,成都市,鹤山,生活服务;物流速递;物流速递
103.623480,30.271912,安能快递·物流,利民路北段附近,四川省,成都市,,生活服务;物流速递;物流速递
103.548959,30.220133,极兔速递蒲江集散点,工业北路301号9幢1层,四川省,成都市,,生活服务;物流速递;物流速递
103.524298,30.208527,极兔速递蒲江集散点,鹤山街道工业北路205号2栋1层,四川省,成都市,,生活服务;物流速递;物流速递
103.626687,30.271004,中国邮政(寿安邮政支局),蒲新路东段街3,四川省,成都市,,生活服务;邮局;邮局
103.504526,30.299061,韵达快递,寿高路与藕花路交叉口东北150米,四川省,成都市,西来镇,生活服务;物流速递;物流速递
103.622506,30.275841,徐州物流,[],四川省,成都市,,生活服务;物流速递;物流仓储场地
103.515032,30.199915,东安物流,鹤山镇桫椤路下段79号,四川省,成都市,鹤山,生活服务;物流速递;物流速递
103.648791,30.268079,众联物流,博世路东50米,四川省,成都市,,生活服务;物流速递;物流速递
103.623170,30.253656,中国邮政,[],四川省,成都市,,生活服务;邮局;邮局
103.621905,30.271069,安能物流,梧桐路,四川省,成都市,,生活服务;物流速递;物流速递
103.630781,30.264239,长吉物流,利民路南段,四川省,成都市,,生活服务;物流速递;物流速递
103.639055,30.269362,安能物流,寿安镇迎宾大道428号,四川省,成都市,,生活服务;物流速递;物流速递
103.630160,30.272984,丰裕物流,蒲新路东段30附1号附近,四川省,成都市,,生活服务;物流速递;物流速递
103.414105,30.325921,林氏物流,京昆线(天天加油站西北侧),四川省,成都市,,生活服务;物流速递;物流速递
103.506748,30.299083,龙邦物流,文兴街,四川省,成都市,西来镇,生活服务;物流速递;物流速递
103.506074,30.210934,宇鑫物流,蒲塘路(四川省蒲江县职业中专学校西北侧),四川省,成都市,,生活服务;物流速递;物流速递
103.415804,30.242553,百世快递,大兴镇九仙路西段22号,四川省,成都市,,生活服务;物流速递;物流速递
103.503813,30.299088,西来邮政支局,西来镇安居街261号、263号、265号、267号、269号、271号,四川省,成都市,西来镇,生活服务;邮局;邮局
103.520446,30.193429,大雅物流,平安街与石象街交叉路口东北侧(石象小区),四川省,成都市,鹤山,生活服务;物流速递;物流速递
103.502305,30.189004,衡川物流(鑫旺达),富民路50号-附6、7号,四川省,成都市,,生活服务;物流速递;物流速递
103.505964,30.211457,蒲江长吉物流,职业中学斜对面,四川省,成都市,,生活服务;物流速递;物流速递
103.374161,30.292287,蒲江县大塘邮政支局,大塘镇北街35号37号39号,四川省,成都市,,生活服务;邮局;邮局
103.557676,30.224789,蒲江县天华邮政支局,九莲村11组,四川省,成都市,,生活服务;邮局;邮局
103.416283,30.242015,蒲江县大兴邮政支局,大兴镇九仙路西段7号附1号7号附2号7号附3号7号附4号,四川省,成都市,,生活服务;邮局;邮局
103.518302,30.193314,京东物流成都蒲江站,东驭街26号,四川省,成都市,鹤山,生活服务;物流速递;物流速递
103.520726,30.201471,申通快递(蒲江分公司),鹤山镇飞龙路153号,四川省,成都市,鹤山,生活服务;物流速递;物流速递
103.455547,30.163222,韵达快递(银杏路),朝阳湖镇朝阳湖银杏路96号,四川省,成都市,,生活服务;物流速递;物流速递
103.375772,30.285003,中通快递(蒲江分部),南街48号,四川省,成都市,,生活服务;物流速递;物流速递
103.516390,30.192696,韵达快递(家钰路),鹤山镇家钰路10号,四川省,成都市,鹤山,生活服务;物流速递;物流速递
103.369427,30.287256,天天快递(大塘分部),大塘镇西街105号附近,四川省,成都市,,生活服务;物流速递;物流速递
103.626650,30.265890,天天快递(寿安营业部),半边街41号,四川省,成都市,,生活服务;物流速递;物流速递
103.496644,30.156819,中通快递(蒲江分部),S106(川西路),四川省,成都市,,生活服务;物流速递;物流速递
103.374362,30.287545,申通快递(大唐营业部),G318(沪聂线),四川省,成都市,,生活服务;物流速递;物流速递
103.513429,30.193716,京东快递,鹤翔街25号附近,四川省,成都市,鹤山,生活服务;物流速递;物流速递
103.423061,30.239968,快递代收,蒲塘路,四川省,成都市,,生活服务;物流速递;物流速递
103.526141,30.204545,安能物流(工业大道上段),鹤山镇工业北路301号蒲江电商创业园,四川省,成都市,,生活服务;物流速递;物流速递
103.514160,30.194196,蒲江县驭虹路邮政支局,鹤山镇驭虹路76号,四川省,成都市,鹤山,生活服务;邮局;邮局
103.377001,30.175290,快递之家,兴成大道与东升街交叉口,四川省,成都市,,生活服务;物流速递;物流速递
103.623570,30.271565,申通快递,寿安镇围镇路43号,四川省,成都市,,生活服务;物流速递;物流速递
103.378374,30.175298,申通快递,东升街与西岭街交叉口东南50米,四川省,成都市,,生活服务;物流速递;物流速递
103.441086,30.307133,中通快递,复兴乡河北街65号,四川省,成都市,,生活服务;物流速递;物流速递
103.505641,30.196366,中通快递,县南街24附近,四川省,成都市,鹤山,生活服务;物流速递;物流速递
103.373834,30.290404,申通快递,北街与官塘街交叉口南100米,四川省,成都市,,生活服务;物流速递;物流速递
103.456980,30.163919,中通快递,朝阳湖镇朝阳湖银杏路231号,四川省,成都市,,生活服务;物流速递;物流速递
103.518526,30.192672,百世快递,鹤山镇广定路52号附1号,四川省,成都市,鹤山,生活服务;物流速递;物流速递
103.346301,30.248597,中通快递,县南街(东明石化东北侧约150米),四川省,成都市,,生活服务;物流速递;物流速递
103.373822,30.290707,百世快递,北街与官塘街交叉口南50米,四川省,成都市,,生活服务;物流速递;物流速递
103.502821,30.189191,申通快递,鹤山街道富民路63号,四川省,成都市,,生活服务;物流速递;物流速递
103.441506,30.305764,百世快递,寿高路,四川省,成都市,,生活服务;物流速递;物流速递
103.441599,30.304360,中通快递,九曲路与寿高路交叉口北200米,四川省,成都市,,生活服务;物流速递;物流速递
103.516728,30.198266,天天快递,大塘镇南街17号,四川省,成都市,鹤山,生活服务;物流速递;物流速递
103.349304,30.251832,申通快递,北街与明月路交叉路口东北侧(甘溪学校南侧约100米),四川省,成都市,,生活服务;物流速递;物流速递
103.347308,30.249158,申通快递,县南街(甘溪镇人民政府南侧约100米),四川省,成都市,,生活服务;物流速递;物流速递
103.448224,30.163302,百世快递,银杏路与杨柳路交叉路口往西约100米,四川省,成都市,,生活服务;物流速递;物流速递
103.448361,30.163354,中通快递,[],四川省,成都市,,生活服务;物流速递;物流速递
103.348236,30.251121,百世快递,县南街与甘泉路交叉路口往西南约150米,四川省,成都市,,生活服务;物流速递;物流速递
103.378133,30.180077,中通快递,西成路(成佳客运站),四川省,成都市,,生活服务;物流速递;物流速递
103.348004,30.250337,蒲江县甘溪邮政代办所,甘溪镇南街53号,四川省,成都市,,生活服务;邮局;邮局
103.378127,30.180048,中国邮政(成佳邮政代办所),[],四川省,成都市,,生活服务;邮局;邮局
103.422866,30.125736,白云邮政代办所,白云乡朝阳路53号,四川省,成都市,,生活服务;邮局;邮局
103.417463,30.241669,中国邮政(村邮乐购便民服务站),蒲塘路,四川省,成都市,,生活服务;生活服务场所;生活服务场所
103.624027,30.272343,百世快递(利民路北段店),寿安镇利民北段130号,四川省,成都市,,生活服务;物流速递;物流速递
103.507864,30.302594,中国邮政便民服务站,[],四川省,成都市,西来镇,生活服务;生活服务场所;生活服务场所
103.376993,30.171358,中国邮政便民服务,[],四川省,成都市,,生活服务;生活服务场所;生活服务场所
103.378818,30.291813,余氏东风物流,县东街,四川省,成都市,,生活服务;物流速递;物流速递
103.407083,30.320503,国峰物流信息部,京昆线(浦江中业石油有限公司加油站西南侧约100米),四川省,成都市,,生活服务;物流速递;物流速递
103.375627,30.286364,全峰快递,新街上段与蒲塘路交叉口东南150米附近,四川省,成都市,,生活服务;物流速递;物流速递
103.451435,30.162470,全峰快递,[],四川省,成都市,,生活服务;物流速递;物流速递
103.377840,30.176352,中通快运,麟凤街,四川省,成都市,,生活服务;物流速递;物流速递
103.526887,30.202104,成都畅帛物流,蒲砚街与金相路交叉路口往东北约150米,四川省,成都市,,生活服务;物流速递;物流速递
103.376656,30.283312,大塘冷链物流基地,蒲塘路,四川省,成都市,,生活服务;物流速递;物流速递
103.440461,30.302964,四川省成都市蒲江县复兴邮政代办所,复兴乡复兴街37号,四川省,成都市,,生活服务;邮局;邮局
103.524021,30.194195,众邮快递,飞虎路(公园里),四川省,成都市,鹤山,生活服务;物流速递;物流速递
103.411584,30.323509,成都麟瑞物流有限公司,龙南路与108国道交叉口西南100米,四川省,成都市,,生活服务;物流速递;物流速递
103.543735,30.216746,中通快运(蒲江分公司),工业北路98号附18号,四川省,成都市,,生活服务;物流速递;物流速递
103.414483,30.242931,大兴镇物流配送服务点,大兴镇,四川省,成都市,,生活服务;物流速递;物流速递
103.523156,30.195213,成都宏跃物流有限公司,广定路,四川省,成都市,鹤山,生活服务;物流速递;物流速递
103.619153,30.275628,中食成都冷藏物流有限公司,寿安镇绕城路88号中食,四川省,成都市,,生活服务;物流速递;物流速递
103.632301,30.276660,壹米滴答金桥物流,蒲回路,四川省,成都市,,生活服务;物流速递;物流速递
103.375771,30.284986,中通快递大塘营业厅(公司),[],四川省,成都市,,生活服务;物流速递;物流速递
103.421140,30.240869,快递代发水果纸箱,[],四川省,成都市,,生活服务;物流速递;物流速递|购物服务;购物相关场所;购物相关场所
103.514986,30.200451,浦江蓄电瓶仓储物流中心,桫椤路桫椤路下段,四川省,成都市,鹤山,生活服务;物流速递;物流速递
103.500444,30.213918,众联湘誉物流有限公司,蒲塘路,四川省,成都市,,生活服务;物流速递;物流速递
103.415690,30.242685,安能物流大兴营业部,蒲塘路26附近,四川省,成都市,,生活服务;物流速递;物流速递
103.500086,30.195513,力展物流蒲江配送中心,彭傍山路14号附10号,四川省,成都市,,生活服务;物流速递;物流仓储场地
103.378148,30.180097,成佳快递公共服务站,[],四川省,成都市,,生活服务;物流速递;物流速递
103.522193,30.200294,成都鑫蓉津物流有限公司,[],四川省,成都市,鹤山,生活服务;物流速递;物流速递
103.549013,30.219245,壹米滴答·金桥物流,工业北路301号(蒲江县创新创业孵化园),四川省,成都市,,生活服务;物流速递;物流速递
103.510493,30.298325,申通快递西来营业厅,桥楼街95号,四川省,成都市,西来镇,生活服务;物流速递;物流速递
103.439691,30.304142,国通快递浦江县·复兴分部,[],四川省,成都市,,生活服务;物流速递;物流速递
103.590175,30.292536,西南水果电商物流中心,寿安镇松华新街155号,四川省,成都市,,生活服务;物流速递;物流仓储场地
103.518292,30.193299,京东快递成都蒲江营业部,[],四川省,成都市,鹤山,生活服务;物流速递;物流速递
103.547860,30.218429,龙之成冷藏货运物流中心,工业北路,四川省,成都市,,生活服务;物流速递;物流速递
103.518350,30.198837,成都锐特三合物流有限公司,盐井六街21西南70米,四川省,成都市,鹤山,生活服务;物流速递;物流速递
103.615703,30.264300,成都鑫莱福大件仓储物流有限公司,蒲回路,四川省,成都市,,生活服务;物流速递;物流速递
103.418930,30.240879,中通快运大兴镇营业厅,大西路街10号,四川省,成都市,,生活服务;物流速递;物流速递
103.378131,30.180058,成佳会所,西成路同心家园对面,四川省,成都市,,生活服务;物流速递;物流速递
103.517118,30.198751,苏宁易购(飞龙路店),飞龙路40号附近,四川省,成都市,鹤山,购物服务;家电电子卖场;苏宁|生活服务;物流速递;物流速递
103.509953,30.298872,蒲江西来供电营业厅,安居街与藕花街交叉路口西侧(西来镇),四川省,成都市,西来镇,生活服务;美容美发店;美容美发店
103.379359,30.174971,成佳镇电子商务服务站,东升街,四川省,成都市,,生活服务;生活服务场所;生活服务场所
103.518237,30.193390,浦江县京东服务中心,东驭路26号,四川省,成都市,鹤山,生活服务;物流速递;物流速递
103.626546,30.270542,利诚货运,寿安镇蒲新路东段6-8号,四川省,成都市,,生活服务;物流速递;物流速递
103.525290,30.197072,顺丰速运,鹤山镇清江大道31号,四川省,成都市,鹤山,生活服务;物流速递;物流速递
103.516821,30.187348,浦江县金鑫货运有限公司,鹤山镇春江巷3号西南方向140米,四川省,成都市,,生活服务;物流速递;物流速递
103.423837,30.196213,成都峨眉山麻子坝骆之家,景区公路179公里左侧100米,四川省,成都市,,住宿服务;住宿服务相关;住宿服务相关
103.514924,30.200327,鑫东安货运,桫椤路下段89号附近,四川省,成都市,鹤山,生活服务;物流速递;物流速递
103.670633,30.282376,特驱饮料配送中心,新蒲路,四川省,成都市,,生活服务;物流速递;物流速递
103.679669,30.290605,如意货运信息咨询部,新蒲路,四川省,成都市,,生活服务;物流速递;物流速递
103.622858,30.271479,顺丰输速运,利民路北段与蒲回路交叉路口往西约200米,四川省,成都市,,生活服务;物流速递;物流速递
103.615867,30.264360,批发配送中心,蒲回路,四川省,成都市,,生活服务;物流速递;物流速递
103.631341,30.263951,特驱饲料配送中心,利民路南段与金家路交叉路口往东南约100米,四川省,成都市,,生活服务;物流速递;物流速递|购物服务;购物相关场所;购物相关场所
103.640780,30.257273,顺心捷达,[],四川省,成都市,,生活服务;物流速递;物流速递
103.631281,30.273662,菜鸟驿站,蒲回路与迎宾大道交叉路口往南约200米(剑桥小镇),四川省,成都市,,生活服务;物流速递;物流速递
103.517308,30.252716,特驱饲料配送中心,[],四川省,成都市,,生活服务;物流速递;物流速递|购物服务;购物相关场所;购物相关场所
103.512432,30.208148,韵达老城区分部,了翁路291号,四川省,成都市,,生活服务;物流速递;物流速递
103.548564,30.206650,张塘村信息服务站,[],四川省,成都市,,生活服务;物流速递;物流速递
103.527232,30.198249,蒲江建国货运,金马村二组1号,四川省,成都市,,生活服务;物流速递;物流速递
103.517525,30.200460,快邮驿站,[],四川省,成都市,鹤山,生活服务;物流速递;物流速递
103.422402,30.240390,特驱饲料配送中心,蒲塘路,四川省,成都市,,生活服务;物流速递;物流速递
103.518572,30.202006,老庞酒席配送,盐井路16号-附2号附近,四川省,成都市,鹤山,生活服务;物流速递;物流速递
103.422030,30.240890,大兴发货站,蒲塘路,四川省,成都市,,生活服务;物流速递;物流速递
103.414858,30.243112,中通大兴分部,兴源街15,四川省,成都市,,生活服务;物流速递;物流速递
103.413838,30.243643,中通大兴分部,大兴镇九仙路77号,四川省,成都市,,生活服务;物流速递;物流速递
103.518902,30.199558,宅急送蒲江网点,飞龙路与盐井七街交叉路口北侧(滨江新城),四川省,成都市,鹤山,生活服务;物流速递;物流速递
103.368798,30.284524,大塘建国货运,大塘镇新街115号,四川省,成都市,,生活服务;物流速递;物流速递
103.524495,30.198188,鸿运货运信息部,朝阳大道294号附近,四川省,成都市,鹤山,生活服务;物流速递;物流速递
103.492176,30.153933,金鑫货运,S106(川西路),四川省,成都市,,生活服务;物流速递;物流速递
103.377878,30.176285,立盟航空运输,麟凤街与西成路交叉路口往南约150米,四川省,成都市,,生活服务;物流速递;物流速递
103.508568,30.192411,韵达EXPRESS(桫椤分部),成祥街56号附近,四川省,成都市,鹤山,生活服务;物流速递;物流速递
103.348194,30.251147,韵达EXPRESS甘溪服务点,[],四川省,成都市,,生活服务;物流速递;物流速递
103.526933,30.202055,成都俊辉货物运输服务部,鹤山镇金马路18号,四川省,成都市,,生活服务;物流速递;物流速递
103.510352,30.193956,蒲江县金龙顺达运业有限公司,鹤山北路42号,四川省,成都市,鹤山,生活服务;物流速递;物流速递
103.520652,30.201333,菜鸟驿站(成都清江南苑店),鹤山街道飞龙路157号,四川省,成都市,鹤山,生活服务;物流速递;物流速递
103.526178,30.201602,四川省汽车运输蒲江汽车队,[],四川省,成都市,,生活服务;物流速递;物流速递
103.422248,30.240387,富森饲料蒲江大兴配送中心,蒲塘路,四川省,成都市,,生活服务;物流速递;物流速递|购物服务;购物相关场所;购物相关场所
103.640795,30.257290,会理众诺运输有限公司,新蒲路与利民路南段交叉路口往东北约50米,四川省,成都市,,生活服务;生活服务场所;生活服务场所
103.519881,30.201884,蒲江宏建建材配送中心,[],四川省,成都市,鹤山,生活服务;生活服务场所;生活服务场所
103.558236,30.226416,峨眉山佛光水泥,水井街2号附近,四川省,成都市,,购物服务;家居建材市场;建材五金市场
103.526997,30.198316,鑫洪配送,成渝环线高速(顺城源居东侧约200米),四川省,成都市,,生活服务;生活服务场所;生活服务场所
103.556036,30.222732,蓉彬货运信息部,鹤山街道鹤山镇天华正街65号,四川省,成都市,,生活服务;物流速递;物流速递
103.455093,30.263758,水口村物资配送中心,西成路,四川省,成都市,,生活服务;生活服务场所;生活服务场所
103.655871,30.269387,峨眉山佛光水泥,新蒲路,四川省,成都市,,公司企业;公司;公司
103.520690,30.204325,峨眉山佛光水泥,清江大道12号附近,四川省,成都市,,购物服务;家居建材市场;建材五金市场|公司企业;公司;公司
103.543773,30.216771,日日顺星级服务中心,工业北路293附近,四川省,成都市,,生活服务;物流速递;物流速递|生活服务;维修站点;维修站点
103.501907,30.175353,峨眉山佛光水泥,106省道西50米,四川省,成都市,,购物服务;家居建材市场;建材五金市场
103.412767,30.323795,旺江饲料邛崃蒲江复兴配送中心,寿高路,四川省,成都市,,生活服务;物流速递;物流速递
103.615477,30.263218,菜鸟驿站(隆盛社区宏伟移动店611630067店),寿安街道隆盛小区,四川省,成都市,,生活服务;物流速递;物流速递
103.619827,30.265985,菜鸟驿站(成都寿安蒲新西路98店),寿安镇蒲新西路西段98号,四川省,成都市,,生活服务;物流速递;物流速递
103.504450,30.188230,菜鸟驿站(成都浦江龙韵华庭正门店),鹤山街道河滨南路125号龙韵华庭,四川省,成都市,鹤山,生活服务;物流速递;物流速递
103.518476,30.191478,菜鸟驿站(成都蒲江东港蓝湾前门店),鹤山街道南丝路70号东港蓝湾前门,四川省,成都市,鹤山,生活服务;物流速递;物流速递
103.497855,30.202769,蒲江县天武日用品配送中心,桫椤路中段67号附近,四川省,成都市,,购物服务;购物相关场所;购物相关场所|生活服务;生活服务场所;生活服务场所
103.510438,30.298332,菜鸟驿站(成都蒲江西来镇桥楼街95号店),西来镇桥楼街95号,四川省,成都市,西来镇,生活服务;物流速递;物流速递
104.268154,30.879450,中国邮政速递物流(便民服务店),十陵下街32号36号,四川省,成都市,大弯,生活服务;生活服务场所;生活服务场所
104.269235,30.880063,圆通速递,大弯北路121号,四川省,成都市,大弯,生活服务;物流速递;物流速递
104.262519,30.878930,圆通速递,青江东路121号1栋-附30号附近,四川省,成都市,大弯,生活服务;物流速递;物流速递
104.201220,30.881753,圆通速递,茶树街与草市巷交叉路口往东北约50米,四川省,成都市,,生活服务;物流速递;物流速递
104.279270,30.819886,中通速递,桂红路,四川省,成都市,,生活服务;物流速递;物流速递
104.294443,30.852341,圆通速递,复兴大道与青白江大道交叉路口西侧,四川省,成都市,,生活服务;物流速递;物流速递
104.205329,30.884072,圆通速递,弥牟下街53号附近,四川省,成都市,,生活服务;物流速递;物流速递
104.390609,30.746390,圆通速递,清泉镇青石路131号,四川省,成都市,,生活服务;物流速递;物流速递
104.247518,30.879306,圆通速递(教育街服务部),教育街48号附5号,四川省,成都市,红阳,生活服务;物流速递;物流速递
104.264349,30.886499,圆通速递(石家碾东路),石家碾东路95号附22号,四川省,成都市,,生活服务;物流速递;物流速递
104.319146,30.853711,圆通速递(城巷营业部),西街85号,四川省,成都市,,生活服务;物流速递;物流速递
104.275657,30.874980,中通速递(青白江紫荆营业部),紫荆东街4号附近,四川省,成都市,大弯,生活服务;物流速递;物流速递
104.285163,30.772998,极兔速递,商贸街与裕康街交叉路口西北侧,四川省,成都市,,生活服务;物流速递;物流速递
104.292853,30.850749,韵达速递(青白江分拣中心店),大同镇工业区复兴大道840号,四川省,成都市,,生活服务;物流速递;物流速递
104.323238,30.846590,J&T极兔速递(青白江网点),城厢镇清泉大道718号中益集成五金机电市场5号大厅,四川省,成都市,,生活服务;物流速递;物流速递
104.238671,30.852403,成都轩和国际物流中心,[],四川省,成都市,,生活服务;物流速递;物流仓储场地
104.171782,30.862627,瑞宇物流展维物流成都集散中心,金芙蓉大道(蓉春源农副产品集散基地),四川省,成都市,,生活服务;物流速递;物流速递
104.315964,30.842049,中国物流公司成都青白江物流中心,城厢镇香岛大道集装箱物流园区,四川省,成都市,,生活服务;物流速递;物流仓储场地
104.302585,30.848486,韵达快运,兴业大道南青龙建材城6区附4栋106号,四川省,成都市,,生活服务;生活服务场所;生活服务场所
104.324808,30.841809,成铁物流城厢物流中心特1线,城厢镇香岛大道,四川省,成都市,,生活服务;生活服务场所;生活服务场所
104.250219,30.809130,港富物流,青白江大道99号一期物流一层7号,四川省,成都市,,生活服务;物流速递;物流速递
104.286836,30.841067,厚诚陶玻物流,青白江大道东,四川省,成都市,,生活服务;物流速递;物流速递
104.248844,30.863813,成都豪龙物流有限公司,通站路299号,四川省,成都市,,生活服务;物流速递;物流仓储场地
104.186874,30.873748,方瑞物流,正兴路,四川省,成都市,,生活服务;物流速递;物流速递
104.171306,30.863657,中流物流(成都中流分拨中心),四川省青白江区蓉春源农副产品集散基地12栋,四川省,成都市,,生活服务;物流速递;物流速递
104.195307,30.860829,澳邦物流,八阵大道辅路,四川省,成都市,,生活服务;物流速递;物流速递
104.186079,30.874216,远豪物流,正兴路,四川省,成都市,,生活服务;物流速递;物流速递
104.187046,30.872846,集诚物流,正兴路,四川省,成都市,,生活服务;物流速递;物流速递
104.174343,30.863660,速邦物流,金芙蓉大道(蓉春源农副产品集散基地东侧约150米),四川省,成都市,,生活服务;物流速递;物流速递
104.203239,30.867459,弘浩物流,国光路,四川省,成都市,,生活服务;物流速递;物流速递
104.187482,30.874354,昌成物流,正兴路(蜀韵南庭西北侧约250米),四川省,成都市,,生活服务;物流速递;物流速递
104.294612,30.850852,博驰物流,[],四川省,成都市,,生活服务;物流速递;物流速递
104.230296,30.889696,力展物流,同华大道西段,四川省,成都市,,生活服务;生活服务场所;生活服务场所
104.274922,30.828407,志合物流,青白江大道,四川省,成都市,,生活服务;物流速递;物流速递
104.185784,30.875761,力展物流,正兴路,四川省,成都市,,生活服务;物流速递;物流速递
104.185588,30.874402,美川物流,正兴路,四川省,成都市,,生活服务;物流速递;物流速递
104.185828,30.874204,天余物流,正兴路,四川省,成都市,,生活服务;物流速递;物流速递
104.187509,30.874053,龙瑶物流,正兴路(蜀韵南庭西北侧约200米),四川省,成都市,,生活服务;物流速递;物流速递
104.186249,30.875195,蓬大物流,正兴路,四川省,成都市,,生活服务;物流速递;物流速递
104.249985,30.808524,众杰物流,利民路,四川省,成都市,,生活服务;物流速递;物流速递
104.186320,30.874956,鸿捷物流,正兴路,四川省,成都市,,生活服务;物流速递;物流速递
104.249979,30.808336,绍成物流,利民路,四川省,成都市,,生活服务;物流速递;物流速递
104.186240,30.875264,康捷物流,正兴路,四川省,成都市,,生活服务;物流速递;物流速递
104.187473,30.873657,飞豪物流,正兴路(蜀韵南庭西北侧约200米),四川省,成都市,,生活服务;物流速递;物流速递
104.171897,30.864821,洪诚物流,弥牟镇货运大道蓉春源农副产品集散基地3栋,四川省,成都市,,生活服务;物流速递;物流速递
104.246767,30.814586,建渠物流,同心大道与民盛路交叉路口东侧(大港陶瓷建材城),四川省,成都市,,生活服务;物流速递;物流仓储场地
104.185954,30.873571,蓉达物流,正兴路,四川省,成都市,,生活服务;物流速递;物流速递
104.245937,30.813675,飞豪物流,同心大道与民盛路交叉路口往南约50米,四川省,成都市,,生活服务;物流速递;物流速递
104.245593,30.813229,仁禾物流,同心路2幢附近,四川省,成都市,,生活服务;物流速递;物流速递
104.245279,30.812878,美川物流,同心路1栋附近,四川省,成都市,,生活服务;物流速递;物流速递
104.246493,30.814313,方顺物流,同心路与圣宝路交叉口东南50米,四川省,成都市,,生活服务;物流速递;物流速递
104.245364,30.812973,爱业物流,祥福镇大港建材城同心路2栋,四川省,成都市,,生活服务;物流速递;物流速递
104.246250,30.814035,鑫盈物流,祥福镇大港建材城14号门,四川省,成都市,,生活服务;物流速递;物流速递
104.251510,30.815345,泓通物流,双强路与祥虎大道交叉口西150米,四川省,成都市,,生活服务;物流速递;物流速递
104.173151,30.864530,山东光至物流分拨中心,金芙蓉大道(蓉春源农副产品集散基地东北侧),四川省,成都市,,生活服务;物流速递;物流速递
104.295286,30.850847,金宣物流邹氏物流,青白江大道与兴业大道交叉路口往南约100米,四川省,成都市,,生活服务;物流速递;物流速递
104.191512,30.861198,韵天物流,[],四川省,成都市,,生活服务;物流速递;物流速递
104.186079,30.873759,蓉联物流,正兴路,四川省,成都市,,生活服务;物流速递;物流速递
104.206543,30.866188,诚吉物流,金光路华川银地国际建材城卫浴区29栋19-22号,四川省,成都市,,生活服务;物流速递;物流速递
104.328803,30.841544,文汉物流,清泉大道1100号,四川省,成都市,,生活服务;物流速递;物流速递
104.330232,30.839557,文汉物流,城厢镇桂红路,四川省,成都市,,生活服务;物流速递;物流仓储场地
104.308269,30.855833,成都美君物流,通汇大道,四川省,成都市,,生活服务;物流速递;物流速递
104.281708,30.824920,圆通快递(祥福分部),滨河北路38号附3号,四川省,成都市,,生活服务;物流速递;物流速递
104.215481,30.867654,丰树青白江物流中心,[],四川省,成都市,,生活服务;物流速递;物流速递
104.327699,30.841032,青白江宝湾国际物流中心,香岛大道与清泉大道一段交叉口南350米,四川省,成都市,,生活服务;物流速递;物流仓储场地
104.250148,30.809180,成都任氏物流公司,利民路,四川省,成都市,,生活服务;物流速递;物流速递
104.216373,30.891656,顺邦物流中心,华金大道一段555号,四川省,成都市,,生活服务;物流速递;物流速递
104.187268,30.874746,四川扬帆远航物流源广旺物流,正兴路,四川省,成都市,,生活服务;物流速递;物流速递
104.310557,30.844671,四川物流集装箱,香岛大道8号现代物流大厦b区16楼,四川省,成都市,,生活服务;物流速递;物流仓储场地|公司企业;公司;公司
104.244913,30.812576,金鸿物流四联货运小钱物流,同心大道,四川省,成都市,,生活服务;物流速递;物流速递
104.170410,30.863187,成都君来祥物流承运单位仓储中心,金新路,四川省,成都市,,生活服务;物流速递;物流速递
104.244065,30.828069,成都泽南贸易公司物流中心,祥福镇民强路794号,四川省,成都市,,生活服务;生活服务场所;生活服务场所
104.185892,30.873629,宇鑫物流,青白江北城分拨中心1幢,四川省,成都市,,生活服务;物流速递;物流速递
104.252162,30.846063,三合物流,青解路(青白江冻库),四川省,成都市,,生活服务;物流速递;物流速递
104.203239,30.867459,弘浩物流,国光路,四川省,成都市,,生活服务;物流速递;物流速递
104.187482,30.874354,昌成物流,正兴路(蜀韵南庭西北侧约250米),四川省,成都市,,生活服务;物流速递;物流速递
104.186034,30.873525,金通物流,正兴路,四川省,成都市,,生活服务;物流速递;物流速递
104.187046,30.872846,集诚物流,正兴路,四川省,成都市,,生活服务;物流速递;物流速递
104.240094,30.851601,德坤物流,轩众国际物流中心,四川省,成都市,,生活服务;物流速递;物流速递
104.274922,30.828407,志合物流,青白江大道,四川省,成都市,,生活服务;物流速递;物流速递
104.243839,30.874591,鹏辉物流,团结南路79号附近,四川省,成都市,,生活服务;物流速递;物流速递
104.276696,30.830320,京东物流,青白江大道,四川省,成都市,,生活服务;物流速递;物流速递
104.290645,30.846710,君健物流,青龙建材市场A栋23号,四川省,成都市,,生活服务;物流速递;物流速递
104.296287,30.850897,八维物流,兴业大道,四川省,成都市,,生活服务;物流速递;物流速递
104.294612,30.850852,博驰物流,[],四川省,成都市,,生活服务;物流速递;物流速递
104.308351,30.855836,宇鑫物流,万贯机电市场九号门,四川省,成都市,,生活服务;物流速递;物流速递
104.308565,30.855799,长吉物流,城厢镇清泉大道一段716号万贯五金机电配送市场,四川省,成都市,,生活服务;物流速递;物流速递
104.222028,30.891895,京东物流,[],四川省,成都市,,生活服务;物流速递;物流速递
104.254679,30.888491,韵达物流,[],四川省,成都市,,生活服务;物流速递;物流速递
104.245279,30.812878,美川物流,同心路1栋附近,四川省,成都市,,生活服务;物流速递;物流速递
104.294498,30.850559,宇鑫物流,青白江大道辅路,四川省,成都市,,生活服务;物流速递;物流速递
104.186106,30.873635,德鑫物流(海灏物流),正兴路,四川省,成都市,,生活服务;物流速递;物流速递
104.246767,30.814586,建渠物流,同心大道与民盛路交叉路口东侧(大港陶瓷建材城),四川省,成都市,,生活服务;物流速递;物流仓储场地
104.291182,30.882995,中国邮政(大同邮政所),凤凰大道三段383号,四川省,成都市,,生活服务;邮局;邮局
104.430085,30.698956,成都市人和邮政代办所,桂红路车站村3组100号,四川省,成都市,,生活服务;邮局;邮局
104.235769,30.881170,力展物流,团结西路498号附4号,四川省,成都市,,生活服务;生活服务场所;生活服务场所
104.394616,30.748737,成都市清泉邮政支局,平安路一段29-31,四川省,成都市,,生活服务;邮局;邮局
104.230296,30.889696,力展物流,同华大道西段,四川省,成都市,,生活服务;生活服务场所;生活服务场所
104.302432,30.848539,金驰物流,青龙国际装饰城6区附3栋110号,四川省,成都市,,生活服务;物流速递;物流速递
104.259159,30.887044,中国邮政(石家碾路邮政所),石家碾中路121号,四川省,成都市,,生活服务;邮局;邮局
104.188081,30.868487,长吉物流,弥牟镇108国道北辰型材市场5栋,四川省,成都市,,生活服务;物流速递;物流速递
104.317195,30.858623,申通快递,城厢镇下北街101号,四川省,成都市,,生活服务;物流速递;物流速递
104.293391,30.851674,百世快递,大同镇复兴大道840号,四川省,成都市,,生活服务;物流速递;物流速递
104.278713,30.819554,申通快递,G108(金芙蓉大道),四川省,成都市,,生活服务;物流速递;物流速递
104.201471,30.878934,申通快递,新兴街29西北100米,四川省,成都市,,生活服务;物流速递;物流速递
104.205831,30.881050,百世快递,弥牟镇民族商贸北街1号栋商贸北街33号,四川省,成都市,,生活服务;物流速递;物流速递
104.201416,30.879004,韵达快递,镇南路与弥牟上街交叉路口往南约100米,四川省,成都市,,生活服务;物流速递;物流速递
104.201535,30.877098,中通快递,[],四川省,成都市,,生活服务;物流速递;物流速递
104.247756,30.876658,申通快递,窄巷子8号附近,四川省,成都市,,生活服务;物流速递;物流速递
104.353348,30.822183,韵达快递,姚渡镇八达路182号,四川省,成都市,,生活服务;物流速递;物流速递
104.391403,30.747184,申通快递,清泉镇商贸街,四川省,成都市,,生活服务;物流速递;物流速递
104.391504,30.747044,天天快递,青石路68东北方向90米,四川省,成都市,,生活服务;物流速递;物流速递
104.313854,30.842718,远成快运,城厢镇香岛大道鸿泰路189号,四川省,成都市,,生活服务;物流速递;物流速递
104.244310,30.812019,中铁物流集团,祥福镇大港建材城同心路1栋,四川省,成都市,,生活服务;物流速递;物流速递
104.249047,30.809516,金宏达物流,利民路,四川省,成都市,,生活服务;物流速递;物流速递
104.187473,30.873998,元天成物流,正兴路(蜀韵南庭西北侧约200米),四川省,成都市,,生活服务;物流速递;物流速递
104.187000,30.874742,仁之和物流,正兴路,四川省,成都市,,生活服务;物流速递;物流速递
104.323884,30.850379,天天快递,马鞍路健生·翡翠港底商,四川省,成都市,,生活服务;生活服务场所;生活服务场所
104.244661,30.812394,宇鑫物流(同心路),同心路大港建材城1栋111(同心路与白店路交叉口北行50米),四川省,成都市,,生活服务;物流速递;物流速递
104.259065,30.887090,成都市石家碾路邮政所,石家碾中路119-125,四川省,成都市,,生活服务;邮局;邮局
104.249939,30.809794,力展物流(大港营业部),大港建材城仓储七区二栋11号附1号,四川省,成都市,,生活服务;物流速递;物流速递
104.246991,30.814826,海风物流(大港店),大港建材城,四川省,成都市,,生活服务;物流速递;物流速递
104.174334,30.863583,浩运物流(成都分公司),金芙蓉大道(蓉春源农副产品集散基地东侧约150米),四川省,成都市,,生活服务;物流速递;物流速递
104.171235,30.864326,海风物流(蓉春源店),蓉春源物流园区6栋7-9号,四川省,成都市,,生活服务;物流速递;物流速递
104.199266,30.860216,海风物流(北辰店),弥牟镇旗舰建材市场4栋蓉界,四川省,成都市,,生活服务;物流速递;物流速递
104.290657,30.846722,力展物流(青龙营业部),大同镇青白江大道2666号青龙国际建材装饰城,四川省,成都市,,生活服务;物流速递;物流速递
104.214281,30.890038,顺邦物流(益海路),G108(八阵大道),四川省,成都市,,生活服务;物流速递;物流速递
104.308271,30.856286,成都兴浩锋物流有限公司(原和风快运),通汇大道附近,四川省,成都市,,生活服务;生活服务场所;生活服务场所
104.173301,30.865349,鸿泰物流(青白江分公司),货运大道大川物流园第10栋,四川省,成都市,,生活服务;物流速递;物流速递
104.188989,30.868837,安能物流(弥牟镇营业部),弥牟镇正兴路219号勾宝发货1区15-16,四川省,成都市,,生活服务;物流速递;物流速递
104.222125,30.892012,顺邦物流(公路港),同华大道西延线青白江东站对面,四川省,成都市,,生活服务;物流速递;物流仓储场地
104.296337,30.798911,中国邮政(红瓦店投递点),大石路与龙赵路交叉口东50米,四川省,成都市,,生活服务;邮局;邮政速递
104.245766,30.847733,力展物流(青白江运营中心),桂平大道与青解路2号桥交叉口北1号门,四川省,成都市,,生活服务;物流速递;物流速递
104.171306,30.863657,中流物流(成都中流分拨中心),四川省青白江区蓉春源农副产品集散基地12栋,四川省,成都市,,生活服务;物流速递;物流速递
104.170003,30.863027,力展物流(蓉春营业部),青白江弥牟镇白马村八组蓉春源物流有限公司库房14栋3-4号,四川省,成都市,,生活服务;生活服务场所;生活服务场所
104.186137,30.873700,力展物流(北辰营业部),北城分拨中心3栋20号,四川省,成都市,,生活服务;生活服务场所;生活服务场所
104.244703,30.812358,成都李强物流,同心路与白店路交叉口北,四川省,成都市,,生活服务;物流速递;物流速递
104.191512,30.861198,韵天物流,[],四川省,成都市,,生活服务;物流速递;物流速递
104.185694,30.874047,微微物流,正兴路,四川省,成都市,,生活服务;物流速递;物流速递
104.186052,30.873766,扎西物流,正兴路,四川省,成都市,,生活服务;物流速递;物流速递
104.186767,30.874893,德贤物流,正兴路,四川省,成都市,,生活服务;物流速递;物流速递
104.206543,30.866188,诚吉物流,金光路华川银地国际建材城卫浴区29栋19-22号,四川省,成都市,,生活服务;物流速递;物流速递
104.186079,30.873759,蓉联物流,正兴路,四川省,成都市,,生活服务;物流速递;物流速递
104.328803,30.841544,文汉物流,清泉大道1100号,四川省,成都市,,生活服务;物流速递;物流速递
104.248695,30.887183,申通快递(红阳东路店),红阳东路1号,四川省,成都市,,生活服务;物流速递;物流速递
104.249154,30.809620,长吉物流(大港建材),大港建材16号门6区9栋22-23,四川省,成都市,,生活服务;物流速递;物流速递
104.330232,30.839557,文汉物流,城厢镇桂红路,四川省,成都市,,生活服务;物流速递;物流仓储场地
104.264299,30.885101,中通快递(青白江区4部),石家碾东路21号附18号,四川省,成都市,,生活服务;物流速递;物流速递
104.246263,30.814049,成都金达物流,同心大道大港建材城3栋114号,四川省,成都市,,生活服务;物流速递;物流速递
104.185454,30.873911,成都重光物流,弥牟镇仁瑞村北辰分拨中心2幢,四川省,成都市,,生活服务;物流速递;物流速递
104.170187,30.863944,上海佳兴物流,金新路,四川省,成都市,,生活服务;物流速递;物流速递
104.186802,30.872763,成都宏源物流,正兴路,四川省,成都市,,生活服务;物流速递;物流速递
104.186401,30.873702,绵阳大兵物流,正兴路,四川省,成都市,,生活服务;物流速递;物流速递
104.308269,30.855833,成都美君物流,通汇大道,四川省,成都市,,生活服务;物流速递;物流速递
104.388575,30.746379,德邦快递,[],四川省,成都市,,生活服务;生活服务场所;生活服务场所
104.350989,30.823392,申通快递(姚度代理点),八达路43号西南90米,四川省,成都市,,生活服务;物流速递;物流速递
104.187491,30.874526,成都市森林物流,正兴路(蜀韵南庭西北侧约250米),四川省,成都市,,生活服务;物流速递;物流速递
104.268066,30.875592,韵达快递(化工路地城铁分部),邮电巷69号,四川省,成都市,大弯,生活服务;物流速递;物流速递
104.292319,30.885506,中铁快运,广大路,四川省,成都市,,生活服务;物流速递;物流速递
104.170903,30.862309,郑州渝辉物流,弥牟镇货运大道蓉春源农副产品集散基地13栋,四川省,成都市,,生活服务;生活服务场所;生活服务场所
104.272934,30.879335,成都市大弯邮政所,文汇路294-296号,四川省,成都市,大弯,生活服务;邮局;邮局
104.249923,30.808438,张二姐物流,[],四川省,成都市,,生活服务;物流速递;物流速递
104.185909,30.874050,意鑫达物流,正兴路,四川省,成都市,,生活服务;物流速递;物流速递
104.275345,30.828874,车滚滚物流,青白江大道1118号7栋112号,四川省,成都市,,生活服务;物流速递;物流速递
104.241890,30.850848,中铁物流集团(成都分拨中心),智慧大道1699号成都轩众国际物流中心,四川省,成都市,,生活服务;生活服务场所;生活服务场所
104.310684,30.855098,京东快递(成都城厢营业部),清泉大道一段万贯五金机电城11栋4号,四川省,成都市,,生活服务;物流速递;物流速递
104.280939,30.885816,京东快递(成都同心营业部),大弯镇凤凰大道三段8号誉府仕家33栋2单元326、328、330、332号铺,四川省,成都市,,生活服务;物流速递;物流速递
104.185051,30.875361,人和物流有限公司,正兴路,四川省,成都市,,生活服务;物流速递;物流速递
104.265816,30.836836,安得物流有限公司,祥福镇博川现代商贸物流基地内,四川省,成都市,,生活服务;物流速递;物流速递
104.308405,30.855829,速尔快递,城厢镇清泉大道716号万贯五金机电配送市场15栋,四川省,成都市,,生活服务;生活服务场所;生活服务场所
104.239489,30.887194,成都市成钢邮政所,华逸路502-504号,四川省,成都市,,生活服务;邮局;邮局
104.246892,30.814716,吉道物流,同心大道,四川省,成都市,,生活服务;物流速递;物流速递
104.246106,30.813868,环球远臻物流,同心大道,四川省,成都市,,生活服务;物流速递;物流速递
104.295331,30.850879,吉道物流,青白江大道与兴业大道交叉路口往南约100米,四川省,成都市,,生活服务;物流速递;物流速递
104.295385,30.850919,德邦快递(青龙建材城城厢营业部),青白江大道2666号青龙建材城5栋附1号,四川省,成都市,,生活服务;物流速递;物流速递
104.210175,30.884997,聚鑫源物流,华金大道1段西北80米,四川省,成都市,,生活服务;物流速递;物流速递
104.187303,30.872732,内江永宏物流,正兴路,四川省,成都市,,生活服务;物流速递;物流速递
104.309693,30.856088,京东快递(清泉站),万贯国际贸易大平台11栋4号,四川省,成都市,,生活服务;物流速递;物流速递
104.202251,30.881926,成都市弥牟邮政支局,弥牟镇弥牟中街25号,四川省,成都市,,生活服务;邮局;邮局
104.252850,30.881489,成都市怡湖邮政支局,红阳街道政府中路180号青白江区邮政局,四川省,成都市,红阳,生活服务;邮局;邮局
104.246617,30.814355,百福胜物流,同心路与圣宝路交叉口东南100米,四川省,成都市,,生活服务;物流速递;物流速递
104.245387,30.812891,鑫三禾物流,同心路2幢附近,四川省,成都市,,生活服务;物流速递;物流速递
104.248889,30.809059,金骠物流,利民路,四川省,成都市,,生活服务;物流速递;物流速递
104.171411,30.865104,陆地联邦物流,白马路与货运大道交叉口东150米,四川省,成都市,,生活服务;物流速递;物流速递
104.166900,30.863333,天海成物流,弥牟镇白马村众德公司对面,四川省,成都市,,生活服务;物流速递;物流速递
104.186239,30.873195,齐鑫联物流,正兴路,四川省,成都市,,生活服务;物流速递;物流速递
104.186356,30.873182,鑫三禾物流,正兴路,四川省,成都市,,生活服务;物流速递;物流速递
104.186937,30.874184,成昌信物流,正兴路,四川省,成都市,,生活服务;物流速递;物流速递
104.186571,30.874968,海灏物流,正兴路,四川省,成都市,,生活服务;物流速递;物流速递
104.216373,30.891656,顺邦物流中心,华金大道一段555号,四川省,成都市,,生活服务;物流速递;物流速递
104.245605,30.813248,诚实守信物流,同心路2幢108号,四川省,成都市,,生活服务;物流速递;物流速递
104.286836,30.841067,厚诚陶玻物流,青白江大道东,四川省,成都市,,生活服务;物流速递;物流速递
104.244849,30.812437,平昌专线物流联盟,同心大道,四川省,成都市,,生活服务;物流速递;物流速递
104.244915,30.812591,翔驰物流,同心路与白店路交叉口东北150米,四川省,成都市,,生活服务;物流速递;物流速递
104.250491,30.808779,曾华顺物流,利民路,四川省,成都市,,生活服务;物流速递;物流速递
104.249985,30.809082,瀚运物流,利民路,四川省,成都市,,生活服务;物流速递;物流速递
104.250220,30.809125,天路通物流,利民路,四川省,成都市,,生活服务;物流速递;物流速递
104.244786,30.812368,点对点物流,同心大道,四川省,成都市,,生活服务;物流速递;物流速递
104.250238,30.808783,世纪兴物流,利民路,四川省,成都市,,生活服务;物流速递;物流速递
104.250148,30.809180,成都任氏物流公司,利民路,四川省,成都市,,生活服务;物流速递;物流速递
104.170178,30.863487,祥楗物流,金新路,四川省,成都市,,生活服务;物流速递;物流速递
104.244873,30.812620,诚攀星星物流,同心大道,四川省,成都市,,生活服务;物流速递;物流速递
104.244984,30.812621,蜀安运物流,同心大道,四川省,成都市,,生活服务;物流速递;物流速递
104.251914,30.845807,成都银犁冷藏物流股份有限公司,祥福镇桂通北路1号,四川省,成都市,,公司企业;公司;公司
104.187482,30.873510,蜀安运物流,正兴路(蜀韵南庭西北侧约200米),四川省,成都市,,生活服务;物流速递;物流速递
104.252775,30.837932,石运来物流,祥福镇青白江建工精品石材园A2-4-18,四川省,成都市,,生活服务;物流速递;物流速递
104.186937,30.874184,兴易物流,正兴路,四川省,成都市,,生活服务;物流速递;物流速递
104.186794,30.874824,速泰物流,正兴路,四川省,成都市,,生活服务;物流速递;物流速递
104.185703,30.874055,路顺通物流,正兴路,四川省,成都市,,生活服务;物流速递;物流速递
104.187536,30.873945,事事通物流,正兴路(蜀韵南庭西北侧约200米),四川省,成都市,,生活服务;物流速递;物流速递
104.186213,30.875287,源鹏物流,正兴路,四川省,成都市,,生活服务;物流速递;物流速递
104.186472,30.873579,政霖物流,正兴路,四川省,成都市,,生活服务;物流速递;物流速递
104.251918,30.846090,杨佳冷链物流,祥福镇桂通北路一号银铸大厦,四川省,成都市,,生活服务;物流速递;物流速递
104.252394,30.840364,余氏东风物流,G108(货运大道),四川省,成都市,,生活服务;物流速递;物流速递
104.186463,30.873052,乐四通物流,正兴路,四川省,成都市,,生活服务;物流速递;物流速递
104.187018,30.874835,金雨龙物流,正兴路,四川省,成都市,,生活服务;物流速递;物流速递
104.247730,30.875666,仕才物流,正和路136号附近,四川省,成都市,,生活服务;物流速递;物流速递
104.221471,30.891825,民心现代物流,同华大道西段顺邦公路港2期,四川省,成都市,,生活服务;物流速递;物流速递
104.296817,30.851301,翔驰物流,兴业大道,四川省,成都市,,生活服务;物流速递;物流速递
104.171344,30.864340,坤圆时代物流(蓉春源店),弥牟镇蓉春源物流园区6栋1-5号,四川省,成都市,,生活服务;物流速递;物流速递
104.248784,30.811475,西南物流集散中心,利民路(大港陶瓷建材城),四川省,成都市,,生活服务;物流速递;物流速递
104.171620,30.863818,常州市菜鸟物流(成都分公司),金芙蓉大道(蓉春源农副产品集散基地),四川省,成都市,,生活服务;物流速递;物流速递
104.341378,30.738713,成都市福洪邮政代办所,福洪宏福路16号附1-4号,四川省,成都市,,生活服务;邮局;邮局
104.294399,30.850327,顺心捷达物流,清白江青龙建材市场2区附2栋113-114号顺心捷达,四川省,成都市,,生活服务;生活服务场所;生活服务场所
104.302470,30.840071,怡达通物流,德汇路9号,四川省,成都市,,生活服务;物流速递;物流速递
104.244580,30.812306,成都锦宏通物流,同心大道与利民路交叉路口往东北约100米,四川省,成都市,,生活服务;物流速递;物流速递
104.251865,30.845967,陕西奥仕通物流,青解路(青白江冻库),四川省,成都市,,生活服务;物流速递;物流速递
104.199358,30.860068,容幸一家物流,弥牟镇旗舰建材市场4栋,四川省,成都市,,生活服务;物流速递;物流速递
104.311004,30.843018,成都勇乐物流,绣川路19号办公楼三楼309,四川省,成都市,,生活服务;物流速递;物流速递
104.280944,30.773975,成都市龙王邮政代办所,裕康街199号,四川省,成都市,,生活服务;邮局;邮局
104.294747,30.840866,成都铁路保税物流中心,香岛大道1533号,四川省,成都市,,生活服务;物流速递;物流速递
104.240853,30.851191,成都轩众国际物流中心,桂平大道与双元大道交叉口东北,四川省,成都市,,生活服务;物流速递;物流仓储场地
104.245307,30.812803,77118快运,同心路2幢126号,四川省,成都市,,生活服务;物流速递;物流速递
104.247082,30.814839,众辉快运,同心路86号附近,四川省,成都市,,生活服务;物流速递;物流速递
104.170733,30.864174,百兴快运,金新路,四川省,成都市,,生活服务;物流速递;物流速递
104.291291,30.846460,通城快运,[],四川省,成都市,,生活服务;物流速递;物流速递
104.321434,30.849582,中通快运,清泉大道727号,四川省,成都市,,生活服务;物流速递;物流速递
104.245661,30.813306,三宝快运,同心路2幢附近,四川省,成都市,,生活服务;物流速递;物流速递
104.208134,30.866580,华川银地物流配送中心,金光路,四川省,成都市,,生活服务;物流速递;物流速递
104.244685,30.812289,重庆汇运物流,同心路1栋附近,四川省,成都市,,生活服务;物流速递;物流速递
104.244918,30.812595,成都祥藏物流,同心路1栋附近,四川省,成都市,,生活服务;物流速递;物流速递
104.244529,30.812165,成都元天成物流,同心大道与利民路交叉路口往东北约50米,四川省,成都市,,生活服务;物流速递;物流速递
104.171728,30.863416,桐盛物流成都分流部,金芙蓉大道(蓉春源农副产品集散基地),四川省,成都市,,生活服务;物流速递;物流速递
104.185649,30.874155,成都久久顺物流,正兴路,四川省,成都市,,生活服务;物流速递;物流速递
104.266683,30.833586,成都嘉盛达物流,[],四川省,成都市,,生活服务;物流速递;物流速递
104.215327,30.890825,四川盛世鑫隆物流,G108(八阵大道),四川省,成都市,,生活服务;物流速递;物流速递
104.251639,30.845854,成都益达城市物流,青解路(青白江冻库),四川省,成都市,,生活服务;物流速递;物流速递
104.248648,30.827395,成都远方物流有限责任公司,万桂路859号,四川省,成都市,,生活服务;物流速递;物流速递
104.250103,30.809212,俊泽物流(大港建材城店),利民路大港建材城货运区3-4号,四川省,成都市,,生活服务;物流速递;物流速递
104.196646,30.867529,李祥物流有限公司,弥牟镇北辰货运广场A19号,四川省,成都市,,生活服务;物流速递;物流速递
104.246493,30.814313,酒都物流有限公司,祥福镇大港建材城同心路3栋,四川省,成都市,,生活服务;物流速递;物流速递
104.173017,30.862887,广亚物流有限公司,[],四川省,成都市,,生活服务;物流速递;物流速递
104.191726,30.861794,旺福物流有限公司,[],四川省,成都市,,生活服务;物流速递;物流速递
104.310820,30.841943,成都宏顺达物流有限公司,城厢镇鸿泰大道168号中铁八局5楼,四川省,成都市,,生活服务;物流速递;物流速递
104.248200,30.875950,茂源物流有限公司,正和路116号,四川省,成都市,,生活服务;物流速递;物流速递
104.310557,30.844671,四川物流集装箱,香岛大道8号现代物流大厦b区16楼,四川省,成都市,,生活服务;物流速递;物流仓储场地|公司企业;公司;公司
104.215695,30.889943,成都源禾顺通物流有限公司,八阵大道与益海路交叉路口往东约50米,四川省,成都市,,生活服务;物流速递;物流速递
104.298036,30.844624,四川文传物流有限公司,通汇大道666号,四川省,成都市,,生活服务;物流速递;物流速递
104.248766,30.809218,晶成旺物流,利民路,四川省,成都市,,生活服务;物流速递;物流速递
104.187188,30.874800,江永安物流,正兴路,四川省,成都市,,生活服务;物流速递;物流速递
104.245065,30.877404,海风快运(青白江店),成都市青白江区文化巷43号,四川省,成都市,,生活服务;物流速递;物流速递
104.186865,30.873802,成都泸商(冠亚)物流,正兴路,四川省,成都市,,生活服务;物流速递;物流速递
104.275105,30.828598,天津市捷运通达物流分公司,青白江大道1118号附近,四川省,成都市,,生活服务;物流速递;物流速递
104.315698,30.848525,成都万基物流有限公司,兴业大道青白江万贯五金机电配送大市场三期164栋14号,四川省,成都市,,生活服务;物流速递;物流速递
104.244822,30.812565,佛山鑫辉物流有限公司,祥福镇大港建材城同心路1栋104一105号,四川省,成都市,,生活服务;物流速递;物流速递
104.275937,30.826860,成都星耀物流有限公司,祥福镇青白江大道1118号,四川省,成都市,,生活服务;物流速递;物流速递
104.275277,30.828768,成都正豪物流有限公司,祥福镇大西南货运集散中心7栋,四川省,成都市,,生活服务;物流速递;物流速递
104.275348,30.828877,成都栈道物流有限公司,青白江大道1118号附近,四川省,成都市,,生活服务;物流速递;物流速递
104.297465,30.844171,四川文传物流有限公司,祥福镇香岛大道1666号,四川省,成都市,,生活服务;物流速递;物流速递
104.247031,30.814869,四川超盛物流有限公司,同心大道,四川省,成都市,,生活服务;物流速递;物流速递
104.172865,30.862978,泉州市闽运兴物流,金芙蓉大道(蓉春源农副产品集散基地东南侧),四川省,成都市,,生活服务;物流速递;物流速递
104.186320,30.873050,四川齐力物流有限公司,正兴路,四川省,成都市,,生活服务;物流速递;物流速递
104.253895,30.837666,成都景茂物流有限公司,G108(货运大道),四川省,成都市,,生活服务;物流速递;物流速递
104.295286,30.850847,金宣物流邹氏物流,青白江大道与兴业大道交叉路口往南约100米,四川省,成都市,,生活服务;物流速递;物流速递
104.280971,30.860291,成都旭昌物流有限公司,复兴大道318号,四川省,成都市,,生活服务;物流速递;物流速递
104.300258,30.844139,四川文传物流有限公司,城厢镇国际集装箱物流园区,四川省,成都市,,生活服务;物流速递;物流速递
104.279944,30.869014,成都联虹物流有限公司,同济大道88号附2号,四川省,成都市,,生活服务;物流速递;物流速递
104.248061,30.876443,成都锐鑫物流有限公司,正和路与窄巷子交叉口西北50米,四川省,成都市,,生活服务;物流速递;物流速递
104.172193,30.864963,江苏燕安物流(成都)分公司,货运大道,四川省,成都市,,生活服务;物流速递;物流速递
104.313008,30.842513,远成快运西南本部,香岛大道与鸿泰大道交叉口东100米,四川省,成都市,,生活服务;物流速递;物流速递
104.223734,30.867042,成都众帮物流有限公司,成渝环线高速,四川省,成都市,,生活服务;物流速递;物流速递
104.302251,30.840114,四川易捷物流有限公司,成厢德汇路9号,四川省,成都市,,生活服务;物流速递;物流仓储场地
104.169149,30.864412,成都青瑞物流有限公司,金芙蓉大道二段与金芙蓉大道交叉路口西南侧,四川省,成都市,,生活服务;物流速递;物流速递
104.302516,30.840068,四川昶通物流堆场,景鸿路9号附近,四川省,成都市,,生活服务;物流速递;物流仓储场地
104.244515,30.812238,旭东快运(大港建材城),同心路大港建材城1栋118号,四川省,成都市,,生活服务;生活服务场所;生活服务场所
104.194027,30.858931,成都中进远程物流有限公司,[],四川省,成都市,,生活服务;物流速递;物流速递
104.187473,30.873634,四川杨帆远航物流有限公司,正兴路(蜀韵南庭西北侧约200米),四川省,成都市,,生活服务;物流速递;物流速递
104.185748,30.874295,华地物流有限责任公司,正兴路,四川省,成都市,,生活服务;物流速递;物流速递
104.186230,30.873389,郑翔(郑氏)物流,正兴路,四川省,成都市,,生活服务;物流速递;物流速递
104.187491,30.873889,三财物流公司,正兴路(蜀韵南庭西北侧约200米),四川省,成都市,,生活服务;物流速递;物流速递
104.258256,30.855820,铭航物流公司,大弯街道通站路338号,四川省,成都市,,生活服务;物流速递;物流仓储场地
104.274794,30.828063,永川物流有限公司(成都分公司),大西南货运集散中心4栋,四川省,成都市,,生活服务;物流速递;物流速递
104.196752,30.864245,力展物流俊翔营业部,正兴路与108国道交叉口西南60米,四川省,成都市,,生活服务;物流速递;物流速递
104.186907,30.874799,成都业顺物流有限公司,仁瑞路附近,四川省,成都市,,生活服务;生活服务场所;生活服务场所
104.248844,30.863813,成都豪龙物流有限公司,通站路299号,四川省,成都市,,生活服务;物流速递;物流仓储场地
104.173151,30.864530,山东光至物流分拨中心,金芙蓉大道(蓉春源农副产品集散基地东北侧),四川省,成都市,,生活服务;物流速递;物流速递
104.287050,30.841086,四川御霖国际物流有限公司,祥福镇景祥路3号楼1-2号一楼,四川省,成都市,,生活服务;物流速递;物流速递
104.245797,30.813458,成都绍平物流有限公司,同心大道与民盛路交叉路口往西南约100米(大港陶瓷建材城)2幢101-103号,四川省,成都市,,生活服务;物流速递;物流速递
104.190993,30.862014,成都正成安物流公司,正成安物流公司,四川省,成都市,,生活服务;物流速递;物流速递
104.313046,30.841956,成都市瑞永物流有限公司,城厢镇鸿泰大道189远成物流大厦1楼03室,四川省,成都市,,生活服务;物流速递;物流速递
104.253417,30.846585,成都高记冷链物流,青解路(青白江冻库),四川省,成都市,,生活服务;物流速递;物流速递
104.251693,30.845877,成都久金冷链物流,桂通北路,四川省,成都市,,生活服务;物流速递;物流速递
104.274809,30.828083,吉兴顺物流有限公司,祥福镇青白江大道1118号大西南4栋,四川省,成都市,,生活服务;物流速递;物流速递
104.247034,30.810650,华润建材物流配送中心,利民路,四川省,成都市,,生活服务;物流速递;物流速递
104.263850,30.833733,博川国际铁路物流港,同心路与货运大道交叉口东北100米,四川省,成都市,,生活服务;物流速递;物流速递
104.186652,30.874166,阔展物流成都北城分部,正兴路,四川省,成都市,,生活服务;物流速递;物流速递
104.374002,30.763095,四川宇石国际物流有限公司,成都市青白江区清泉镇欧城路899号,四川省,成都市,,生活服务;物流速递;物流速递
104.238671,30.852403,成都轩和国际物流中心,[],四川省,成都市,,生活服务;物流速递;物流仓储场地
104.300323,30.840853,成都迈瑞国际物流有限公司,香岛大道1509号现代物流大厦B座13楼1308号,四川省,成都市,,公司企业;公司;公司
104.262366,30.838753,博川现代商贸物流基地,祥福镇(货运大道),四川省,成都市,,生活服务;物流速递;物流仓储场地
104.171372,30.863732,蓉春源农副产品集散基地,货运大道附近,四川省,成都市,,购物服务;综合市场;农副产品市场
104.265726,30.840126,宝能综合智慧物流(建设中),高平西路,四川省,成都市,,生活服务;物流速递;物流速递
104.268431,30.885027,成都众安达物流有限公司,石家碾东路19-附27号附近,四川省,成都市,,生活服务;物流速递;物流速递
104.193404,30.867242,甘阿物流有限公司,弥牟镇正兴路188号附9-13号,四川省,成都市,,生活服务;物流速递;物流速递
104.186874,30.874183,鑫巴达物流有限公司,正兴路,四川省,成都市,,生活服务;物流速递;物流速递
104.171782,30.862627,瑞宇物流展维物流成都集散中心,金芙蓉大道(蓉春源农副产品集散基地),四川省,成都市,,生活服务;物流速递;物流速递
104.302450,30.840193,成都速嘉吉物流有限公司,城厢镇德汇路9号,四川省,成都市,,生活服务;物流速递;物流仓储场地
104.173646,30.863266,四川集派物流有限公司,白马村大川物流园8栋21-29号,四川省,成都市,,生活服务;物流速递;物流速递
104.256365,30.811137,成都摩递物流有限公司,青白江大道99号13栋1层128、129号,四川省,成都市,,生活服务;物流速递;物流速递
104.171775,30.863882,成都紫邦物流有限公司,蓉春源物流园9栋1-7号,四川省,成都市,,生活服务;物流速递;物流速递
104.185247,30.875451,成都金狄物流有限公司,正兴路,四川省,成都市,,生活服务;物流速递;物流速递
104.295143,30.850853,成都腾亿物流有限公司,青白江大道与兴业大道交叉路口往南约100米,四川省,成都市,,生活服务;物流速递;物流速递
104.303141,30.843220,成都亦彦物流有限公司,成都市青白江区绣川路19号办公楼312室,四川省,成都市,,生活服务;物流速递;物流速递
104.218213,30.884003,成都皇聚物流有限公司,红阳华金大道一段396号1栋1层,四川省,成都市,,生活服务;物流速递;物流速递
104.173760,30.864399,鑫钱江物流有限公司,货运大道(新起点实验幼儿园对面),四川省,成都市,,生活服务;生活服务场所;生活服务场所
104.171342,30.864343,成都市圣鼎物流有限公司,货运大道88号蓉春源物流园区6栋,四川省,成都市,,生活服务;生活服务场所;生活服务场所
104.266288,30.860343,中铁八局集团现代物流有限公司,黄金北路17附近,四川省,成都市,,生活服务;物流速递;物流速递
104.249380,30.809697,成都市八维物流有限责任公司,利民路,四川省,成都市,,生活服务;物流速递;物流速递
104.228488,30.884225,成都欧邦洁物流有限公司,华金大道1段113附近,四川省,成都市,,生活服务;物流速递;物流速递
104.211679,30.868384,成都瀚溥物流园,[],四川省,成都市,,生活服务;物流速递;物流仓储场地
104.252899,30.847909,成都银犁冷藏物流股份有限公司,[],四川省,成都市,,生活服务;物流速递;物流仓储场地
104.245679,30.813347,大港建材城-物流区,同心大道与民盛路交叉路口往西南约100米,四川省,成都市,,生活服务;物流速递;物流速递
104.257301,30.869944,四川博驰物流有限责任公司,团结中路168号,四川省,成都市,,生活服务;物流速递;物流速递
104.252442,30.846136,宝乾冷链物流有限公司,青解路(青白江冻库),四川省,成都市,,生活服务;物流速递;物流速递
104.206628,30.885281,成都骏博达物流有限公司,弥牟下街与弥牟北街交叉口北50米,四川省,成都市,,生活服务;物流速递;物流速递
104.327699,30.841032,青白江宝湾国际物流中心,香岛大道与清泉大道一段交叉口南350米,四川省,成都市,,生活服务;物流速递;物流仓储场地
104.203359,30.876634,成都成唐物流有限公司,[],四川省,成都市,,生活服务;物流速递;物流仓储场地
104.167079,30.863304,通安达快运,白马村六组货运大道东50米,四川省,成都市,,生活服务;物流速递;物流速递
104.352230,30.860728,成都运吉达物流有限公司,[],四川省,成都市,,生活服务;物流速递;物流速递
104.297563,30.841849,成都铁路保税物流中心查验仓库,香岛大道1521附近,四川省,成都市,,生活服务;物流速递;物流仓储场地
104.319041,30.856893,成都品隆物流有限公司,上北街111号,四川省,成都市,,生活服务;物流速递;物流速递
104.174289,30.863707,临沂中联顺心物流有限公司,金芙蓉大道(蓉春源农副产品集散基地东侧约150米),四川省,成都市,,生活服务;物流速递;物流速递
104.253599,30.846665,大鱼物流银梨营业部,[],四川省,成都市,,生活服务;物流速递;物流速递
104.310078,30.843080,成都兰新铁集物流有限公司,绣川路19号办公楼311室,四川省,成都市,,生活服务;物流速递;物流速递
104.311426,30.842092,成都海铁联捷国际物流有限公司,城厢镇鸿泰大道168号中铁八局二楼,四川省,成都市,,生活服务;物流速递;物流速递
104.221335,30.891627,顺邦物流公路港2期,同华大道西延线南50米,四川省,成都市,,生活服务;物流速递;物流速递
104.250436,30.808982,成都市敏屹物流有限公司,利民路,四川省,成都市,,生活服务;物流速递;物流速递
104.285468,30.873621,成都市飞途物流有限公司,一心街31号,四川省,成都市,,生活服务;物流速递;物流速递
104.185221,30.875403,西部风蜀越物流(北城营业部),正兴路,四川省,成都市,,生活服务;物流速递;物流速递
104.260352,30.85535,四川中外运久运物流有限公司,通站路318号,四川省,成都市,,生活服务;物流速递;物流速递
104.252253,30.846270,山西晋捷顺达冷链物流,青解路(青白江冻库),四川省,成都市,,生活服务;物流速递;物流速递
104.279901,30.891503,丰巢快递柜,便民路与凤凰大道二段交叉路口往东北约150米,四川省,成都市,,生活服务;物流速递;物流速递
104.215481,30.867654,丰树青白江物流中心,[],四川省,成都市,,生活服务;物流速递;物流速递
104.308112,30.855703,青白江万贯力展物流,青白江万贯五金机电配送市场9号门,四川省,成都市,,生活服务;生活服务场所;生活服务场所
104.315964,30.842049,中国物流公司成都青白江物流中心,城厢镇香岛大道集装箱物流园区,四川省,成都市,,生活服务;物流速递;物流仓储场地
104.268639,30.830494,四川路威特物流有限公司,祥福镇货运大道,四川省,成都市,,生活服务;物流速递;物流速递
104.248751,30.809156,大明货运,利民路,四川省,成都市,,生活服务;物流速递;物流速递
104.312235,30.843718,成都青白江象道物流有限公司,城厢镇下罗家碾,四川省,成都市,,生活服务;物流速递;物流速递
104.270184,30.858290,中铁八局集团现代物流公司,同济大道西50米,四川省,成都市,,生活服务;物流速递;物流速递
104.254744,30.842405,中铁物资成都物流有限公司,祥福镇桂通北路111号中铁物资,四川省,成都市,,生活服务;物流速递;物流速递
104.317614,30.840872,铁路货运城厢物流中心,城厢镇香岛大道成金快速路,四川省,成都市,,生活服务;物流速递;物流仓储场地
104.185864,30.873987,成都益展物流有限公司(原顺吉),正兴路,四川省,成都市,,生活服务;物流速递;物流速递
104.209255,30.889043,成都青白江益嘉运通物流有限公司,粮食路288号,四川省,成都市,,生活服务;物流速递;物流速递
104.308466,30.855896,壹米滴答·金桥物流,城厢镇万贯机电城九号门壹米,四川省,成都市,,生活服务;物流速递;物流速递
104.274955,30.828262,成都和鑫鹏物流有限公司,青白江大道1118号附近,四川省,成都市,,生活服务;物流速递;物流速递
104.250202,30.809156,KC成都开创物流有限公司,利民路,四川省,成都市,,生活服务;物流速递;物流速递
104.244913,30.812576,金鸿物流四联货运小钱物流,同心大道,四川省,成都市,,生活服务;物流速递;物流速递
104.251684,30.845932,成都星勇冷链物流有限公司,青解路(青白江冻库),四川省,成都市,,生活服务;物流速递;物流速递
104.324808,30.841809,成铁物流城厢物流中心特1线,城厢镇香岛大道,四川省,成都市,,生活服务;生活服务场所;生活服务场所
104.210725,30.863710,阜阳纵横物流有限公司成都运营中心,川陕货运市场,四川省,成都市,,生活服务;物流速递;物流速递
104.238176,30.852662,成都轩众国际物流招商中心,桂平大道,四川省,成都市,,生活服务;生活服务场所;生活服务场所
104.171644,30.864823,河北中策物流有限公司成都分公司,新都货运大道蓉春源农副产品,四川省,成都市,,生活服务;物流速递;物流速递
104.244065,30.828069,成都泽南贸易公司物流中心,祥福镇民强路794号,四川省,成都市,,生活服务;生活服务场所;生活服务场所
104.249746,30.846532,成都银梨冷库物流有限公司,祥福镇桂通北路一号,四川省,成都市,,生活服务;物流速递;物流速递
104.193489,30.867457,成都和风快运有限公司,正兴路188号大成功市场,四川省,成都市,,公司企业;公司;公司
104.170410,30.863187,成都君来祥物流承运单位仓储中心,金新路,四川省,成都市,,生活服务;物流速递;物流速递
104.281760,30.829150,四川蜀勇骏物流运输有限公司,大石路,四川省,成都市,,生活服务;物流速递;物流速递
104.249104,30.809436,力展物流大港二营业部,大港建材城7区2栋11号附1号,四川省,成都市,,生活服务;生活服务场所;生活服务场所
104.185721,30.874404,四川信驰达物流有限公司(总部),仁瑞路附近,四川省,成都市,,生活服务;生活服务场所;生活服务场所
104.250139,30.808939,千通缘物流,利民路,四川省,成都市,,生活服务;物流速递;物流速递
104.250012,30.809104,宏鑫骅泰物流,利民路,四川省,成都市,,生活服务;物流速递;物流速递
104.249953,30.820038,苏宁成都青白江物流园,同心大道,四川省,成都市,,生活服务;物流速递;物流仓储场地
104.187518,30.874379,宏鑫骅泰物流,正兴路(蜀韵南庭西北侧约250米),四川省,成都市,,生活服务;物流速递;物流速递
104.220995,30.892221,四川东辉天腾物流有限公司(青白江仓储中心),同华大道西段,四川省,成都市,,生活服务;物流速递;物流速递
104.257079,30.856096,四川能投量力物流发展有限公司,通站路305号,四川省,成都市,,生活服务;物流速递;物流速递
104.245878,30.880389,百世快递青白江城区一部,杨柳路99号附52号,四川省,成都市,红阳,生活服务;物流速递;物流速递
104.313925,30.842543,远成物流·西南大区青白江基地,城厢镇香岛大道鸿泰路189号,四川省,成都市,,生活服务;物流速递;物流速递
104.312550,30.841833,远成集团成都世阳物流有限公司,城厢镇鸿泰大道189号,四川省,成都市,,生活服务;物流速递;物流速递
104.265952,30.817091,安博青白江物流中心1期,青白江大道祥乐路281号,四川省,成都市,,生活服务;物流速递;物流速递
104.214650,30.867169,丰树成都青白江物流园,G5(成渝环线高速),四川省,成都市,,生活服务;物流速递;物流仓储场地
104.187321,30.874747,成都马尚道物流有限公司总部,正兴路,四川省,成都市,,生活服务;生活服务场所;生活服务场所
104.313618,30.842676,远成集团成都世阳物流有限公司,香岛大道南50米,四川省,成都市,,生活服务;物流速递;物流速递
104.186704,30.874203,西昌市飞马快运有限公司,正兴路,四川省,成都市,,生活服务;物流速递;物流速递
104.30907,30.841498,中铁八局集团现代物流公司(鸿泰大道),城厢镇物流园区香岛大道,四川省,成都市,,生活服务;物流速递;物流速递
104.308294,30.842984,成都市东运物流有限公司集装箱堆场,绣川路19号四川物流堆场内,四川省,成都市,,生活服务;物流速递;物流仓储场地
104.240937,30.850742,成都轩众国际物流投资有限公司,桂平大道与桂通西路交叉路口往西北约200米,四川省,成都市,,生活服务;生活服务场所;生活服务场所
104.252332,30.870646,川化股份有限公司物流公司汽车运输公司机具站,大弯街道团结东路1号,四川省,成都市,,公司企业;公司;冶金化工|生活服务;物流速递;物流速递
104.274354,30.824738,民熙民商青白江现代金融物流园,[],四川省,成都市,,生活服务;物流速递;物流仓储场地
104.275730,30.827770,广州迈杰物流有限公司成都分公司,青白江大道大西南货运集散中心15栋5号,四川省,成都市,,生活服务;生活服务场所;生活服务场所
104.245512,30.813139,成都仪蓬(原兴达)物流有限公司,建材城同心路2栋,四川省,成都市,,生活服务;物流速递;物流速递
104.271295,30.823628,民熙民商青白江现代金融物流园,高楼村2组,四川省,成都市,,生活服务;物流速递;物流仓储场地
104.231109,30.884590,京东快递成都青白江营业部,弥牟镇华金大道一段11号2栋,四川省,成都市,,生活服务;生活服务场所;生活服务场所
104.187268,30.874746,四川扬帆远航物流源广旺物流,正兴路,四川省,成都市,,生活服务;物流速递;物流速递
104.234772,30.825171,成都青白江宝湾蓉欧供应链物流中心,新工大道,四川省,成都市,,生活服务;物流速递;物流速递
104.294436,30.850520,四川村通达物流有限公司青龙国际建材城营业部,成青路东100米,四川省,成都市,,生活服务;生活服务场所;生活服务场所
104.294534,30.850420,四川村通达物流有线公司青龙国机国际城营业部,青白江大道辅路,四川省,成都市,,生活服务;物流速递;物流速递
104.248737,30.809125,成都西部风货运有限公司(四川钧皓物流有限公司),利民路,四川省,成都市,,生活服务;物流速递;物流速递
104.266593,30.812695,安能(宇矗)成都青白江现代物流中心(建设中),王爷庙,四川省,成都市,,生活服务;物流速递;物流仓储场地
104.283940,30.865814,青町集团四川苏茂贸易有限公司在川仓储物流中心,创新路与同辉路南交界处86-92,四川省,成都市,,生活服务;物流速递;物流仓储场地
104.291250,30.857381,成都川标紧固件有限公司物流配送中心,同旺路618号,四川省,成都市,,生活服务;生活服务场所;生活服务场所
104.308090,30.855771,安能青白江万贯机电城营业部(安能物流),城厢镇万贯机电城9号门,四川省,成都市,,生活服务;物流速递;物流速递
104.274868,30.828155,成都集豪物流有限公司四川远蓝贸易有限公司,祥福镇大西南货运集散中心7栋,四川省,成都市,,生活服务;物流速递;物流速递
104.196339,30.866893,北辰型材市场,正兴路66号(俊祥市场1号门对面),四川省,成都市,,购物服务;家居建材市场;家具建材综合市场|购物服务;家居建材市场;建材五金市场|生活服务;物流速递;物流速递
104.257025,30.893238,天府欧城百世邻里快递服务中心,凤凰西七路23号附212天府欧城百世邻里快递代收点,四川省,成都市,,生活服务;物流速递;物流速递
104.309929,30.844636,昶通运总堆场,城厢镇香岛大道国际物流园四川物流内,四川省,成都市,,生活服务;物流速递;物流速递|公司企业;公司;公司
104.246066,30.813823,成都弘旺货运公司,同心路116号附近,四川省,成都市,,生活服务;物流速递;物流速递
104.171489,30.865041,成都伟捷,弥牟镇货运大道蓉春源农副产品集散基地,四川省,成都市,,生活服务;物流速递;物流速递
104.258827,30.857105,发网(成都一商宇洁),大弯通站路318号中外运久运物流601库,四川省,成都市,,生活服务;物流速递;物流速递
104.187491,30.873556,莱鸟驿站,弥牟镇正兴路336号蜀韵南庭11栋,四川省,成都市,,生活服务;物流速递;物流速递
104.195160,30.866543,莱鸟驿站,货运市场A栋24-1号,四川省,成都市,,生活服务;物流速递;物流速递
104.186875,30.874864,成都诚信(原广信)货运,正兴路,四川省,成都市,,生活服务;物流速递;物流速递
104.185667,30.874542,中飞货运,正兴路东150米,四川省,成都市,,生活服务;物流速递;物流速递
104.251096,30.848663,力展供应链,桂平大道与青解路2号桥交叉口北侧2号门,四川省,成都市,,生活服务;物流速递;物流速递
104.295877,30.850834,余氏东风,青龙国际建材装饰城5区-2栋109-112,四川省,成都市,,生活服务;物流速递;物流速递
104.302333,30.848521,天地华宇,青龙国际建材城6区附3栋108号,四川省,成都市,,生活服务;物流速递;物流速递
104.310555,30.841517,德成集装箱堆场,城厢镇国际集装箱物流园区绣川路现代物流对面荣泰陆港内,四川省,成都市,,生活服务;物流速递;物流速递
104.244439,30.812156,成都元天成运业有限公司,祥福镇同心路与白店路交叉口北行80米,四川省,成都市,,生活服务;物流速递;物流速递
104.250412,30.808937,中通快运青白江祥福一部,白店路东100米大港建材城,四川省,成都市,,生活服务;物流速递;物流速递
104.244074,30.813889,京东青白江分拣中心,祥福镇大港建材城民盛路9号宇培物流园区W-1栋24号门,四川省,成都市,,生活服务;物流速递;物流速递
104.299716,30.840932,四川博立通国际货运代理有限公司(青白江口岸办公点),香岛大道1509号现代物流大厦B区B0513室,四川省,成都市,,生活服务;物流速递;物流速递
104.293462,30.884759,菜鸟驿站(成都凤凰馨苑店),大同镇凤凰大道3段361号凤凰馨苑365附25号,四川省,成都市,,生活服务;物流速递;物流速递
104.389737,30.746876,菜鸟驿站(成都清泉社区店),清泉镇政府旁下坡正福医院住院部旁申通快递,四川省,成都市,,生活服务;物流速递;物流速递
104.250726,30.880658,韵达(杨柳街便民寄存点分部),安全巷14号,四川省,成都市,红阳,生活服务;物流速递;物流速递
104.276527,30.828742,大西南货运集散中心,青白江大道1118号,四川省,成都市,,生活服务;物流速递;物流速递
104.266076,30.860123,成都华铁国际储运有限公司,黄金北路19号,四川省,成都市,,生活服务;物流速递;物流速递
104.312473,30.840503,中铁联集成都中心站,城厢镇鸿泰大道201号,四川省,成都市,,生活服务;物流速递;物流速递
104.295881,30.799149,快邮驿站,[],四川省,成都市,,生活服务;邮局;邮政速递
104.299024,30.841174,成都国际铁路港,香岛大道8号,四川省,成都市,,商务住宅;产业园区;产业园区|生活服务;物流速递;物流速递
104.244725,30.812462,成都建国货运有限公司,祥福镇大港建材市场同心路1幢,四川省,成都市,,生活服务;物流速递;物流速递
104.244794,30.812534,捷强运业,同心路1栋附近,四川省,成都市,,生活服务;物流速递;物流速递
104.247094,30.814937,广达货运公司,同心路86号附近,四川省,成都市,,生活服务;物流速递;物流速递
104.185388,30.874491,众友货运,正兴路北辰酒楼旁,四川省,成都市,,生活服务;物流速递;物流速递
104.280450,30.827281,青白江区鑫安运货运部,天星街,四川省,成都市,,生活服务;物流速递;物流速递
104.248987,30.809007,微丰货运,利民路,四川省,成都市,,生活服务;物流速递;物流速递
104.250238,30.808783,龙顺货运,利民路,四川省,成都市,,生活服务;物流速递;物流速递
104.249362,30.809697,金牛区胜达鑫顺货运部,利民路,四川省,成都市,,生活服务;物流速递;物流速递
104.250337,30.809045,张师货运,利民路,四川省,成都市,,生活服务;物流速递;物流速递
104.248731,30.809094,成达货运,[],四川省,成都市,,生活服务;物流速递;物流速递
104.171217,30.862343,联盟速运成都分拨中心,金芙蓉大道(蓉春源农副产品集散基地),四川省,成都市,,生活服务;物流速递;物流速递
104.170455,30.863947,建国货运,金新路,四川省,成都市,,生活服务;物流速递;物流速递
104.170169,30.863666,余氏东风,金芙蓉大道二段与金芙蓉大道交叉路口往南约50米,四川省,成都市,,生活服务;物流速递;物流速递
104.297498,30.869889,菜鸟驿站,大同镇华金大道四段金同华庭3-1-4商铺,四川省,成都市,,生活服务;物流速递;物流速递
104.189263,30.865974,顺驰运输,川陕路,四川省,成都市,,生活服务;物流速递;物流速递
104.251393,30.810928,胜达货运,[],四川省,成都市,,生活服务;物流速递;物流速递
104.170715,30.864213,峨眉西部风,金新路,四川省,成都市,,生活服务;物流速递;物流速递
104.185730,30.873861,冠捷飞达专线货运部,正兴路,四川省,成都市,,生活服务;物流速递;物流速递
104.171082,30.863162,成都天鹰中流分拨中心,金芙蓉大道与金芙蓉大道二段交叉路口往东南约200米,四川省,成都市,,生活服务;物流速递;物流速递
104.245687,30.813331,樊师货运,祥福镇大港建材城13号门同心路2栋,四川省,成都市,,生活服务;物流速递;物流速递
104.186195,30.875481,兄弟货运,弥牟镇青白江北城分拨中心4幢,四川省,成都市,,生活服务;物流速递;物流速递
104.247265,30.815120,余氏东风,同心大道与民盛路交叉路口往东北约50米,四川省,成都市,,生活服务;物流速递;物流速递
104.187518,30.874371,顺途货运,正兴路(蜀韵南庭西北侧约250米),四川省,成都市,,生活服务;物流速递;物流速递
104.195902,30.862875,余氏东风,G108(京昆线辅路),四川省,成都市,,生活服务;物流速递;物流速递
104.185998,30.873555,建国货运,正兴路,四川省,成都市,,生活服务;物流速递;物流速递
104.187107,30.872706,绍成货运,正兴路,四川省,成都市,,生活服务;物流速递;物流速递
104.186088,30.873434,军亚货运部,正兴路,四川省,成都市,,生活服务;物流速递;物流速递
104.186320,30.873050,龙顺货运,正兴路,四川省,成都市,,生活服务;物流速递;物流速递
104.197722,30.860161,发配送中心,货运大道佳飞建材内,四川省,成都市,,生活服务;物流速递;物流速递
104.205083,30.866226,余氏东风,金光路,四川省,成都市,,生活服务;物流速递;物流速递
104.186794,30.874173,蓉利顺货运,正兴路,四川省,成都市,,生活服务;物流速递;物流速递
104.185552,30.874486,雅安进达托运部,正兴路,四川省,成都市,,生活服务;物流速递;物流速递
104.186616,30.874867,红军货运,正兴路,四川省,成都市,,生活服务;物流速递;物流速递
104.187509,30.874487,鑫安快达,正兴路(蜀韵南庭西北侧约250米),四川省,成都市,,生活服务;物流速递;物流速递
104.185328,30.875475,捷安运业,正兴路,四川省,成都市,,生活服务;物流速递;物流速递
104.209800,30.866190,汉克配送中心,金光路,四川省,成都市,,生活服务;生活服务场所;生活服务场所
104.342769,30.741799,顺丰速运,云石路,四川省,成都市,,生活服务;物流速递;物流速递
104.199715,30.864390,川陕货运市场,弥牟镇三星大道蜀都建材城内,四川省,成都市,,生活服务;物流速递;物流速递
104.185793,30.874219,和顺运业,正兴路,四川省,成都市,,生活服务;物流速递;物流速递
104.186293,30.873274,成都四联货运有限公司,正兴路,四川省,成都市,,生活服务;物流速递;物流速递
104.199678,30.863608,菜鸟乡村,佳飞建材市场附40栋附5号,四川省,成都市,,生活服务;物流速递;物流速递
104.186418,30.873098,成都市符氏托运部,正兴路,四川省,成都市,,生活服务;物流速递;物流速递
104.185730,30.874404,勇联货运有限公司,正兴路,四川省,成都市,,生活服务;物流速递;物流速递
104.281446,30.829273,刘老幺批发配送,大石路,四川省,成都市,,生活服务;物流速递;物流速递
104.245241,30.854009,大弯镇站货运营业厅,[],四川省,成都市,,生活服务;物流速递;物流速递
104.187098,30.874829,成都天骏货运公司,正兴路,四川省,成都市,,生活服务;物流速递;物流速递
104.185730,30.874404,百优特主干道运业,正兴路,四川省,成都市,,生活服务;物流速递;物流速递
104.203537,30.874977,壹米嘀嗒,弥牟镇八阵大道738号附巨华建材城3号门,四川省,成都市,,生活服务;物流速递;物流速递|购物服务;购物相关场所;购物相关场所
104.187509,30.873999,盟翔货运,正兴路(蜀韵南庭西北侧约200米),四川省,成都市,,生活服务;物流速递;物流速递
104.246755,30.857363,铁路货运,通站路,四川省,成都市,,生活服务;物流速递;物流速递
104.231043,30.884620,余氏东风,华金大道一段11号附2栋,四川省,成都市,,生活服务;物流速递;物流速递
104.267329,30.832253,成都宝马运输有限公司,博川钢贸城13栋13号,四川省,成都市,,生活服务;物流速递;物流速递
104.199600,30.881270,菜鸟驿站(茂英超市店),弥牟镇草市巷75号茂英超市,四川省,成都市,,生活服务;物流速递;物流速递
104.215444,30.890492,邹姐货运部,八阵大道与益海路交叉路口往西南约50米,四川省,成都市,,生活服务;物流速递;物流速递
104.293390,30.847704,客格拉卫浴配送中心,青白江大道(青龙国际建材装饰城),四川省,成都市,,生活服务;物流速递;物流速递
104.250939,30.880408,菜鸟驿站(丽祥副食店),红阳街道安全巷15号附3号,四川省,成都市,红阳,生活服务;物流速递;物流速递
104.269987,30.875932,妈妈驿站,[],四川省,成都市,大弯,生活服务;物流速递;物流速递
104.390123,30.746593,顺丰速运,青石路153号,四川省,成都市,,生活服务;物流速递;物流速递
104.262416,30.886481,伟捷酒类配送,安居路143号附近,四川省,成都市,,生活服务;物流速递;物流速递
104.269529,30.871053,水岸华府快邮驿站,水岸华府17栋1楼101号,四川省,成都市,大弯,生活服务;物流速递;物流速递
104.350890,30.824370,菜鸟驿站,姚渡镇永和路8号,四川省,成都市,,生活服务;物流速递;物流速递
104.283540,30.882209,菜鸟驿站(蝴蝶洲店),凤祥大道,四川省,成都市,,生活服务;物流速递;物流速递
104.267050,30.892516,菜鸟驿站,大弯街道栖凤街75号,四川省,成都市,,生活服务;物流速递;物流速递
104.308598,30.855718,余氏东风(青白江万贯),万贯机电城9号门15栋对面,四川省,成都市,,生活服务;物流速递;物流速递
104.323836,30.839689,铁路货运,金河路,四川省,成都市,,生活服务;物流速递;物流速递
104.265218,30.885168,阿源鞋锁锅耗材配送,石家碾东路289号57幢-附10号附近,四川省,成都市,,生活服务;物流速递;物流速递
104.390858,30.740505,余氏东风,成环路,四川省,成都市,,生活服务;物流速递;物流速递
104.321781,30.860503,城厢余氏东风,S101(成南路),四川省,成都市,,生活服务;物流速递;物流速递|住宿服务;住宿服务相关;住宿服务相关
104.263941,30.885112,青鲜生鲜配送,石家碾东路289号56幢-附6号附近,四川省,成都市,,生活服务;物流速递;物流速递
104.310455,30.867228,恒捷顺货运经营部,青白江大道,四川省,成都市,,生活服务;物流速递;物流速递
104.277792,30.888390,菜鸟驿站,红阳街道凤凰西一路107号,四川省,成都市,,生活服务;物流速递;物流速递
104.313338,30.871424,成都鑫耀运输有限公司,茶永路80号,四川省,成都市,,生活服务;物流速递;物流速递
104.392344,30.748596,添睿货运,清泉镇商贸北街175号,四川省,成都市,,生活服务;物流速递;物流速递
104.209829,30.885000,青白江区巨盛货运部,华金大道一段与八阵大道交叉路口西北侧,四川省,成都市,,生活服务;物流速递;物流速递
104.239330,30.888270,菜鸟驿站,红阳街道华逸花园39栋2单元1号,四川省,成都市,,生活服务;物流速递;物流速递
104.348785,30.744939,佳友佳超市菜鸟驿站,福洪镇杏苑华庭桂花路187号,四川省,成都市,,购物服务;超级市场;超市|生活服务;物流速递;物流速递
104.242754,30.890042,顺丰速运(嘉和瑞景西北),同华大道1705-1711号,四川省,成都市,,生活服务;物流速递;物流速递
104.265618,30.882554,亚细亚运业公司(青白江分公司),大弯街道华金大道二段126号,四川省,成都市,大弯,生活服务;物流速递;物流速递
104.306625,30.843797,创源国际货场,城厢镇香岛大道8号,四川省,成都市,,交通设施服务;交通服务相关;交通服务相关
104.281558,30.824863,菜鸟驿站(滨河路38号店),滨河北路38号,四川省,成都市,,生活服务;物流速递;物流速递
104.209105,30.866264,富利海福龙仓储配送中心,金光路,四川省,成都市,,生活服务;物流速递;物流速递
104.274588,30.824920,普冷成都青白江冷库,[],四川省,成都市,,生活服务;物流速递;物流仓储场地
104.267914,30.875591,菜鸟驿站(成都锦秀苑店),大弯街道邮电巷61号,四川省,成都市,大弯,生活服务;物流速递;物流速递
104.271076,30.868638,菜鸟驿站(成都长流河店),大弯街道大夫北路138号负5号,四川省,成都市,大弯,生活服务;物流速递;物流速递
104.324338,30.849669,菜鸟驿站(成都翡翠港店),城厢镇长宁路60号,四川省,成都市,,生活服务;物流速递;物流速递
104.308710,30.861429,成都吉盛鑫物资有限公司,远龙·西部钢材城14栋16号,四川省,成都市,,生活服务;物流速递;物流速递
104.270217,30.858275,中国储运,[],四川省,成都市,,生活服务;物流速递;物流仓储场地
104.270807,30.823585,普冷成都青白江冷库,成都市青白江区祥通路170号,四川省,成都市,,生活服务;物流速递;物流仓储场地
104.239769,30.887178,菜鸟驿站(成都新城花园店),红阳街道华逸路476号,四川省,成都市,,生活服务;物流速递;物流速递
104.186616,30.874147,成都易翔北铁货运有限公司,正兴路,四川省,成都市,,生活服务;物流速递;物流速递
104.192721,30.873828,菜鸟驿站(成都蜀韵北庭店),弥牟镇弥牟南街蜀韵北庭2栋附103号,四川省,成都市,,生活服务;物流速递;物流速递
104.282321,30.821270,菜鸟驿站(成都福安怡景店),祥福镇祥福西街76号,四川省,成都市,,生活服务;物流速递;物流速递
104.346230,30.743170,菜鸟驿站(成都福洪社区店),福洪镇福洪樱花街39号,四川省,成都市,,生活服务;物流速递;物流速递
104.282677,30.829462,菜鸟驿站(成都天星小区店),祥福镇桂红路215号天星安置小区2期3栋2号商铺,四川省,成都市,,生活服务;物流速递;物流速递
104.246110,30.880383,菜鸟驿站(成都九千朝阳店),红阳街道杨柳路99号附52号,四川省,成都市,红阳,生活服务;物流速递;物流速递
104.243710,30.887578,菜鸟驿站(成都嘉和瑞景店),红阳街道华逸路127号,四川省,成都市,,生活服务;物流速递;物流速递
104.288150,30.876810,菜鸟驿站(成都恒大雅苑店),大同镇恒大雅苑12栋104,四川省,成都市,,生活服务;物流速递;物流速递
104.280361,30.869145,菜鸟驿站(成都大同社区店),大同镇同济大道80号4栋附6号,四川省,成都市,,生活服务;物流速递;物流速递
104.255375,30.888633,菜鸟驿站(成都阳光花园店),红阳街道石家碾西路75号13栋18号,四川省,成都市,,生活服务;物流速递;物流速递
104.263945,30.881975,菜鸟驿站(成都怡湖春天店),大弯街道华金大道二段180号三栋附19号,四川省,成都市,大弯,生活服务;物流速递;物流速递
104.294201,30.881948,菜鸟驿站(成都凤凰铭筑店),凤凰东四路,四川省,成都市,,生活服务;物流速递;物流速递
104.265137,30.887619,菜鸟驿站(成都怡景阳光店),大弯街道石家碾东路怡景阳光286号欢乐购超市旁,四川省,成都市,,生活服务;物流速递;物流速递
104.264018,30.882423,新希望华西青白江投递中心,怡湖北路,四川省,成都市,大弯,生活服务;物流速递;物流速递
104.276518,30.871913,菜鸟驿站(成都市长河郡店),大弯街道学苑路480号,四川省,成都市,,生活服务;物流速递;物流速递
104.271336,30.889196,菜鸟驿站(成都海布斯卡店),海布斯卡栖凤街274号,四川省,成都市,,生活服务;物流速递;物流速递
104.252792,30.890154,菜鸟驿站(成都嘉和丽景店),红阳街道政府北路222号,四川省,成都市,,生活服务;物流速递;物流速递
104.277741,30.892500,菜鸟驿站(成都公园世家店),凤凰大道二段公园世家687号,四川省,成都市,,生活服务;物流速递;物流速递
104.259430,30.892330,菜鸟驿站(成都北城映像店),大弯街道北城映像凤凰西六路11附42号,四川省,成都市,,生活服务;物流速递;物流速递
104.323846,30.859900,菜鸟驿站(成都城厢首府店),城厢镇城厢首府朝阳北路129号-131号,四川省,成都市,,生活服务;物流速递;物流速递
104.331853,30.855990,菜鸟驿站(成都绣川新城店),城厢镇家珍路25号,四川省,成都市,,生活服务;物流速递;物流速递
104.424317,30.699398,出租挖掘机装载机承接货运,桂红路,四川省,成都市,,生活服务;物流速递;物流速递
104.201503,30.877156,菜鸟驿站(成都民族花园店),弥牟镇民族街8号附5号,四川省,成都市,,生活服务;物流速递;物流速递
104.259670,30.898520,菜鸟驿站(成都凤凰小区店),大弯街道凤凰大道一段699号附58号,四川省,成都市,,生活服务;物流速递;物流速递
104.185579,30.873503,北城分拨中心,弥牟镇仁瑞路,四川省,成都市,,生活服务;物流速递;物流仓储场地
104.275269,30.828785,华美通汽车运输有限责任公司,青白江大道1110号,四川省,成都市,,生活服务;物流速递;物流速递
104.207542,30.898471,铁路货运青白江站货运营业厅,弥牟镇车站东路2号,四川省,成都市,,生活服务;物流速递;物流速递
104.216176,30.891753,天地汇顺邦公路港信息交易中心,108国道东50米,四川省,成都市,,生活服务;物流速递;物流速递
104.251755,30.847185,菜鸟驿站(成都市银犁冻库店),祥福镇桂通北路银犁大厦A,四川省,成都市,,生活服务;物流速递;物流速递
104.258510,30.879200,菜鸟驿站(成都怡湖玫瑰苑店),大弯街道青江北路69号深业泰然怡湖玫瑰苑正大门保安室,四川省,成都市,大弯,生活服务;物流速递;物流速递
104.275889,30.886362,菜鸟驿站(成都尚林幸福城店),尚林幸福城凤凰西一路203号,四川省,成都市,,生活服务;物流速递;物流速递
104.251013,30.877293,菜鸟驿站(成都大邦第一城店),青江中路288号大邦财富广场,四川省,成都市,,生活服务;物流速递;物流速递
104.314469,30.849433,金铭成商贸有限公司配送中心,万贯国际150幢20号,四川省,成都市,,生活服务;物流速递;物流速递
104.278608,30.877163,菜鸟驿站(成都瀚城新天地店),红阳街道大弯东路瀚城新天地8栋附5号,四川省,成都市,,生活服务;物流速递;物流速递
104.245925,30.813661,捷安运业,[],四川省,成都市,,生活服务;物流速递;物流速递
104.250571,30.862647,展志配送中心,大弯街道双元寺,四川省,成都市,,生活服务;生活服务场所;生活服务场所
104.221664,30.888180,九牧仓储配送中心,台玻成都玻璃有限公司东,四川省,成都市,,生活服务;生活服务场所;生活服务场所
104.292811,30.847605,顺丰速运,青白江大道2666号青龙国际建材市场2号门一区附4栋115-116号,四川省,成都市,,生活服务;生活服务场所;生活服务场所
104.253000,30.879935,四川振鸿运输有限公司,政府中路64号附近,四川省,成都市,红阳,生活服务;物流速递;物流速递
104.293861,30.849713,青白江建国货运,青龙建材城2区附1栋113号114号,四川省,成都市,,生活服务;物流速递;物流速递
104.246385,30.882095,菜鸟驿站(青江馨苑店),杨柳路2号9栋附12-13号,四川省,成都市,红阳,生活服务;物流速递;物流速递
104.388124,30.746385,建国货运,青石路237号,四川省,成都市,,生活服务;物流速递;物流速递
104.291729,30.850042,华西大成建材配送中心,青白江大道2619号,四川省,成都市,,购物服务;家居建材市场;建材五金市场|公司企业;公司;公司|生活服务;生活服务场所;生活服务场所
104.172202,30.863196,西昌市攀枝花收发货配送中转区,金芙蓉大道(蓉春源农副产品集散基地),四川省,成都市,,生活服务;物流速递;物流速递
104.272266,30.875061,菜鸟驿站(成都市川化一三村店),大弯街道川化一村30栋旁边平房,四川省,成都市,大弯,生活服务;物流速递;物流速递
104.244790,30.885100,菜鸟驿站(成都棠湖清江花语店),红阳街道红花街297号,四川省,成都市,红阳,生活服务;物流速递;物流速递
104.270024,30.892962,菜鸟驿站(成都金科博翠天宸店),凤祥大道1019号附1号,四川省,成都市,,生活服务;物流速递;物流速递
104.258546,30.881031,菜鸟驿站(成都市怡湖玫瑰苑店),大弯街道深业泰然怡湖玫瑰苑清江白路105号附10号,四川省,成都市,大弯,生活服务;物流速递;物流速递
104.404277,30.754646,菜鸟驿站(成都花园新城二期店),清泉镇清泉花园新城二期10-4-3,四川省,成都市,,生活服务;物流速递;物流速递
104.391516,30.747119,菜鸟驿站(成都清泉商贸北街店),清泉镇商贸北街2号,四川省,成都市,,生活服务;物流速递;物流速递
104.237817,30.813887,九牧西南配送中心,祥福镇利民路669号百利威电商产业园,四川省,成都市,,生活服务;生活服务场所;生活服务场所
104.249124,30.809434,鑫良伟货运,大港建材城仓储六区九栋25,四川省,成都市,,生活服务;物流速递;物流速递
104.280687,30.819120,顺丰速运同心南路营业部,[],四川省,成都市,,生活服务;生活服务场所;生活服务场所
104.292999,30.851340,华西配送中心,大同镇复兴大道840,四川省,成都市,,生活服务;物流速递;物流速递
104.186097,30.873666,成都市猛宏货运有限公司,正兴路,四川省,成都市,,生活服务;生活服务场所;生活服务场所
104.187232,30.874784,重庆市金宣货运有限公司,正兴路,四川省,成都市,,生活服务;生活服务场所;生活服务场所
104.248884,30.809325,余氏东风,祥福镇大港建材六区九栋16号门17-18,四川省,成都市,,生活服务;物流速递;物流速递
104.205495,30.868191,广东鼎美淋浴房型材配件配送中心,立灯路华川银地24栋11-32号,四川省,成都市,,生活服务;物流速递;物流速递
104.205799,30.885309,京东,[],四川省,成都市,,生活服务;物流速递;物流速递
104.297690,30.814780,菜鸟驿站(成都青白江东方新村店),祥福镇东方新村1031号,四川省,成都市,,生活服务;物流速递;物流速递
104.252870,30.877040,菜鸟驿站(成都青白江文体花园店),红阳街道文体花园政府南路43号万达西门对面馨馨副食旁,四川省,成都市,,生活服务;物流速递;物流速递
104.262786,30.888104,菜鸟驿站(成都幸福家园新河湾店),大弯街道安居路219幸福家园新河湾16栋2单元102号,四川省,成都市,,生活服务;物流速递;物流速递
104.248970,30.888550,菜鸟驿站(成都青白江城市花园店),红阳街道红阳路城市花园商铺269号附2号,四川省,成都市,,生活服务;物流速递;物流速递
104.281720,30.874557,菜鸟驿站(成都青白江同湾春晓店),大同镇大同西路58号同湾春晓,四川省,成都市,,生活服务;物流速递;物流速递
104.281180,30.884820,菜鸟驿站(成都青白江誉府仕家店),大弯街道凤凰大道三段8号誉府仕家32栋,四川省,成都市,,生活服务;物流速递;物流速递
104.255979,30.892323,菜鸟驿站(成都青白江天府欧城店),大弯街道天府欧城22-2-5(大门右转2楼),四川省,成都市,,生活服务;物流速递;物流速递
104.301628,30.839732,吉嘉速堆场,城厢镇德汇路9号,四川省,成都市,,生活服务;物流速递;物流速递
104.319270,30.857318,菜鸟驿站(成都青白江建设路40号店),城厢镇建设路40号(下北街老菜市路口),四川省,成都市,,生活服务;物流速递;物流速递
104.309083,30.856172,浙江正隆电器有限公司直销配送中心,五贤一路,四川省,成都市,,生活服务;物流速递;物流速递
104.246980,30.890890,菜鸟驿站(成都青白江新力翡翠湾店),红阳街道同华大道1540号,四川省,成都市,,生活服务;物流速递;物流速递
104.253491,30.896052,菜鸟驿站(成都青白江佳兆业悦府店),红阳街道凤凰西八路83附14,四川省,成都市,,生活服务;物流速递;物流速递
104.377630,30.769530,菜鸟驿站(成都青白江欧洲产业城店),清泉镇清泉大道二段6666号F栋,四川省,成都市,,生活服务;物流速递;物流速递
104.211433,30.860412,川陕货运市场,新都街道庄家牛车房,四川省,成都市,,生活服务;物流速递;物流仓储场地
104.268379,30.892589,菜鸟驿站(成都青白江中华名城一期店),凤祥大道780号附12,四川省,成都市,,生活服务;物流速递;物流速递
104.287520,30.883200,菜鸟驿站(成都青白江听湖九园正门店),红阳街道凤凰东二路91号听湖九园,四川省,成都市,,生活服务;物流速递;物流速递
104.245539,30.853974,大弯车站集装箱,[],四川省,成都市,,生活服务;物流速递;物流速递
104.280081,30.869400,中国第二重型机械集团德阳万路运业有限公司,盛华企业园A4号3层301,四川省,成都市,,生活服务;物流速递;物流速递
104.306520,30.840530,成都跨境电商产业园进口商品中心仓,景鸿路,四川省,成都市,,生活服务;物流速递;物流仓储场地
104.270280,30.868850,菜鸟驿站(成都市水岸华府物业办公楼店),大同镇青华东路东100米水岸华府物业办公楼左侧门面,四川省,成都市,大弯,生活服务;物流速递;物流速递
104.286590,30.884340,菜鸟驿站(成都青白江凤凰湖国际社区店),大同镇凤凰大道三段180号,四川省,成都市,,生活服务;物流速递;物流速递
104.255039,30.847333,青白江冻库,桂通北路1号,四川省,成都市,,生活服务;物流速递;物流仓储场地
104.252188,30.842135,宝汇冷链电商配送中心(建设中),祥福镇桂平大道中国铁路物资对面,四川省,成都市,,生活服务;生活服务场所;生活服务场所
104.249191,30.809669,成都市永社运业有限公司泸州专线,利民路,四川省,成都市,,生活服务;生活服务场所;生活服务场所
104.281058,30.819128,视贝科技有限公司青白江配送中心,[],四川省,成都市,,生活服务;生活服务场所;生活服务场所
104.274419,30.879433,菜鸟驿站(成都市文汇小区店),文汇路321号附3号,四川省,成都市,大弯,生活服务;物流速递;物流速递
103.533580,30.580749,中共中国邮政速递物流股份有限公司大邑县分公司支部委员会,甲子东道98号附近,四川省,成都市,晋原,政府机构及社会团体;社会团体;社会团体相关
103.607767,30.449957,中国邮政便民服务,兴盛街,四川省,成都市,,生活服务;生活服务场所;生活服务场所
103.473385,30.515502,中国邮政便民服务,[],四川省,成都市,,生活服务;生活服务场所;生活服务场所
103.481892,30.682573,金星邮政代办所,金星乡金泉街107号,四川省,成都市,,生活服务;邮局;邮局
103.296042,30.579812,出江邮政支局,出江镇隆兴街139号,四川省,成都市,,金融保险服务;银行;中国邮政储蓄银行
103.393170,30.672196,雾山邮政,雾山乡同源南路178号,四川省,成都市,,生活服务;邮局;邮局
103.692645,30.524386,董场邮政支局,董场镇钟音街51号,四川省,成都市,董场,生活服务;邮局;邮局
103.715852,30.451267,大邑县韩场邮政支局,韩场镇千禧街69号,四川省,成都市,,生活服务;邮局;邮局
103.609493,30.447363,大邑县上安邮政支局,兴盛街141号,四川省,成都市,,生活服务;邮局;邮局
103.478001,30.517159,大邑县王泗邮政支局,王泗镇营新街南段,四川省,成都市,,生活服务;邮局;邮局
103.223011,30.621114,大邑县西岭镇邮政代办所,西岭镇镇政府,四川省,成都市,,生活服务;邮局;邮局
103.687759,30.525751,中国邮政便民服务站,三安路与花鼓街交叉路口往西北约100米,四川省,成都市,,生活服务;生活服务场所;生活服务场所
103.529068,30.563940,中国邮政易邮柜,晋原镇大邑大道567号城市绿洲五栋一单元,四川省,成都市,晋原,生活服务;邮局;邮局
103.533229,30.486285,中国邮政便民服务站,商业街上段,四川省,成都市,,生活服务;生活服务场所;生活服务场所
103.711585,30.509502,中国邮政树德村村邮站,[],四川省,成都市,,生活服务;生活服务场所;生活服务场所
103.339015,30.618843,斜源邮政代办所,斜源镇寻源大道76号,四川省,成都市,,生活服务;邮局;邮局
103.533563,30.580604,全球邮政特快专递,甲子东道100号,四川省,成都市,晋原,生活服务;邮局;邮政速递
103.426281,30.531238,新场邮政代办所,新场镇同心小区3号,四川省,成都市,,生活服务;邮局;邮局
103.533475,30.580669,大邑县甲子路邮政所,甲子东道98号,四川省,成都市,晋原,生活服务;邮局;邮局
103.527331,30.581340,大邑县富民路邮政所,富民路南段22-28号,四川省,成都市,晋原,生活服务;邮局;邮局
103.630947,30.481804,大邑县唐场邮政代办所,军民街与水井街交叉口东南50米,四川省,成都市,,生活服务;邮局;邮局
103.555874,30.440471,大邑县高山邮政代办所,向阳街28,四川省,成都市,,生活服务;邮局;邮局
103.533777,30.486501,中国邮政(三岔邮政营业所),三岔镇政府街22号,四川省,成都市,,生活服务;邮局;邮局
103.453461,30.618175,大邑县悦来邮政支局,迎宾大道67号,四川省,成都市,,生活服务;邮局;邮局
103.580122,30.486343,中国邮政(元兴镇店),学府街110号,四川省,成都市,,生活服务;邮局;邮局
103.617342,30.513476,大邑县安仁邮政支局,商业街98号,四川省,成都市,,生活服务;邮局;邮局
103.422941,30.618626,鹤鸣邮政代办所,鹤鸣乡平阳路647号,四川省,成都市,,生活服务;邮局;邮局
103.520632,30.585665,大邑县西街邮政支局,晋原街道甲子东道98号,四川省,成都市,晋原,生活服务;邮局;邮局
103.294433,30.580611,出江邮政代办所,出江镇正街131号,四川省,成都市,,生活服务;邮局;邮局
103.260306,30.565677,大邑县花水湾邮政代办所,温泉北街127,四川省,成都市,花水湾,生活服务;邮局;邮局
103.580239,30.486230,中国邮政(学府街),学府街110,四川省,成都市,,生活服务;邮局;邮局
103.537359,30.666414,中国邮政(青霞邮政代办所),洞口街,四川省,成都市,,生活服务;邮局;邮局
103.569317,30.524005,大邑县苏场邮政代办所,苏家正街与N35县道交叉口西北100米,四川省,成都市,苏家,生活服务;邮局;邮局
103.459783,30.557920,大邑县敦义邮政代办所,晋新路与西义街交叉口西150米,四川省,成都市,,生活服务;邮局;邮局
103.459783,30.557888,三禾配送,敦义邮政,四川省,成都市,,生活服务;生活服务场所;生活服务场所
103.537249,30.666476,四川省成都市大邑县青霞龙凤小区附8附9号大邑县青霞邮政代办所,[],四川省,成都市,,生活服务;邮局;邮局
103.718015,30.448841,快邮驿站,[],四川省,成都市,,生活服务;邮局;邮政速递
103.617338,30.513136,快邮驿站,[],四川省,成都市,,生活服务;邮局;邮政速递
104.502343,30.493170,简阳市养马邮政支局,养马镇芙蓉街129-133号,四川省,成都市,,生活服务;邮局;邮局
104.519040,30.423999,圆通速递,福建街130号附近,四川省,成都市,,生活服务;物流速递;物流速递
104.357672,30.382470,圆通速递,市新街,四川省,成都市,,生活服务;物流速递;物流速递
104.578476,30.448268,圆通速递,[],四川省,成都市,,生活服务;物流速递;物流速递
104.444451,30.269579,圆通速递,[],四川省,成都市,,生活服务;物流速递;物流速递
104.368788,30.194907,圆通速递,镇金镇红星茶楼对面汪兵超市,四川省,成都市,,生活服务;物流速递;物流速递
104.561700,30.359417,圆通速递,[],四川省,成都市,,生活服务;物流速递;物流速递
104.444493,30.269587,中通速递,[],四川省,成都市,,生活服务;物流速递;物流速递
104.494178,30.316304,圆通速递,石板东路36号,四川省,成都市,,生活服务;物流速递;物流速递
104.545692,30.387455,圆通速递(代办点),建设中路175号,四川省,成都市,,生活服务;物流速递;物流速递
104.364239,30.436047,圆通速递(贾家营业部),贾家镇银丰路15号,四川省,成都市,,生活服务;物流速递;物流速递
104.712491,30.417505,圆通速递(禾丰镇营业部),裕民街99号正西方向110米,四川省,成都市,,生活服务;物流速递;物流速递
104.639720,30.342626,圆通速递(前新街),平泉镇堤坝街30号天使棉花双胆,四川省,成都市,,生活服务;物流速递;物流速递
104.614773,30.548991,三星圆通速递,利民街与059乡道交叉口,四川省,成都市,,生活服务;物流速递;物流速递
104.357691,30.432554,极兔速递,光明路,四川省,成都市,,生活服务;物流速递;物流速递
104.504803,30.498564,极兔速递,养马镇226号,四川省,成都市,,生活服务;物流速递;物流速递
104.520055,30.422565,极兔速递,中和桥街49北70米,四川省,成都市,,生活服务;物流速递;物流速递
104.531970,30.417130,极兔速递,解放路,四川省,成都市,,生活服务;物流速递;物流速递
104.556410,30.386411,极兔速递,[],四川省,成都市,,生活服务;物流速递;物流速递
104.549873,30.361767,极兔速递(简阳集散中心),海鑫次干道天发物流中心6号仓库,四川省,成都市,,生活服务;物流速递;物流速递
104.632666,30.484941,简阳市青龙邮政所,青龙镇商业街,四川省,成都市,,生活服务;邮局;邮局
104.551921,30.384774,圆通妈妈(长盛街店),新民街南段136号,四川省,成都市,,生活服务;物流速递;物流速递
104.407971,30.321862,圆通快递公司,安顺街超凡大酒店对面,四川省,成都市,,生活服务;物流速递;物流速递
104.631152,30.485290,圆通快递公司,青龙镇长寿街35号,四川省,成都市,,生活服务;生活服务场所;生活服务场所
104.505463,30.497091,力展物流,养马镇滨江路六婆串串香旁,四川省,成都市,,生活服务;物流速递;物流速递
104.496162,30.495769,优速物流,养马镇洪兴路68号,四川省,成都市,,生活服务;物流速递;物流速递
104.499258,30.493320,力展物流,洪德路,四川省,成都市,,生活服务;物流速递;物流速递
104.505239,30.422331,力展物流,雄州大道(大华国际B1栋南侧约10米),四川省,成都市,,生活服务;物流速递;物流速递
104.542766,30.389330,悦强物流,建设中路134号附近,四川省,成都市,,生活服务;物流速递;物流速递
104.543010,30.387809,鑫盈物流,建设中路172号,四川省,成都市,,生活服务;生活服务场所;生活服务场所
104.551198,30.384998,韵达快递(简阳服务站),[],四川省,成都市,,生活服务;物流速递;物流速递
104.548987,30.363093,京东物流(成都简阳快运集配站),海鑫次干道天发物流三号仓库,四川省,成都市,,生活服务;物流速递;物流速递
104.448124,30.269266,韵达快递,芦葭镇芦新街86号,四川省,成都市,,生活服务;物流速递;物流速递
104.553340,30.389578,韵达快递,简雍巷50号,四川省,成都市,,生活服务;物流速递;物流速递
104.543723,30.395468,韵达快递,安象街58号,四川省,成都市,,生活服务;物流速递;物流速递
104.401878,30.326880,韵达物流,草池镇南华街49号,四川省,成都市,,生活服务;物流速递;物流速递
104.548938,30.362370,德邦快递,海鑫次干道天发物流园2号库,四川省,成都市,,生活服务;物流速递;物流速递
104.351624,30.465289,中国邮政,贾家镇光明西路72号,四川省,成都市,,生活服务;邮局;邮局
104.364037,30.435698,中国邮政,[],四川省,成都市,,生活服务;邮局;邮局
104.640702,30.339523,中国邮政,[],四川省,成都市,,生活服务;邮局;邮局
104.433973,30.483267,冷链物流,[],四川省,成都市,,生活服务;物流速递;物流速递
104.408052,30.321963,小蔡物流,安顺街,四川省,成都市,,生活服务;物流速递;物流速递
104.543411,30.386801,君健物流,建设中路,四川省,成都市,,生活服务;物流速递;物流速递
104.549794,30.364819,宇鑫物流,凯力威大道申容4S店大门口内十米,四川省,成都市,,生活服务;物流速递;物流速递
104.548893,30.361984,简阳百世快运,凯力威大道天发物流1号仓库,四川省,成都市,,生活服务;物流速递;物流速递
104.547656,30.362456,韵达快递(简阳分拣中心),凯力威大道天发物流园内7号仓库,四川省,成都市,,生活服务;物流速递;物流速递
104.422626,30.425205,太平邮政所,太平桥镇东升街26-28号,四川省,成都市,,生活服务;邮局;邮局
104.456698,30.536083,周家邮政所,周家乡汇民街23号,四川省,成都市,,生活服务;邮局;邮局
104.853544,30.485085,五合邮政所,五合乡和平东街90号,四川省,成都市,,生活服务;邮局;邮局
104.378058,30.278585,福田邮政所,定水村居民小组福兴街92-96号,四川省,成都市,,生活服务;邮局;邮局
104.695150,30.338235,五星邮政所,五星乡正兴街76号,四川省,成都市,,生活服务;邮局;邮局
104.848678,30.378956,涌泉镇邮政所,涌泉镇镇江街136-140,四川省,成都市,,生活服务;邮局;邮局
104.358553,30.385739,坛罐邮政所,坛罐乡老街,四川省,成都市,,生活服务;邮局;邮局
104.606575,30.348590,新桥邮政代办所,新桥村7社,四川省,成都市,,生活服务;邮局;邮局
104.560645,30.359294,安能物流(简阳营业部),简城镇凯立威大道,四川省,成都市,,生活服务;生活服务场所;生活服务场所
104.591880,30.605426,同合邮政所,同合乡北街15号,四川省,成都市,,生活服务;邮局;邮局
104.778916,30.475009,金马邮政所,金马镇云金街,四川省,成都市,,生活服务;邮局;邮局
104.481361,30.223733,中国邮政(雷家邮政所),132乡道附近,四川省,成都市,,生活服务;邮局;邮局
104.418896,30.137221,中国邮政(老龙邮政所),148乡道与990乡道交叉口西北100米,四川省,成都市,,生活服务;邮局;邮局
104.321738,30.336803,简阳市玉成邮政所,玉高路与990乡道交叉口西北50米,四川省,成都市,,生活服务;邮局;邮局
104.810432,30.342955,简阳市平息邮政所,平息乡八角庙北街2-4号附近,四川省,成都市,,生活服务;邮局;邮局
104.564801,30.500621,简阳市平窝邮政所,平东街与平窝街交叉口南200米,四川省,成都市,,生活服务;邮局;邮局
104.655576,30.581918,简阳市新星邮政所,邹家湾村金简路新星乡政府附近,四川省,成都市,,生活服务;邮局;邮局
104.519993,30.422053,简阳市石桥邮政支局,石桥镇中和桥街49号,四川省,成都市,,生活服务;邮局;邮局
104.666920,30.405831,简阳市普安邮政所,普安乡普新街,四川省,成都市,,生活服务;邮局;邮局
104.491317,30.315782,安的快递,Y123与石板西路交叉路口往西约100米,四川省,成都市,,生活服务;物流速递;物流速递
104.415042,30.240493,快递超市,[],四川省,成都市,,生活服务;物流速递;物流速递
104.300975,30.297061,申通快递,交通路26号,四川省,成都市,,生活服务;物流速递;物流速递
104.576745,30.334204,简阳市新市邮政支局,新市镇新达街505-507号,四川省,成都市,,生活服务;邮局;邮局
104.419943,30.476563,简阳市石盘邮政支局,石盘镇金龙山庄南路428号,四川省,成都市,,生活服务;邮局;邮局
104.613947,30.554700,简阳市三星邮政支局,三星镇正街25号,四川省,成都市,,生活服务;邮局;邮局
104.624583,30.335116,简阳市怀远邮政所,永和村二组,四川省,成都市,,生活服务;邮局;邮局
104.711499,30.375093,简阳农云邮政代办所,农云村5组,四川省,成都市,,生活服务;邮局;邮局
104.445166,30.269321,简阳市芦葭邮政所,富民街39号,四川省,成都市,,生活服务;邮局;邮局
104.370224,30.196882,简阳市镇金邮政支局,镇金镇牛头嘴街场镇,四川省,成都市,,生活服务;邮局;邮局
104.406015,30.323783,简阳市草池邮政支局,168乡道31号,四川省,成都市,,生活服务;邮局;邮局
104.539190,30.602539,简阳市宏缘邮政所,宏缘乡渡口街86-88号,四川省,成都市,,生活服务;邮局;邮局
104.415349,30.475791,简阳市石盘邮政所,石盘镇金龙山庄南路448号,四川省,成都市,,生活服务;邮局;邮局
104.284382,30.382527,简阳市武庙邮政所,165乡道与990乡道交叉口东北100米,四川省,成都市,,生活服务;邮局;邮局
104.515352,30.538659,简阳市壮溪邮政所,上街与壮灵街交叉口西50米,四川省,成都市,,生活服务;邮局;邮局
104.483612,30.570420,简阳市灵仙邮政所,灵仙乡灵仙上街96另,四川省,成都市,,生活服务;邮局;邮局
104.711747,30.419422,简阳市禾丰邮政支局,禾丰镇元吉街296号,四川省,成都市,,生活服务;邮局;邮局
104.421235,30.392329,中国邮政(简阳市海螺邮政所),海螺乡万年场街37号,四川省,成都市,,生活服务;邮局;邮局
104.598640,30.276951,简阳市杨家邮政所,红鹤村杨家街,四川省,成都市,,生活服务;邮局;邮局
104.420928,30.471666,中通快递,石盘街,四川省,成都市,,生活服务;物流速递;物流速递
104.454705,30.534929,中通快递,[],四川省,成都市,,生活服务;物流速递;物流速递
104.508547,30.492029,百世快递,养马镇祥园宾馆对面,四川省,成都市,,生活服务;物流速递;物流速递
104.407392,30.323744,申通快递,Y168(裕民街),四川省,成都市,,生活服务;物流速递;物流速递
104.537801,30.428439,熊猫快递,水金路,四川省,成都市,,生活服务;物流速递;物流速递
104.495082,30.315902,申通快递,虎山街与Y123交叉路口往东约50米,四川省,成都市,,生活服务;物流速递;物流速递
104.554418,30.400000,中通快递,桂义巷30,四川省,成都市,,生活服务;物流速递;物流速递
104.563997,30.391392,中通快递,东溪大道175号,四川省,成都市,,生活服务;物流速递;物流速递
104.554132,30.399734,百世快递,桂义巷,四川省,成都市,,生活服务;物流速递;物流速递
104.496317,30.317818,百世快递,[],四川省,成都市,,生活服务;物流速递;物流速递
104.550972,30.385453,中通快递,新民街南段105号,四川省,成都市,,生活服务;物流速递;物流速递
104.578788,30.331500,百世快递,[],四川省,成都市,,生活服务;物流速递;物流速递
104.639572,30.428892,百世快递,平武镇商业街38号,四川省,成都市,,生活服务;物流速递;物流速递
104.639559,30.428878,申通快递,平武镇商业街38号,四川省,成都市,,生活服务;物流速递;物流速递
104.641287,30.342593,百世快递,[],四川省,成都市,,生活服务;物流速递;物流速递
104.639197,30.429670,中通快递,平武镇胡家东街39号,四川省,成都市,,生活服务;物流速递;物流速递|购物服务;便民商店/便利店;便民商店/便利店
104.746573,30.455436,韵达快递,[],四川省,成都市,,生活服务;物流速递;物流速递
104.811634,30.345801,中通快递,八角庙北街,四川省,成都市,,生活服务;物流速递;物流速递
104.578398,30.450015,中国邮政(简阳市石钟邮政所),石钟镇建设街90号,四川省,成都市,,生活服务;邮局;邮局
104.647956,30.292017,模范邮政所,新市镇模范乡下马滩村5,四川省,成都市,,生活服务;邮局;邮局
104.456826,30.163728,中国邮政(石岩寺村村邮站),[],四川省,成都市,,生活服务;生活服务场所;生活服务场所
104.360711,30.430068,中通快递,[],四川省,成都市,,生活服务;生活服务场所;生活服务场所
104.491316,30.264140,中通快递,葭新路,四川省,成都市,,生活服务;生活服务场所;生活服务场所
104.708726,30.418425,中国邮政(禾丰镇电子商务服务站),[],四川省,成都市,,生活服务;生活服务场所;生活服务场所
104.765136,30.347497,中国邮政(安乐邮政代办所),梨圆街与101乡道交叉口东南50米,四川省,成都市,,生活服务;邮局;邮局
104.543193,30.381764,优速快递,建设中路429附近,四川省,成都市,,生活服务;物流速递;物流速递
104.639385,30.429327,圆通快递,胡家街与柴市下街交叉路口西侧,四川省,成都市,,生活服务;物流速递;物流速递
104.553689,30.379040,金桥物流(简阳营业部),简城镇南门火车站广场内78号,四川省,成都市,,生活服务;物流速递;物流速递
104.548707,30.362481,金桥物流(简阳营业部),简城镇凯力威大道天发物流园内3号仓库1号门,四川省,成都市,,生活服务;物流速递;物流速递
104.555878,30.379783,简阳市城南邮政支局,[],四川省,成都市,,生活服务;邮局;邮局
104.521032,30.474809,简阳市三元邮政代办所,简明市养马镇三元村4组,四川省,成都市,,生活服务;邮局;邮局
104.542471,30.408748,中通快递(金融街营业部),金融街3附近,四川省,成都市,,生活服务;物流速递;物流速递
104.553230,30.403013,国通快递,简城镇河东新区金色海岸2栋,四川省,成都市,,生活服务;物流速递;物流速递
104.363306,30.436194,韵达快递(165乡道店),环城北路与165乡道交叉口北50米,四川省,成都市,,生活服务;物流速递;物流速递
104.326186,30.305428,简阳兴隆邮政代办所,兴隆村顺路街744号,四川省,成都市,,生活服务;邮局;邮局
104.551396,30.390791,简阳市南街邮政支局,南街59号,四川省,成都市,,生活服务;邮局;邮局
104.818002,30.295895,简阳市金玉邮政代班所,金玉上街122号,四川省,成都市,,生活服务;邮局;邮局
104.578478,30.331943,中通快递(新市营业部),新市镇新达街354号,四川省,成都市,,生活服务;物流速递;物流速递
104.420264,30.473072,韵达快递(石盘分部),石盘镇石盘新街44号,四川省,成都市,,生活服务;物流速递;物流速递
104.357649,30.431710,申通快递(贾家营业部),贾家街道陶家东路4号,四川省,成都市,,生活服务;物流速递;物流速递
104.408180,30.323426,百世快递(草池店),Y168(裕民街),四川省,成都市,,生活服务;物流速递;物流速递
104.741771,30.413558,禾丰邮政代办所,蒋家村2组,四川省,成都市,,生活服务;邮局;邮局
104.771892,30.396119,接龙邮政代办所,禾丰镇接龙村接龙街75号,四川省,成都市,,生活服务;邮局;邮局
104.543361,30.380467,简阳市建设路邮政支局,简城镇建设中路497-499号,四川省,成都市,,生活服务;邮局;邮局
104.542410,30.397885,简阳市安象街邮政支局,公园后街9号,四川省,成都市,,生活服务;邮局;邮局
104.520017,30.421922,简阳市外四邮政代办所,石桥镇中和街59号,四川省,成都市,,生活服务;邮局;邮局
104.445349,30.270455,顺丰快递,富民街与183县道交叉口东100米,四川省,成都市,,生活服务;物流速递;物流速递
104.551737,30.401267,申通快递(河东营业部),雄州大道南段154,四川省,成都市,,生活服务;生活服务场所;生活服务场所
104.544467,30.387616,中通快递(西门营业部),建设中路129号,四川省,成都市,,生活服务;物流速递;物流速递
104.541239,30.398610,简阳圆通安象街分部,安象街204号,四川省,成都市,,生活服务;物流速递;物流速递
104.548952,30.362849,中铁物流集团(简阳营业部),天发物流园内3号仓库1号门,四川省,成都市,,生活服务;物流速递;物流速递
104.300089,30.295700,优速快递(三岔镇代理点),060县道与170乡道交叉口南100米,四川省,成都市,,生活服务;物流速递;物流速递
104.369818,30.434920,韵达快运,318国道附近,四川省,成都市,,生活服务;物流速递;物流速递
104.400908,30.327782,中通快递(草池网点),草池镇绛溪街198号,四川省,成都市,,生活服务;生活服务场所;生活服务场所
104.304252,30.297821,简阳市三岔邮政代办所,三岔街64,四川省,成都市,,生活服务;邮局;邮局
104.520315,30.576261,简阳市红沙邮政代办所,宏缘乡红沙6队,四川省,成都市,,生活服务;邮局;邮局
104.465139,30.366542,简阳市石堰邮政代办所,石堰燕子村1组33号,四川省,成都市,,生活服务;邮局;邮局
104.552655,30.437682,简阳市海井邮政代办所,石桥镇海井渡坝5队,四川省,成都市,,生活服务;邮局;邮局
104.287118,30.240655,简阳市龙云邮政代办所,龙云乡新建街24号,四川省,成都市,,生活服务;邮局;邮局
104.491679,30.271919,简阳市英明邮政代办所,建安村15组,四川省,成都市,,生活服务;邮局;邮局
104.460077,30.485060,简阳市朝阳邮政代办所,向家沟村三社,四川省,成都市,,生活服务;邮局;邮局
104.370241,30.361031,简阳市回龙邮政代办所,玉成乡回龙村金家店6-8号,四川省,成都市,,生活服务;邮局;邮局
104.749239,30.504493,简阳市塘坝邮政代办所,塘坝乡塘坝街,四川省,成都市,,生活服务;邮局;邮局
104.249376,30.281991,简阳市新民邮政代办所,新民乡综合市场(新湖街),四川省,成都市,,生活服务;邮局;邮局
104.843036,30.431967,简阳市云峰邮政代办所,云峰村云峰街185号,四川省,成都市,,生活服务;邮局;邮局
104.426310,30.375915,简阳市长河邮政代办所,草池镇长河青杠坝街6-8号,四川省,成都市,,生活服务;邮局;邮局
104.581919,30.559398,简阳市井田邮政代办所,三星松明村12组(原井田乡),四川省,成都市,,生活服务;邮局;邮局
104.762086,30.304889,简阳市施家邮政代办所,施家镇施乐路126号,四川省,成都市,,生活服务;邮局;邮局
104.415841,30.239444,简阳市清风邮政代办所,清风乡青东街12号,四川省,成都市,,生活服务;邮局;邮局
104.640277,30.342063,简阳市平泉邮政代办所,平泉镇长新街87号,四川省,成都市,,生活服务;邮局;邮局
104.732528,30.364199,简阳市碑垭邮政代办所,碑垭村综合市场,四川省,成都市,,生活服务;邮局;邮局
104.409285,30.323090,简阳市幸福邮政代办所,安顺街371号,四川省,成都市,,生活服务;邮局;邮局
104.583650,30.341173,优速快递(广场路店),建设中路475号,四川省,成都市,,生活服务;物流速递;物流速递
104.544502,30.386022,韵达,建设中路298号,四川省,成都市,,生活服务;物流速递;物流速递
104.683126,30.296205,简阳市飞龙邮政代办所,中国邮政(县道M015西),四川省,成都市,,生活服务;邮局;邮局
104.543730,30.220950,简阳市永宁邮政所,永宁乡中国邮政,四川省,成都市,,生活服务;邮局;邮局
104.233385,30.333528,简阳市丹景邮政代办所,白三路与060县道交叉口东北100米,四川省,成都市,,生活服务;邮局;邮局
104.308343,30.296292,德邦快递(三岔镇营业部),简三路,四川省,成都市,,生活服务;物流速递;物流速递
104.620728,30.394441,简阳市江南邮政代办所,东溪镇江南龙兴街8号,四川省,成都市,,生活服务;邮局;邮局
104.495155,30.490403,优速快递(养马分部),养马镇安置小区荷花苑二期A区与B区相交处,四川省,成都市,,生活服务;生活服务场所;生活服务场所
104.557698,30.430578,京东快递(简阳雄州营业部),石钟镇柳林村五组,四川省,成都市,,生活服务;物流速递;物流速递
104.356040,30.439817,贾家蓬大物流,建设路383号,四川省,成都市,,生活服务;物流速递;物流速递
104.552424,30.383079,吉道物流,[],四川省,成都市,,生活服务;物流速递;物流速递
104.640410,30.428754,简阳市平武邮政所,平武镇政府金简路西,四川省,成都市,,生活服务;邮局;邮局
104.747636,30.454774,简阳市潮水邮政所,潮水村高马河街108-110,四川省,成都市,,生活服务;邮局;邮局
104.558050,30.384048,简阳市红建路南段邮政所,红建路南段天成国际社区G区7幢3-4,四川省,成都市,,生活服务;邮局;邮局
104.380872,30.237154,简阳市付家坪邮政代办所,付家坪村付家坪街26号,四川省,成都市,,生活服务;邮局;邮局
104.352566,30.465026,简阳市久隆邮政代办所,久隆村复兴路36号,四川省,成都市,,生活服务;邮局;邮局
104.562818,30.389297,简阳市东溪邮政支局,东溪镇北路98-100号,四川省,成都市,,生活服务;邮局;邮局
104.531075,30.262296,简阳市江源邮政所,鑫源街109-111,四川省,成都市,,生活服务;邮局;邮局
104.324446,30.396913,简阳市高明邮政所,高明乡汽车站,四川省,成都市,,生活服务;邮局;邮局
104.491440,30.264484,中通韵达快递,芦葭建安小区C区西南100米,四川省,成都市,,生活服务;生活服务场所;生活服务场所
104.517963,30.354037,中铁快运(简阳南站高铁营业部),简城街道高屋村1组简阳南站附近,四川省,成都市,,生活服务;生活服务场所;生活服务场所
104.494220,30.315582,简阳市石板邮政代办所,石板镇虎山街,四川省,成都市,,生活服务;邮局;邮局
104.361677,30.434651,简阳市柏林邮政代办所,顺成路与165乡道交叉口西50米,四川省,成都市,,生活服务;邮局;邮局
104.499477,30.353030,简阳市棉丰邮政代办所,棉丰街128号,四川省,成都市,,生活服务;邮局;邮局
104.606090,30.418749,简阳市新合邮政代办所,新合乡新合街11号,四川省,成都市,,生活服务;邮局;邮局
104.808031,30.420106,简阳市云龙邮政代办所,云龙镇文化路36-38号,四川省,成都市,,生活服务;邮局;邮局
104.502208,30.493100,简阳市七里邮政代办所,养马镇芙蓉街,四川省,成都市,,生活服务;邮局;邮局
104.705369,30.466323,简阳市三合邮政所,三合镇安佛乡,四川省,成都市,,生活服务;邮局;邮局
104.409401,30.322917,京东天猫德邦物流,草池镇安顺街289号,四川省,成都市,,生活服务;物流速递;物流速递
104.550102,30.418864,简阳市解放邮政代办所,铁堰村4组27号,四川省,成都市,,生活服务;邮局;邮局
104.690821,30.589580,简阳市寨子邮政代办所,踏水镇寨子柏林街综合市场内,四川省,成都市,,生活服务;邮局;邮局
104.689764,30.523487,简阳市踏水邮政所,中心街与平水街交叉口东南50米,四川省,成都市,,生活服务;邮局;邮局
104.370178,30.196893,简阳市赵家邮政代办所,镇金镇牛头嘴街1号,四川省,成都市,,生活服务;邮局;邮局
104.765111,30.347537,中国邮政三农服务站,梨圆街,四川省,成都市,,生活服务;生活服务场所;生活服务场所
104.578896,30.340483,法派物流园,简新大道南路66号,四川省,成都市,,生活服务;物流速递;物流速递|公司企业;公司;公司
104.463794,30.184177,中国邮政望水营业所,望水乡顺河街,四川省,成都市,,生活服务;邮局;邮局
104.368024,30.192483,韵达快递超市(镇金营业部),[],四川省,成都市,,生活服务;物流速递;物流速递
104.543267,30.386916,西部风物流,[],四川省,成都市,,生活服务;物流速递;物流速递
104.496450,30.322833,万事兴物流,高新区中和大道二段99号凤凰国际广场,四川省,成都市,,生活服务;物流速递;物流速递
104.710314,30.419161,余氏东风物流,元吉街,四川省,成都市,,生活服务;物流速递;物流速递
104.614942,30.550076,简阳市三星邮政代办所,三星镇隆都南街70号,四川省,成都市,,生活服务;邮局;邮局
104.641886,30.517929,简阳市联合邮政代办所,白庙村12组,四川省,成都市,,生活服务;邮局;邮局
104.324277,30.244129,简阳市董家埂邮政所,董家埂太平寺街,四川省,成都市,,生活服务;邮局;邮局
104.415133,30.240607,韵达快递超市(清风乡营业部),183县道附近,四川省,成都市,,生活服务;物流速递;物流速递
104.454515,30.488757,中通快递石盘公司,[],四川省,成都市,,生活服务;物流速递;物流速递
104.357879,30.438736,万达快运,贾家镇环城北路263号,四川省,成都市,,生活服务;物流速递;物流速递
104.508357,30.392800,简阳市降溪邮政代办所,顺河村6组,四川省,成都市,,生活服务;邮局;邮局
104.505330,30.422138,中通快运,安乐乡大华国际羊羊小镇,四川省,成都市,,生活服务;物流速递;物流速递
104.554200,30.399852,阔展物流(简阳店),雄州大道南段附近,四川省,成都市,,生活服务;物流速递;物流速递
104.550081,30.361824,简阳余氏东风物流,186县道南50米凯立威大道(红绿灯转右)天发物流6号仓库,四川省,成都市,,生活服务;物流速递;物流速递
104.479966,30.225849,成都优赛物流,[],四川省,成都市,,生活服务;物流速递;物流速递
104.555657,30.374251,富昌物流有限公司,简城镇滨江路南环线红绿灯口往东方威尼斯走20米,四川省,成都市,,生活服务;物流速递;物流速递
104.573503,30.449918,简阳市黄连邮政代办所,石钟镇龙颈街36号,四川省,成都市,,生活服务;邮局;邮局
104.505168,30.430829,三志物流简阳营业部,石桥镇e家天下A区3栋,四川省,成都市,,生活服务;物流速递;物流速递
104.544358,30.396543,四川远方物流运输有限公司,[],四川省,成都市,,生活服务;物流速递;物流速递
104.555425,30.381373,海风快运(简阳店),简阳市白塔路181号停车场内,四川省,成都市,,生活服务;物流速递;物流速递
104.369572,30.436807,简阳汇朋物流有限公司,[],四川省,成都市,,生活服务;物流速递;物流速递
104.556282,30.373784,路诚物流简阳网点,[],四川省,成都市,,生活服务;物流速递;物流速递
104.324794,30.243757,木木快递超市,董家埂镇董安街40,四川省,成都市,,生活服务;生活服务场所;生活服务场所
104.852262,30.378082,申通快递涌泉代理点,[],四川省,成都市,,生活服务;物流速递;物流速递
104.323988,30.325097,成都三果冷藏物流有限公司,[],四川省,成都市,,生活服务;物流速递;物流速递
104.301009,30.293692,成都蓬大物流取货点,[],四川省,成都市,,生活服务;物流速递;物流速递
104.547146,30.373036,四川省德盛物流有限公司,凤山路284号,四川省,成都市,,生活服务;物流速递;物流速递
104.434887,30.336795,中国邮政成都航空邮件处理中心(建设中),货运大道北,四川省,成都市,,生活服务;邮局;邮政速递
104.500375,30.433386,唯品会(西南物流中心),成简快速路,四川省,成都市,,生活服务;物流速递;物流速递
104.445929,30.268767,天天快递寄存点,芦葭镇富民街2号,四川省,成都市,,生活服务;生活服务场所;生活服务场所
104.504851,30.423446,四川吉瑞泰达物流有限公司,雄州大道大华国际B1栋10层3-5号,四川省,成都市,,生活服务;物流速递;物流速递
104.295287,30.291904,三岔余氐东风物流,望湖街241号,四川省,成都市,,生活服务;物流速递;物流速递
104.554663,30.379322,万路达物流有限公司,火车站街214号,四川省,成都市,,生活服务;物流速递;物流速递
104.510903,30.490975,申通快递简阳养马营业部,[],四川省,成都市,,生活服务;物流速递;物流速递
104.638667,30.429767,简阳市铭鑫物流有限公司,[],四川省,成都市,,生活服务;物流速递;物流速递
104.543205,30.395505,易邮快递柜,安西巷与安象街交叉口西南150米,四川省,成都市,,生活服务;邮局;邮政速递
104.422026,30.393079,德盛物流简阳市海螺乡服务站,沿河街,四川省,成都市,,生活服务;物流速递;物流速递
104.558366,30.380362,成都市千驹腾飞物流有限公司,红建路南段230,四川省,成都市,,生活服务;物流速递;物流速递
104.506140,30.422987,中通快递菜鸟驿站(成都大华国际B1栋店),大华国际B四栋一层26号,四川省,成都市,,生活服务;物流速递;物流速递
104.505136,30.430834,恒路物流成都安象营业部,石桥镇e家天下A区3-1-106-107,四川省,成都市,,生活服务;物流速递;物流速递
104.489122,30.311983,京东物流简阳石板凳营业部,石板凳镇先锋村一组139号,四川省,成都市,,生活服务;物流速递;物流速递
104.504017,30.497521,德邦,川橡路171号,四川省,成都市,,生活服务;物流速递;物流速递
104.553577,30.400199,苏宁易购简阳快递点,铭生巷41号,四川省,成都市,,生活服务;物流速递;物流速递
104.502003,30.353871,简阳市佳兴达物流有限公司,棉丰榨油厂西南70米,四川省,成都市,,生活服务;物流速递;物流速递
104.538456,30.372519,四川省好顺来物流有限公司,[],四川省,成都市,,生活服务;物流速递;物流速递
104.715796,30.415974,韵达快递超市禾丰镇营业部,[],四川省,成都市,,生活服务;物流速递;物流速递
104.554524,30.399287,成都市强强联手物流有限公司,雄州大道南段,四川省,成都市,,生活服务;物流速递;物流速递
104.550482,30.361337,四川川橡天发物流有限责任公司,简城镇南环线凯力威大道,四川省,成都市,,生活服务;物流速递;物流速递
104.506188,30.498321,成都瀚方联物流有限责任公司,铁东街附近,四川省,成都市,,生活服务;物流速递;物流速递
104.562282,30.386761,成都旭虹物流有限公司简阳门店,市场街与318国道交叉口西南150米,四川省,成都市,,生活服务;物流速递;物流速递
104.563283,30.392161,兔喜快递超市,东溪大道175号,四川省,成都市,,生活服务;物流速递;物流速递
104.554487,30.399310,优速快递河东新区营业部,雄州大道南段d区附近,四川省,成都市,,生活服务;物流速递;物流速递
104.614232,30.554898,余氏东风物流简阳三星收发货点,[],四川省,成都市,,生活服务;物流速递;物流速递
104.611919,30.556968,余氏东风物流简阳三星收发货点,龙颈坳街,四川省,成都市,,生活服务;物流速递;物流速递
104.495209,30.317864,电机维修·五金水泵·厨卫物流,石板东路,四川省,成都市,,生活服务;维修站点;维修站点
104.529413,30.369144,西川药速达物流有限公司(简阳分部),建设西路622号,四川省,成都市,,生活服务;物流速递;物流速递
104.620283,30.393190,菜鸟驿站(龙兴街8号店),东溪镇江南龙兴街8号简阳市江南邮政代办所,四川省,成都市,,生活服务;物流速递;物流速递
104.529425,30.369147,全速达物流供应链有限公司,建设西路622号,四川省,成都市,,生活服务;物流速递;物流速递
104.497216,30.319932,成都市勇军超物流信息有限公司,高新区神仙树南路8号中海名城21栋,四川省,成都市,,生活服务;生活服务场所;生活服务场所
104.560499,30.359653,中铁快运简阳营业部,凯力威大道40号,四川省,成都市,,生活服务;物流速递;物流速递
104.531423,30.372171,简州运业,简城镇建设西路1号,四川省,成都市,,生活服务;物流速递;物流速递
104.542535,30.380296,简阳申通航空快递服务有限公司,简城镇建设中路祥和苑19-20号,四川省,成都市,,生活服务;物流速递;物流速递
104.549512,30.364399,中通快运简阳分公司,凯力威大道北段,四川省,成都市,,生活服务;物流速递;物流速递
104.506210,30.426186,大华国际农产品交易物流中心,石桥镇(成渝高速公路石桥出口),四川省,成都市,,生活服务;物流速递;物流速递
104.542321,30.371756,天地华宇,川工街38号,四川省,成都市,,生活服务;物流速递;物流速递
104.548692,30.362139,顺丰速运,凯力威大道海鑫次干道四川川橡天发物流有限责任公司2号库(13路公交终点站),四川省,成都市,,生活服务;物流速递;物流速递
104.548945,30.362671,壹米滴答(简阳营业部),简城镇凯力威大道天发物流园内3号仓库1号门,四川省,成都市,,生活服务;物流速递;物流速递
104.702894,30.420239,余氏东风,螺简路,四川省,成都市,,生活服务;物流速递;物流速递
104.363615,30.433161,德邦,贾家街道顺城路13-14号,四川省,成都市,,生活服务;物流速递;物流速递
104.306054,30.297792,韵达(三岔街道服务站),交通路292号,四川省,成都市,,生活服务;物流速递;物流速递
104.357637,30.436163,贾家中通,贾家镇健康路19号附近,四川省,成都市,,生活服务;物流速递;物流速递
104.520889,30.421834,百世汇通,中和桥街49东90米,四川省,成都市,,生活服务;物流速递;物流速递
104.502426,30.493213,中通养马营业部,新市镇综合菜市场斜对面,四川省,成都市,,生活服务;物流速递;物流速递
104.696786,30.338815,五星中通韵达百世代办点,[],四川省,成都市,,生活服务;物流速递;物流速递
104.554571,30.385026,平安运业,简城镇大古井街239号,四川省,成都市,,生活服务;物流速递;物流速递
104.556370,30.374025,长吉货运,天成国际社区河景馨城K区6-8号,四川省,成都市,,生活服务;物流速递;物流速递
104.554760,30.376275,简阳市振兴运输有限公司,简城镇白塔路266号,四川省,成都市,,生活服务;物流速递;物流速递
104.531390,30.414970,菜鸟驿站,简城镇东城华府A区5栋101商铺,四川省,成都市,,生活服务;物流速递;物流速递
104.575174,30.347672,简阳市利达汽车运输有限公司,简城镇张家村五组,四川省,成都市,,生活服务;物流速递;物流速递
104.558222,30.379618,京东四川简阳配送站,简城镇白塔路408号,四川省,成都市,,生活服务;物流速递;物流速递
104.554825,30.378381,顺达货运部,白塔路16号,四川省,成都市,,生活服务;物流速递;物流速递
104.543190,30.384394,简阳市广天托运部,简城镇建设中路480号,四川省,成都市,,生活服务;物流速递;物流速递
104.554157,30.398862,简阳市恒昌运输有限公司,东溪镇雄州大道南段D区,四川省,成都市,,生活服务;物流速递;物流速递
104.363932,30.433010,顺丰速运,顺城路与顺成路交叉路口往南约100米(康居B区),四川省,成都市,,生活服务;物流速递;物流速递
104.364121,30.436065,安能贾家营业部,银丰路与165乡道交叉口东100米,四川省,成都市,,生活服务;物流速递;物流速递
104.420300,30.473721,菜鸟驿站(石盘广场店),石盘镇石盘新街44号(鄢师烧鸡公餐馆斜对面),四川省,成都市,,生活服务;物流速递;物流速递
104.552663,30.384726,付四姐酒水配送,长荣街188号-附5号附近,四川省,成都市,,生活服务;物流速递;物流速递
104.502433,30.495639,简阳市华邦货运部,世纪街,四川省,成都市,,生活服务;物流速递;物流速递
104.306550,30.298500,菜鸟驿站(学府路店),石板凳街道学府路35号,四川省,成都市,,生活服务;物流速递;物流速递
104.504504,30.500788,顺丰速运,[],四川省,成都市,,生活服务;物流速递;物流速递
104.400830,30.327704,菜鸟驿站(绛溪街店),草池街道绛溪街221号海尔专卖店旁边,四川省,成都市,,生活服务;物流速递;物流速递
104.494566,30.493283,菜鸟驿站,[],四川省,成都市,,生活服务;物流速递;物流速递
104.248806,30.282091,顺丰速运新民乡合作点,Y157(古屋街),四川省,成都市,,生活服务;物流速递;物流速递
104.500799,30.492363,壹米滴答,[],四川省,成都市,,生活服务;物流速递;物流速递
104.307704,30.298056,成都顺畅运业有限公司,长兴街80附近,四川省,成都市,,生活服务;物流速递;物流速递
104.296189,30.293114,建国货运,望湖南街,四川省,成都市,,生活服务;物流速递;物流速递
104.297933,30.295853,鑫汇货运有限公司,长兴街165号附近,四川省,成都市,,生活服务;物流速递;物流速递
104.501631,30.425783,康源万达配送中心,[],四川省,成都市,,生活服务;物流速递;物流速递
104.506015,30.429857,久盛龙骨配送中心,[],四川省,成都市,,生活服务;物流速递;物流速递
104.615368,30.555547,顺丰速运三星镇合作点,[],四川省,成都市,,生活服务;物流速递;物流速递
104.402609,30.310747,顺丰速运草池营业部,草池街道国防村一组62号,四川省,成都市,,生活服务;物流速递;物流速递
104.554203,30.398831,恒昌运业,[],四川省,成都市,,生活服务;物流速递;物流速递
104.553450,30.390671,菜鸟驿站(滨海佳苑店),简城镇蓝鲸路7号,四川省,成都市,,生活服务;物流速递;物流速递
104.378030,30.277653,菜鸟驿站成都福田乡店,"福田乡,正中街81号",四川省,成都市,,生活服务;物流速递;物流速递
104.578843,30.450309,顺丰速运石钟镇合作点,[],四川省,成都市,,生活服务;物流速递;物流速递
104.404964,30.324790,朔天配送中心草池区,Y168(裕民街),四川省,成都市,,生活服务;物流速递;物流速递
104.615701,30.555255,韵达EXPRESS,[],四川省,成都市,,生活服务;物流速递;物流速递
104.527659,30.416991,菜鸟驿站,解放路,四川省,成都市,,生活服务;物流速递;物流速递
104.519444,30.424340,中通石桥营业部,福建街130号附近,四川省,成都市,,生活服务;物流速递;物流速递
104.548790,30.362926,简阳市京东服务中心,[],四川省,成都市,,生活服务;物流速递;物流速递
104.492492,30.316134,顺丰速运,石板西路63号,四川省,成都市,,生活服务;物流速递;物流速递
104.417700,30.241506,菜鸟驿站(清东街店),清风乡清东街182号,四川省,成都市,,生活服务;物流速递;物流速递
104.554365,30.398485,仁和货运,东滨路南段8,四川省,成都市,,生活服务;物流速递;物流速递
104.558395,30.381560,菜鸟驿站,圣德路锦江家园,四川省,成都市,,生活服务;物流速递;物流速递
104.579398,30.330512,顺丰速运,新市镇新达街250-252号,四川省,成都市,,生活服务;物流速递;物流速递
104.578589,30.331919,菜鸟驿站(新市街道店),新市街道新达街348号,四川省,成都市,,生活服务;物流速递;物流速递
104.480193,30.222928,菜鸟驿站(雷家镇店),雷家镇永安街5号,四川省,成都市,,生活服务;物流速递;物流速递
104.532980,30.264730,菜鸟驿站(鑫源超市店),江源街道宝石上街2号,四川省,成都市,,生活服务;物流速递;物流速递
104.810067,30.342836,顺丰速运,[],四川省,成都市,,生活服务;物流速递;物流速递
104.542923,30.404675,菜鸟驿站(东湖胜景二期店),汇强·东湖胜景二期学园路49号,四川省,成都市,,生活服务;物流速递;物流速递
104.322164,30.395409,七普饲料公司库房,高明街,四川省,成都市,,生活服务;物流速递;物流仓储场地|公司企业;公司;公司
104.542144,30.398323,菜鸟驿站(成都海上花园店),公园后街17号12栋附近,四川省,成都市,,生活服务;物流速递;物流速递
104.358185,30.384111,顺丰速运(坛罐乡合作店),市新街,四川省,成都市,,生活服务;物流速递;物流速递
104.420268,30.424336,菜鸟驿站(成都太平桥店),赤水街道新兴街52号,四川省,成都市,,生活服务;物流速递;物流速递
104.422420,30.392960,菜鸟驿站(成都海螺乡店),贾家镇万年街153号,四川省,成都市,,生活服务;物流速递;物流速递
104.542535,30.380296,菜鸟驿站(成都祥和苑店),简城镇阳西街23号,四川省,成都市,,生活服务;物流速递;物流速递
104.529778,30.419536,菜鸟驿站(成都依云谷店),简城镇蜀阳路260号,四川省,成都市,,生活服务;物流速递;物流速递
104.553520,30.398930,菜鸟驿站(成都东滨路店),石桥镇东滨路南段22号,四川省,成都市,,生活服务;物流速递;物流速递
104.495000,30.315829,菜鸟驿站(石板凳街道店),石板凳街道虎山街283号,四川省,成都市,,生活服务;物流速递;物流速递
104.554711,30.391618,菜鸟驿站(成都金水街店),简城镇蓝鲸路80号,四川省,成都市,,生活服务;物流速递;物流速递
104.543774,30.380395,菜鸟驿站(成都祥和苑店),简城镇电材巷27号,四川省,成都市,,生活服务;物流速递;物流速递
104.542337,30.371898,菜鸟驿站(成都丰荷苑店),简城镇凤山路丰荷苑,四川省,成都市,,生活服务;物流速递;物流速递
104.571960,30.368510,菜鸟驿站(成都星光村店),星光村8组6号东方幼儿园斜对面,四川省,成都市,,生活服务;物流速递;物流速递
104.581621,30.331381,简阳市汽车运输有限公司,[],四川省,成都市,,生活服务;物流速递;物流速递
104.567532,30.372859,爱农社简阳学区配送中心,[],四川省,成都市,,生活服务;物流速递;物流速递
104.711698,30.418595,菜鸟驿站(成都禾丰镇店),禾丰镇裕民路32号,四川省,成都市,,生活服务;物流速递;物流速递
104.808104,30.418659,菜鸟驿站(成都云龙镇店),云龙镇云西街193号,四川省,成都市,,生活服务;物流速递;物流速递
104.759370,30.305620,菜鸟驿站(成都施家镇店),施家镇环溪南路34号,四川省,成都市,,生活服务;物流速递;物流速递
104.541452,30.383593,菜鸟驿站(成都阳晨D区店),简城镇广场路224号阳晨D区,四川省,成都市,,生活服务;物流速递;物流速递
104.530370,30.425370,菜鸟驿站(成都蓝湖陈邦店),石桥镇东滨路北段336号蓝湖城邦6栋-101号,四川省,成都市,,生活服务;物流速递;物流速递
104.548484,30.408428,菜鸟驿站(成都印鳌嘉苑店),简城镇泛月路256号印鳌嘉苑福美超市,四川省,成都市,,生活服务;物流速递;物流速递
104.537027,30.401868,菜鸟驿站(成都凯丽滨江店),简城镇江月街313号,四川省,成都市,,生活服务;物流速递;物流速递
104.545942,30.406276,菜鸟驿站(成都七号花园店),[],四川省,成都市,,生活服务;物流速递;物流速递
104.545610,30.370330,菜鸟驿站(成都中心家苑店),简城镇中心家苑1-z24,四川省,成都市,,生活服务;物流速递;物流速递
104.532390,30.424500,菜鸟驿站(成都江东半岛店),简城镇雄州大道北段255号江东半岛大门口,四川省,成都市,,生活服务;物流速递;物流速递
104.537814,30.407422,菜鸟驿站(成都天慧国际店),简城镇鸿雁路24号8幢11号商铺,四川省,成都市,,生活服务;物流速递;物流速递
104.541390,30.424350,菜鸟驿站(成都华盛国际店),简城镇水金路36号,四川省,成都市,,生活服务;物流速递;物流速递
104.542610,30.408690,菜鸟驿站(成都二号花园店),简城镇金融街189号,四川省,成都市,,生活服务;物流速递;物流速递
104.547179,30.405876,菜鸟驿站(成都七号花园店),简城镇金融街36号,四川省,成都市,,生活服务;物流速递;物流速递
104.378089,30.276919,菜鸟驿站(成都福田街道店),福田街道正中街81号,四川省,成都市,,生活服务;物流速递;物流速递
104.543303,30.416800,菜鸟驿站(成都映山岭秀店),简城镇龙颈路233号S-4-1-33,四川省,成都市,,生活服务;物流速递;物流速递
104.543229,30.395084,菜鸟驿站(成都精华逸景店),简城镇安西巷55号,四川省,成都市,,生活服务;物流速递;物流速递
104.544110,30.421300,菜鸟驿站(成都喜悦美麓店),"简城镇下花园路789号,喜悦美麓7-1-6号门市",四川省,成都市,,生活服务;物流速递;物流速递
104.552866,30.403705,菜鸟驿站(成都金色海岸店),简城镇人民路360号,四川省,成都市,,生活服务;物流速递;物流速递
104.542676,30.387483,菜鸟驿站(成都汇强上城店),简城镇广场路41号阳晨b区,四川省,成都市,,生活服务;物流速递;物流速递
104.540192,30.384358,菜鸟驿站(成都夜月春晓店),简城镇九义巷夜月春晓,四川省,成都市,,生活服务;物流速递;物流速递
104.545735,30.387556,菜鸟驿站(成都利民小区店),简城镇利民街街81号,四川省,成都市,,生活服务;物流速递;物流速递
104.544587,30.386035,菜鸟驿站(成都建设中路店),简城镇建设中路251号,四川省,成都市,,生活服务;物流速递;物流速递
104.542050,30.378240,菜鸟驿站(成都阳峰嘉苑店),简城镇建设中路669号阳峰嘉苑,四川省,成都市,,生活服务;物流速递;物流速递
104.556234,30.388297,菜鸟驿站(成都滨江花园店),简城镇红建路517号,四川省,成都市,,生活服务;物流速递;物流速递
104.562608,30.392004,菜鸟驿站(成都加州花园店),简城镇东溪大道163号,四川省,成都市,,生活服务;物流速递;物流速递
104.553315,30.386709,菜鸟驿站(成都沱江家园店),简城镇大古井街156号三小口子,四川省,成都市,,生活服务;物流速递;物流速递
104.560896,30.391879,菜鸟驿站(成都滨江新城店),东溪镇东城国际滨江新城,四川省,成都市,,生活服务;物流速递;物流速递
104.556133,30.384424,菜鸟驿站(成都蓝色港湾店),简城镇农兴街79号,四川省,成都市,,生活服务;物流速递;物流速递
104.556732,30.377625,菜鸟驿站(成都河景馨城店),简城镇白塔路408号河景馨城D区2-13号,四川省,成都市,,生活服务;物流速递;物流速递
104.574594,30.333216,菜鸟驿站(成都新市小学店),新市镇桂园路47号新市小学对面,四川省,成都市,,生活服务;物流速递;物流速递
104.640585,30.342823,菜鸟驿站(成都平泉街道店),平泉镇提坝街51号,四川省,成都市,,生活服务;物流速递;物流速递
104.555215,30.375429,简阳市雄州渣土汽车,[],四川省,成都市,,生活服务;物流速递;物流速递|汽车销售;汽车销售;汽车销售
104.369863,30.436939,简阳市贾家镇汇友食品配送部,318国道附近,四川省,成都市,,生活服务;物流速递;物流速递
104.417056,30.477687,菜鸟驿站(成都龙泉湖社区店),石盘街道南华新街151号,四川省,成都市,,生活服务;物流速递;物流速递
104.359360,30.387060,菜鸟驿站(成都坛罐乡家楷店),坛罐乡坛罐新街156号,四川省,成都市,,生活服务;物流速递;物流速递
104.504547,30.497680,菜鸟驿站(赤水街道铁东街店),赤水街道铁东街123号,四川省,成都市,,生活服务;物流速递;物流速递
104.528429,30.423730,菜鸟驿站(成都简阳峰景里店),简城镇东城新区万峰城D区峰景里F7-1-11门市,四川省,成都市,,生活服务;物流速递;物流速递
104.409477,30.477588,顺丰速运,[],四川省,成都市,,生活服务;生活服务场所;生活服务场所
104.497435,30.352929,菜鸟驿站(成都简城镇棉丰店),棉丰镇棉丰东街24号,四川省,成都市,,生活服务;物流速递;物流速递
104.519063,30.423996,菜鸟驿站(成都石桥福建街店),[],四川省,成都市,,生活服务;物流速递;物流速递
104.516840,30.432330,菜鸟驿站(成都简阳天慧城店),石桥镇回龙大道766号1栋1号,四川省,成都市,,生活服务;物流速递;物流速递
104.521294,30.422598,菜鸟驿站(成都石桥福建街店),石桥镇福建街26号,四川省,成都市,,生活服务;物流速递;物流速递
104.533623,30.411097,菜鸟驿站(成都喜悦美湖新店),雄州大道喜悦美湖树德路40号,四川省,成都市,,生活服务;物流速递;物流速递
104.545115,30.373129,日日顺社区服务中心(简阳店),[],四川省,成都市,,生活服务;物流速递;物流速递
104.488127,30.311438,京东服务中心(石板凳营业部),石板西路,四川省,成都市,,生活服务;物流速递;物流速递
104.549769,30.400382,菜鸟驿站(成都京龙江水湾店),石桥镇东滨路南段158号,四川省,成都市,,生活服务;物流速递;物流速递
104.542810,30.389222,菜鸟驿站(成都蓝水湾一期店),简城镇建设中路132附蓝水湾1期,四川省,成都市,,生活服务;物流速递;物流速递
104.552180,30.390550,菜鸟驿站(成都简阳银都巷店),简城镇银都巷22号,四川省,成都市,,生活服务;物流速递;物流速递
104.578757,30.450251,石钟镇顺丰速运(石钟代理点),石钟镇长沟村九组(石钟往黄连方向200米),四川省,成都市,,生活服务;物流速递;物流速递
104.309572,30.297675,花白鲢配送,[],四川省,成都市,,生活服务;生活服务场所;生活服务场所
104.580271,30.328982,菜鸟驿站(成都吴仲良中学店),新市镇新达街154号,四川省,成都市,,生活服务;物流速递;物流速递
104.705882,30.467072,菜鸟驿站(成都三合镇北街店),三合镇北街47号,四川省,成都市,,生活服务;物流速递;物流速递
104.514824,30.537355,特驱饲料配送中心,[],四川省,成都市,,生活服务;生活服务场所;生活服务场所
104.356737,30.436595,贾家桥头副食店(二门市),贾家镇中心西路208号,四川省,成都市,,购物服务;购物相关场所;购物相关场所
104.306606,30.297645,峨眉山牌建筑家装水泥,简三路,四川省,成都市,,购物服务;家居建材市场;建材五金市场
104.524511,30.402300,阿拉小优简阳配送中心,牌坊沟路,四川省,成都市,,生活服务;生活服务场所;生活服务场所
104.557797,30.387807,江小白配送,简城镇滨江路10号楼,四川省,成都市,,生活服务;生活服务场所;生活服务场所
104.549794,30.393256,简阳配送中心,印刷巷,四川省,成都市,,生活服务;生活服务场所;生活服务场所
104.565493,30.378566,鑫荣达配送,[],四川省,成都市,,生活服务;生活服务场所;生活服务场所
104.563563,30.382512,齐力兄弟,东溪大道,四川省,成都市,,生活服务;物流速递;物流速递|购物服务;购物相关场所;购物相关场所
104.552570,30.399170,富强运输,东溪镇东滨路南段64号门市(京龙江水湾星座大门侧),四川省,成都市,,生活服务;生活服务场所;生活服务场所
104.648420,30.343093,特驱饲料配送中心,[],四川省,成都市,,生活服务;生活服务场所;生活服务场所
104.372059,30.197018,顺丰镇金镇代理点,牛头嘴街304号,四川省,成都市,,生活服务;生活服务场所;生活服务场所
104.548940,30.411390,菜鸟驿站(成都河东花园A区店),简城镇人民路18号河东花园A区1-1-5,四川省,成都市,,生活服务;物流速递;物流速递
104.530186,30.415180,菜鸟驿站(成都东城华府B区店),石桥镇东城华府B区后门左边杨大姐茶馆转角巷子20米,四川省,成都市,,生活服务;物流速递;物流速递
104.555234,30.374909,菜鸟驿站(成都天城国际K区店),简城镇白塔路天成国际社区K区6号,四川省,成都市,,生活服务;物流速递;物流速递
104.552120,30.394030,菜鸟驿站(成都逸水鼎城1栋店),简城镇滨江路298号逸水鼎城1栋1单元101号,四川省,成都市,,生活服务;物流速递;物流速递
104.550464,30.394578,菜鸟驿站(成都红建路118号店),简城镇红建路118号鑫彬彬副食店,四川省,成都市,,生活服务;物流速递;物流速递
104.541488,30.382271,菜鸟驿站(成都阳晨新世界F店),[],四川省,成都市,,生活服务;物流速递;物流速递
104.563524,30.386510,顺丰速运(东溪代理点)(暂停营业),东溪镇东江锦绣对面,四川省,成都市,,生活服务;物流速递;物流速递
104.419890,30.476090,菜鸟驿站(成都简阳湖景新城店),石盘镇湖景新城步行街177号附11,四川省,成都市,,生活服务;物流速递;物流速递
104.500520,30.433750,菜鸟驿站(成都石桥镇唯品会店),石桥镇成简快速路唯品会食堂门口,四川省,成都市,,生活服务;物流速递;物流速递
104.301945,30.297100,顺丰速运(三岔街道乡镇营业站),三岔街道交通路73号,四川省,成都市,,生活服务;物流速递;物流速递
104.548170,30.395160,菜鸟驿站(成都简阳市五友路店),简城镇五友路一段92号,四川省,成都市,,生活服务;物流速递;物流速递
104.402895,30.325174,菜鸟驿站(成都草池综合市场店),草池镇降溪街25号,四川省,成都市,,生活服务;物流速递;物流速递
104.545754,30.383517,菜鸟驿站(成都川空鑫鑫副食店),简城镇川中路川空家园4号楼,四川省,成都市,,生活服务;物流速递;物流速递
104.520986,30.423765,菜鸟驿站(成都石桥新街33号店),石桥镇新街33号,四川省,成都市,,生活服务;物流速递;物流速递
104.533588,30.422984,菜鸟驿站(成都MINI公馆物业店),石桥镇雄州大道486号MINI公馆1栋2单元物业办公室,四川省,成都市,,生活服务;物流速递;物流速递
104.537261,30.418592,菜鸟驿站(成都简阳市筒车路店),简城镇筒车路97号,四川省,成都市,,生活服务;物流速递;物流速递
104.544610,30.427236,菜鸟驿站(成都港通山水华庭店),上花园路与射洪路北段交叉路口往东约100米,四川省,成都市,,生活服务;物流速递;物流速递
104.539880,30.399450,菜鸟驿站(成都简阳市安象街店),简城镇安象街258号,四川省,成都市,,生活服务;物流速递;物流速递
104.545980,30.404490,菜鸟驿站(成都简阳香江逸景店),石桥镇雄州大道南段289号,四川省,成都市,,生活服务;物流速递;物流速递
104.540500,30.405970,菜鸟驿站(成都简阳旭海广场店),石桥镇雄州大道南段389号旭海时代广场,四川省,成都市,,生活服务;物流速递;物流速递
104.542840,30.404860,菜鸟驿站(成都东湖胜景一期店),简城镇学园路47号,四川省,成都市,,生活服务;物流速递;物流速递
104.552626,30.380464,铁路货运(成都铁路局简阳站营业部),火车站街,四川省,成都市,,生活服务;物流速递;物流速递
104.541506,30.382398,菜鸟驿站（成都阳晨新世界F区）,广场路295号,四川省,成都市,,生活服务;物流速递;物流速递
104.554300,30.400288,菜鸟驿站(成都简阳射洪坝D区店),东溪镇还房D区桂义巷30号,四川省,成都市,,生活服务;物流速递;物流速递
104.504807,30.498563,简阳市养马镇骏驰装卸货运服务部,[],四川省,成都市,,生活服务;物流速递;物流速递
104.505330,30.422138,聚货,[],四川省,成都市,,生活服务;物流速递;物流速递
104.550222,30.407891,菜鸟驿站(成都简阳市河东花园店),石桥镇人民路78号,四川省,成都市,,生活服务;物流速递;物流速递
104.538550,30.428120,菜鸟驿站(成都简阳市东城一号店),石桥镇雄州大道282号射洪街道,四川省,成都市,,生活服务;物流速递;物流速递
104.556456,30.385251,菜鸟驿站(成都凌江峰阁农兴街店),简城镇农兴街59号附21号,四川省,成都市,,生活服务;物流速递;物流速递
104.537420,30.412300,菜鸟驿站(成都万安山峰悠山郡店),简城镇龙颈路99号万安三峰悠山郡物业办公室,四川省,成都市,,生活服务;物流速递;物流速递
104.539940,30.419330,菜鸟驿站(成都简阳市银河花园店),简城镇筒车路192号,四川省,成都市,,生活服务;物流速递;物流速递
104.562690,30.386340,菜鸟驿站(成都简阳市东江锦绣店),简城镇318国道东江锦绣,四川省,成都市,,生活服务;物流速递;物流速递
104.445547,30.268356,菜鸟驿站(成都芦葭镇芦葭桥街店),芦葭镇芦葭桥街145号,四川省,成都市,,生活服务;物流速递;物流速递
104.543020,30.222720,菜鸟驿站(成都永宁乡欣华电信店),永宁乡自立街152号,四川省,成都市,,生活服务;物流速递;物流速递
104.543347,30.387805,圆通仓库,建设中路与花园街交叉口西100米,四川省,成都市,,生活服务;物流速递;物流速递
104.428490,30.487630,菜鸟驿站(吉利学院学生住宿楼B栋),石盘镇成简快速路吉利学院,四川省,成都市,,生活服务;物流速递;物流速递
104.357720,30.381780,菜鸟驿站(成都坛罐乡综合体广场店),坛罐乡综合体广场B5-6号,四川省,成都市,,生活服务;物流速递;物流速递
104.553769,30.399124,菜鸟驿站(成都简阳市江水湾三期店),石桥镇雄州大道南段39号,四川省,成都市,,生活服务;物流速递;物流速递
104.550850,30.429200,菜鸟驿站(成都市简阳市悦隽江山店),石桥镇东壮路月隽江山,四川省,成都市,,生活服务;物流速递;物流速递
104.521550,30.361410,菜鸟驿站(成都简阳市新阳安中学店),简城镇简三路,四川省,成都市,,生活服务;物流速递;物流速递
104.505169,30.421785,顺丰速运（羊羊小镇速运营业部）,羊羊小镇背后(石桥镇大华国际正大门对面直走200米右转),四川省,成都市,,生活服务;生活服务场所;生活服务场所
104.413267,30.309139,成都市军均乐运输有限公司,草池镇王家沟,四川省,成都市,,生活服务;生活服务场所;生活服务场所
104.298982,30.296493,峨眉山冠生园食品有限公司,简三路,四川省,成都市,,公司企业;公司;公司
104.541238,30.398917,简阳市友缘商贸有限公司城区配送中心,安象街与银安街交叉路口往西北约50米(海上花园),四川省,成都市,,生活服务;物流速递;物流速递
104.551650,30.401190,菜鸟驿站(成都射洪坝一期安置小区店),简城镇雄州大道南段154号,四川省,成都市,,生活服务;物流速递;物流速递
104.544158,30.416719,简阳市友缘商贸有限公司河东配送中心,龙颈路,四川省,成都市,,生活服务;物流速递;物流速递
104.489580,30.267600,菜鸟驿站(成都芦葭建安村安置小区店),芦葭镇芦葭建安村安置房小区,四川省,成都市,,生活服务;物流速递;物流速递
104.546680,30.415471,菜鸟驿站(成都怡家花园鳌山路146号店),简城镇鳌山路146号香山和苑后门,四川省,成都市,,生活服务;物流速递;物流速递
104.560518,30.359479,简阳圆通分拣中心,凯力威工业大道北段,四川省,成都市,,生活服务;生活服务场所;生活服务场所
104.518643,30.594764,简阳市宗祥林业有限公司,三星镇宏缘乡河心村6组13号,四川省,成都市,,生活服务;物流速递;物流速递
104.512483,30.489459,韵达(养马镇服务站),石龙路,四川省,成都市,,生活服务;物流速递;物流速递
104.541936,30.378992,启航货运,广场路与建设西路交叉口东150米,四川省,成都市,,生活服务;生活服务场所;生活服务场所
104.533134,30.372287,简阳市新阳光运业有限公司,建设西路与简三路交叉口东200米,四川省,成都市,,公司企业;公司;公司|生活服务;物流速递;物流速递
104.364034,30.431959,菜鸟驿站(成都贾家镇荟储一期店),贾家镇双湖路荟储一期5栋102商铺,四川省,成都市,,生活服务;物流速递;物流速递
104.553593,30.383585,安吉迅客货运业有限责任公司,东风路47号,四川省,成都市,,公司企业;公司;公司
104.457494,30.535595,顺丰速运小鹏装卸搬运部周家乡灵仙乡合作点,[],四川省,成都市,,生活服务;物流速递;物流速递
104.302667,30.295158,高新区三岔镇合益食品配送服务部,[],四川省,成都市,,生活服务;生活服务场所;生活服务场所
104.809323,30.418650,简阳市云龙运输服务有限责任公司,[],四川省,成都市,,生活服务;生活服务场所;生活服务场所
104.539854,30.374886,逐日品牌管理有限公司简阳配送中心,建设西路630附近,四川省,成都市,,公司企业;公司;公司|生活服务;生活服务场所;生活服务场所
104.540288,30.399270,简阳宏通公路运业有限责任公司,简城镇安象街240号,四川省,成都市,,公司企业;公司;公司
104.553491,30.383247,中盐东兴盐化股份有限公司成都简阳市指定配送中心,东风路63号附近,四川省,成都市,,生活服务;物流速递;物流速递
104.552965,30.383371,宇通服务站简阳市汽车运输有限公司,白塔路113号,四川省,成都市,,生活服务;物流速递;物流速递
103.854452,30.446537,圆通速递,花桥镇政通街70号,四川省,成都市,,生活服务;物流速递;物流速递
103.899319,30.406733,圆通速递,普兴上街18号,四川省,成都市,,生活服务;物流速递;物流速递
103.805342,30.482313,圆通速递,歇马店街与访竹西路交叉路口往西约50米,四川省,成都市,,生活服务;物流速递;物流速递
103.805125,30.428084,圆通速递(兴园五路),兴园五路389号,四川省,成都市,,生活服务;物流速递;物流速递
103.785530,30.412669,圆通速递(新津区新平镇代办点),劳动街93号,四川省,成都市,新平,生活服务;物流速递;物流速递
103.806107,30.417957,意米斯ems,惠安路与迎宾大道交叉口东南50米,四川省,成都市,五津街道,生活服务;物流速递;物流速递
103.809339,30.416224,中通速递(新津分部),太升西街124-126号,四川省,成都市,五津街道,生活服务;物流速递;物流速递
103.815098,30.425673,极逸速递,成都市新津区迎宾大道8附12号,四川省,成都市,,生活服务;物流速递;物流速递
103.784527,30.410477,极兔速递,太平街,四川省,成都市,新平,生活服务;物流速递;物流速递
103.814889,30.425687,极兔速递(成都新津区网点),迎宾大道8附12号,四川省,成都市,,生活服务;物流速递;物流速递
103.900663,30.397287,力展物流,西创大道(汇津物流园),四川省,成都市,,生活服务;物流速递;物流速递
103.811209,30.484993,中通快递公司,兴义镇斑竹林街169号,四川省,成都市,,生活服务;物流速递;物流速递
103.914478,30.388948,渝鑫物流,普兴镇养正村邓家寺北路5附16号(聚兴酒楼旁),四川省,成都市,,生活服务;物流速递;物流速递
103.895551,30.402214,力展物流,龙腾街与凤凌街交叉路口南侧,四川省,成都市,,生活服务;物流速递;物流速递
103.804638,30.428804,衡川物流,兴园5路附近,四川省,成都市,,生活服务;物流速递;物流速递
103.858510,30.446235,韵达快递(金桥街),花桥镇金桥街99号,四川省,成都市,,生活服务;物流速递;物流速递
103.798651,30.515800,湘汉物流公司,余石桥物流园,四川省,成都市,,生活服务;物流速递;物流速递
103.860005,30.446431,中通快递,花桥镇金桥街179号,四川省,成都市,,生活服务;物流速递;物流速递
103.917249,30.394055,成都欣伟物流,普兴大道东段16号,四川省,成都市,,生活服务;物流速递;物流速递
103.893429,30.362171,仓储物流中心,[],四川省,成都市,,生活服务;物流速递;物流速递
103.804567,30.482121,韵达快运,兴义镇兴义中学对面歇马店街121号,四川省,成都市,,生活服务;物流速递;物流速递
103.823228,30.450632,百世快运,三新路,四川省,成都市,,生活服务;物流速递;物流速递
103.872060,30.464972,中铁快运,新津高铁站,四川省,成都市,,生活服务;物流速递;物流速递
103.803694,30.428692,百世快运,兴园5路附近,四川省,成都市,,生活服务;物流速递;物流速递
103.898111,30.397650,长吉物流(普兴金华站),普兴镇汇津物流园3区117号,四川省,成都市,,生活服务;物流速递;物流速递
103.785366,30.475259,东顺物流(成都至江西省、湖南省专线),万和物流园二期7栋7号,四川省,成都市,,生活服务;物流速递;物流速递
103.905605,30.397006,金邦物流,西创大道,四川省,成都市,,生活服务;物流速递;物流速递
103.899350,30.406756,中国邮政,[],四川省,成都市,,生活服务;邮局;邮局
103.742746,30.394248,中国邮政,京昆线与中合街交叉路口往西约50米,四川省,成都市,,生活服务;邮局;邮局
103.804670,30.426892,三合物流,[],四川省,成都市,,生活服务;物流速递;物流速递
103.811168,30.426654,海燕物流,希望路107、109号附近,四川省,成都市,,生活服务;物流速递;物流速递
103.804619,30.428796,三志物流,五津街道兴园五路419附8号,四川省,成都市,,生活服务;物流速递;物流速递
103.740524,30.338927,君健物流,新蒲路,四川省,成都市,,生活服务;物流速递;物流速递
103.804057,30.428575,长吉物流,兴园5路431西南方向80米,四川省,成都市,,生活服务;物流速递;物流速递
103.821549,30.446630,君健物流,三新路,四川省,成都市,,生活服务;物流速递;物流速递
103.890322,30.484902,中铁物流集团,白云大道(龙湖长桥郡南侧),四川省,成都市,花源街道,生活服务;物流速递;物流速递
103.881660,30.497399,腾发物流,花源镇花园街47号,四川省,成都市,,生活服务;物流速递;物流速递
103.803402,30.426301,宇鑫物流,五津镇平岗路348号,四川省,成都市,,生活服务;物流速递;物流速递
103.821738,30.446804,瑞府物流,三新路,四川省,成都市,,生活服务;物流速递;物流速递
103.783718,30.473710,松正物流,万和物流园二期3栋,四川省,成都市,,生活服务;物流速递;物流速递
103.757267,30.484951,文井邮政代办所,文井镇文井街210号,四川省,成都市,,生活服务;邮局;邮局
103.803458,30.413756,五津邮政支局,武阳西路228-234号,四川省,成都市,五津街道,生活服务;邮局;邮局
103.812030,30.411078,模范街邮政支局,五津镇模范街101号,四川省,成都市,五津街道,生活服务;邮局;邮局
103.808707,30.426368,安能物流(希望路店),五津镇希望路123号,四川省,成都市,,生活服务;物流速递;物流速递
103.805364,30.426707,嘉顺物流(兴园5路),五津镇古家村3组60号,四川省,成都市,,生活服务;物流速递;物流速递
103.745714,30.341819,韵达,梨花大道三段347号,四川省,成都市,,生活服务;生活服务场所;生活服务场所
103.899120,30.395361,申通快递,新科大道(汇津物流园南侧),四川省,成都市,,生活服务;物流速递;物流速递
103.807487,30.427457,极速快递,温州路,四川省,成都市,,生活服务;物流速递;物流速递
103.882475,30.486632,韵达(花源街道服务站),花源街道白云路4号附1号,四川省,成都市,花源街道,生活服务;物流速递;物流速递
103.815953,30.415897,申通快递(新津太康门市),太升东街129-131号,四川省,成都市,五津街道,生活服务;物流速递;物流速递
103.860260,30.446737,申通快递(花桥营业部),金桥街与长绍街交叉口东150米,四川省,成都市,,生活服务;物流速递;物流速递
103.804583,30.427901,天天快递(新津分公司),兴园5路386号,四川省,成都市,,生活服务;物流速递;物流速递
103.757561,30.487635,中通快递(文井分部),文井街152附1,四川省,成都市,,生活服务;物流速递;物流速递
103.894629,30.401974,百世快递(普兴站),新中路20号附近,四川省,成都市,,生活服务;物流速递;物流速递
103.800251,30.426105,申通快递(新津纯阳营业部),兴园2路,四川省,成都市,五津街道,生活服务;物流速递;物流速递
103.786150,30.411892,中通快递(新津太平分部),劳动街203号,四川省,成都市,新平,生活服务;物流速递;物流速递
103.810496,30.484483,百世快递兴义站点,兴盛街173号,四川省,成都市,,生活服务;生活服务场所;生活服务场所
103.884303,30.484837,中国邮政(开元邮政所),花源镇正源路100号,四川省,成都市,花源街道,生活服务;邮局;邮局
103.878051,30.497003,中国邮政(花源邮政支局),花源镇花园街180号,四川省,成都市,,生活服务;邮局;邮局
103.812032,30.411093,中国邮政(五津邮政营业厅),五津镇模范街101号,四川省,成都市,五津街道,生活服务;邮局;邮局
103.764700,30.429911,新平邮政代办所,万街19号,四川省,成都市,,生活服务;邮局;邮局
103.886554,30.379680,优速快递(金华分部),金华镇银杏路50号,四川省,成都市,,生活服务;物流速递;物流速递
103.750579,30.345313,中国邮政(永商邮政支局),和平街355附2附近,四川省,成都市,,生活服务;邮局;邮局
103.732133,30.425727,中国邮政(方兴邮政代办所),方兴南街4号附近,四川省,成都市,,生活服务;邮局;邮局
103.811154,30.484789,中国邮政(兴义邮政所),兴义镇兴盛街131号,四川省,成都市,,生活服务;邮局;邮局
103.846966,30.370391,中国邮政(邓双邮政代办所),飞雪路41号,四川省,成都市,,生活服务;邮局;邮局
103.854693,30.444222,中国邮政(花桥邮政支局),中学路4附2号,四川省,成都市,,生活服务;邮局;邮局
103.838452,30.419833,中国邮政(桥津代办所),桥津上街339号附近,四川省,成都市,,生活服务;邮局;邮局
103.899346,30.404302,中国邮政(普兴邮政代办所),普兴镇普兴东街29号,四川省,成都市,,生活服务;邮局;邮局
103.745741,30.341880,快递超市,[],四川省,成都市,,生活服务;物流速递;物流速递
103.836027,30.421574,快递之家,棉花沱小区棉花沱北街,四川省,成都市,,生活服务;生活服务场所;生活服务场所
103.811720,30.484807,申通快递,万和乡王巷子,四川省,成都市,,生活服务;物流速递;物流速递
103.809260,30.424428,申通快递,五津街道新津县五津镇温州路81号,四川省,成都市,五津街道,生活服务;物流速递;物流速递
103.913753,30.383345,申通快递,养信街,四川省,成都市,,生活服务;物流速递;物流速递
103.811674,30.484855,天天快递,兴盛街116号附近,四川省,成都市,,生活服务;物流速递;物流速递
103.803705,30.428718,百世快递,平岗路,四川省,成都市,,生活服务;物流速递;物流速递
103.761538,30.432363,申通快递,大新路,四川省,成都市,,生活服务;物流速递;物流速递
103.809331,30.424374,中通快递,温州路81号附近,四川省,成都市,五津街道,生活服务;物流速递;物流速递
103.799255,30.416564,中通快递,五津镇扁担街92号,四川省,成都市,五津街道,生活服务;物流速递;物流速递
103.886008,30.380914,韵达快递,四川省成都市新津县金华镇银杏路150号,四川省,成都市,,生活服务;物流速递;物流速递
103.885971,30.380982,金华邮政代办所,金华镇银杏路168号,四川省,成都市,,生活服务;邮局;邮局
103.805158,30.428124,中通快递,五津街道五津镇兴园五路387号,四川省,成都市,,生活服务;物流速递;物流速递
103.815031,30.417130,中国邮政(瑞新街邮政支局),瑞新街109附6号,四川省,成都市,五津街道,生活服务;邮局;邮局
103.792962,30.415642,中国邮政(电子商务营业厅),黄鹤大道334、332附21-23号附近,四川省,成都市,,生活服务;邮局;邮局
103.795144,30.387745,新津区永商邮政代办所,永商镇梨花大道一段577号附1一附4号,四川省,成都市,,生活服务;邮局;邮局
103.879788,30.490854,德邦快递(花源街道营业点),花源镇花园街733号,四川省,成都市,,生活服务;物流速递;物流速递
103.785185,30.412873,柯诚物流,新邛公路53号附近,四川省,成都市,,生活服务;物流速递;物流速递
103.744337,30.394111,通远达物流,京昆线与中合街交叉路口东侧,四川省,成都市,,生活服务;物流速递;物流速递
103.901143,30.377945,万纬冷链物流,西新大道(汉富·IF企业港北侧约150米),四川省,成都市,,生活服务;物流速递;物流仓储场地
103.919685,30.393202,伟津物流,西创大道辅路,四川省,成都市,,生活服务;物流速递;物流仓储场地
103.803969,30.428776,平成飞宇物流,五津镇平岗小区2栋9-1,四川省,成都市,,生活服务;物流速递;物流速递
103.881679,30.497329,鸿发物流园,花源镇花园路雪源茶楼后,四川省,成都市,,商务住宅;产业园区;产业园区
103.807450,30.403511,五航物流,永商镇五河路67号,四川省,成都市,,生活服务;生活服务场所;生活服务场所
103.749034,30.395149,新津区安西邮政代办所,安西街123号,四川省,成都市,,生活服务;邮局;邮局
103.803815,30.421493,中国邮政集团公司新津县分公司投递部,五津街道平岗路165-附18号,四川省,成都市,五津街道,生活服务;邮局;邮政速递
103.805550,30.407873,京东物流成都新津站,文昌路22附近,四川省,成都市,,生活服务;物流速递;物流速递
103.882769,30.483837,成都平诚飞宇物流,正西后街,四川省,成都市,花源街道,生活服务;物流速递;物流速递
103.798990,30.515928,余石桥物流园,兴义镇余石桥,四川省,成都市,,生活服务;生活服务场所;生活服务场所
103.886357,30.378506,金华镇韵达快递,宝清路3附1号附近,四川省,成都市,,生活服务;物流速递;物流速递
103.799632,30.416364,海风快运,扁担街93、95号,四川省,成都市,五津街道,生活服务;物流速递;物流速递
103.814299,30.439734,余氏东风物流(希望路店),兴园6路80号,四川省,成都市,,生活服务;物流速递;物流速递
103.814101,30.440254,余氏东风物流(兴园六路店),兴园六路80号,四川省,成都市,,生活服务;物流速递;物流速递
103.785174,30.411068,申通快递代理点,新平镇太平街8号,四川省,成都市,新平,生活服务;物流速递;物流速递
103.803654,30.428367,佳靖物流有限公司,[],四川省,成都市,,生活服务;物流速递;物流速递
103.914520,30.388864,新站红程物流,大黄路与新普路交叉口西北100米,四川省,成都市,,生活服务;物流速递;物流速递
103.897697,30.398779,汇津清鑫物流,G93(普兴立交桥),四川省,成都市,,生活服务;物流速递;物流速递
103.856412,30.445233,百世快递花桥站,桩桥街与长绍街交叉路口往东南约150米,四川省,成都市,,生活服务;物流速递;物流速递
103.803500,30.420470,百世快递新津站,忠义路15东南80米,四川省,成都市,五津街道,生活服务;物流速递;物流速递
103.762961,30.436626,成都福记物流有限公司,宝墩镇龙马村9组,四川省,成都市,,生活服务;物流速递;物流速递
103.804638,30.421594,成都洪禾物流有限公司,平岗路159号附近,四川省,成都市,五津街道,生活服务;物流速递;物流速递
103.873276,30.472240,成都津恒物流有限公司,[],四川省,成都市,,生活服务;物流速递;物流速递
103.803308,30.418725,成都川仁物流有限公司,平儒路,四川省,成都市,五津街道,生活服务;物流速递;物流速递
103.914721,30.384898,成都祥悦物流有限公司,普兴街道养正社区养方街22号,四川省,成都市,,生活服务;物流速递;物流速递
103.924243,30.384807,成都广久物流有限公司,邓家寺北路9,四川省,成都市,,公司企业;公司;公司
103.760754,30.394204,成都普诚物流有限公司,安西镇安西村13组19-20号,四川省,成都市,,生活服务;物流速递;物流速递
103.876803,30.471898,成都新诚物流有限公司,花源镇大件路南段天力加油站旁,四川省,成都市,,生活服务;物流速递;物流速递
103.848018,30.431040,成都兴伟物流有限公司,蔡湾街814号,四川省,成都市,,生活服务;生活服务场所;生活服务场所
103.928796,30.388709,嘉民新津物流中心,[],四川省,成都市,,生活服务;物流速递;物流速递
103.890209,30.485076,中铁物流集团花源营业部,白云大道401号附近,四川省,成都市,花源街道,生活服务;物流速递;物流速递
103.783847,30.410493,韵达快递新平代理点,白团路37号,四川省,成都市,新平,生活服务;物流速递;物流速递
103.921576,30.384855,四川省特运物流有限公司,[],四川省,成都市,,生活服务;物流速递;物流速递
103.916122,30.384149,成都市路全物流有限公司,[],四川省,成都市,,生活服务;物流速递;物流速递
103.920324,30.388200,成都市全豪物流有限公司,XA27(大黄路),四川省,成都市,,生活服务;物流速递;物流速递
103.846816,30.428617,成都市九尊物流有限公司,蔡湾村一组88号,四川省,成都市,,生活服务;物流速递;物流速递
103.782675,30.474919,华通诚意物流有限公司,万和物流园,四川省,成都市,,生活服务;物流速递;物流速递
103.793717,30.416697,成都凌氏物流有限公司,黄鹤大道326号,四川省,成都市,,生活服务;物流速递;物流速递
103.744588,30.340739,菜鸟驿站(永商邮政支局611436001店),永商镇和平街31号(永商邮政支局邮政自提点),四川省,成都市,,生活服务;物流速递;物流速递
103.811500,30.422099,成都恒璐物流有限公司,[],四川省,成都市,五津街道,生活服务;物流速递;物流速递
103.915630,30.394182,成都伟经物流园,[],四川省,成都市,,生活服务;物流速递;物流速递
103.901249,30.377158,太古冷链物流(成都)有限公司,金华镇物流园区清云北路,四川省,成都市,,生活服务;物流速递;物流速递
103.924872,30.386449,正企物流有限公司,大黄路北100米,四川省,成都市,,生活服务;物流速递;物流速递
103.924949,30.386564,成都中阳物流有限责任公司,[],四川省,成都市,,生活服务;物流速递;物流速递
103.744515,30.395009,四川宏祥大道物流有限公司,中合街22附3附近,四川省,成都市,,生活服务;物流速递;物流速递
103.912422,30.380743,成都市欣发物流有限公司,[],四川省,成都市,,生活服务;物流速递;物流速递
103.895210,30.402465,成都市茂盛物流有限公司,凤凌街与龙翔街交叉路口西南侧,四川省,成都市,,生活服务;物流速递;物流速递
103.804760,30.427961,优速快递新津八部,兴园五路,四川省,成都市,,生活服务;物流速递;物流速递
103.803979,30.428899,成都锐特物流有限公司(三合),希望西路125号附近,四川省,成都市,,生活服务;物流速递;物流速递
103.921599,30.384899,成都市新津龙盛物流有限公司,养廉街,四川省,成都市,,生活服务;物流速递;物流速递
103.920476,30.381360,四川国储天府物流园区,物流园邓家寺北路13号,四川省,成都市,,生活服务;物流速递;物流仓储场地
103.914760,30.384117,四川亚成物流有限责任公司,普兴镇火车站,四川省,成都市,,生活服务;生活服务场所;生活服务场所
103.781951,30.474599,成都到九江运通物流有限公司,万和村万和物流园8幢9号库,四川省,成都市,,生活服务;物流速递;物流速递
103.847983,30.431105,成都盛世诚运物流有限公司,长绍街,四川省,成都市,,生活服务;物流速递;物流速递
103.899980,30.377399,成都万申冷链物流有限公司,金华镇清云北路399号,四川省,成都市,,生活服务;物流速递;物流速递
103.918339,30.388404,成都顺丰源物流有限公司,普兴镇邓家寺北路5号附23号,四川省,成都市,,生活服务;物流速递;物流速递
103.806808,30.425625,成都顺展鸿途物流有限公司,兴园五路,四川省,成都市,,生活服务;物流速递;物流速递
103.914715,30.371750,东百集团成都新津物流中心,金华镇西新大道688号,四川省,成都市,,生活服务;物流速递;物流速递
103.731177,30.424926,韵达快递收件取件点,方兴街40附1号附近,四川省,成都市,,生活服务;物流速递;物流速递
103.924088,30.386263,成都市新骥物流有限公司,中储粮背后商铺200米,四川省,成都市,,生活服务;物流速递;物流速递
103.901696,30.399837,四川汇津现代物流股份有限公司,普兴大道西段1号,四川省,成都市,,生活服务;物流速递;物流速递
103.922297,30.381083,四川国储天府物流有限公司,物流园邓家寺北路13号,四川省,成都市,,生活服务;物流速递;物流速递
103.915741,30.370989,龙地东百新津物流园,西新大道,四川省,成都市,,生活服务;物流速递;物流仓储场地
103.923971,30.386306,成都顺丰源物流有限公司,[],四川省,成都市,,生活服务;物流速递;物流速递
103.816925,30.405468,成都市楠峰物流有限公司,五河路7附11号附近,四川省,成都市,,生活服务;物流速递;物流速递
103.804550,30.411892,丰巢快递柜,五津镇海林西巷22,四川省,成都市,五津街道,生活服务;物流速递;物流速递
103.819732,30.420895,丰巢快递柜,水井街与瑞安路交叉路口东北侧(翡翠湾-二期),四川省,成都市,五津街道,生活服务;物流速递;物流速递
103.782070,30.476257,万和物流园农作物仓储配送,成新蒲快速路(万和物流园),四川省,成都市,,生活服务;物流速递;物流速递
103.901465,30.400073,汇津物流园招商中心,[],四川省,成都市,,生活服务;生活服务场所;生活服务场所
103.743721,30.394242,成都川祥通物流有限公司,中合街,四川省,成都市,,生活服务;物流速递;物流速递
103.743749,30.394138,成都迅时捷宇吉物流有限公司,中合街与新邛公路交叉口西北50米,四川省,成都市,,生活服务;物流速递;物流速递
103.886825,30.377789,百世快运金华普兴营业部,宝清路33号,四川省,成都市,,生活服务;物流速递;物流速递
103.783163,30.475023,潮客物流安徽全直达,万和村万和物流园,四川省,成都市,,生活服务;物流速递;物流速递
103.924174,30.386277,建洪货运代理营销部,[],四川省,成都市,,生活服务;物流速递;物流速递
103.811365,30.426737,德邦(新津营业部),五津镇希望大道125-129号,四川省,成都市,,生活服务;物流速递;物流速递
103.914791,30.371907,顺丰成都快运中转场,熊家埂,四川省,成都市,,生活服务;物流速递;物流速递
103.908580,30.375371,苏宁家乐福(中国西区物流中心),"龙溪河北路318,388号(砖桥村)",四川省,成都市,,生活服务;物流速递;物流仓储场地
103.924923,30.386525,重庆志骏物流有限公司驻成都办事处,大黄路北100米,四川省,成都市,,生活服务;物流速递;物流速递
103.782478,30.458550,咸鱼公社新津快递共配服务中心(吴店子店),[],四川省,成都市,,生活服务;物流速递;物流速递
103.806850,30.418044,新津快递共配服务中心(水城嘉瑞店),水城嘉瑞,四川省,成都市,五津街道,生活服务;物流速递;物流速递
103.816253,30.408068,咸鱼公社新津快递共配服务中心(南桥新天地店),[],四川省,成都市,五津街道,生活服务;物流速递;物流速递
103.803904,30.428869,建国货运(兴园5路),兴园5路419附15-17号,四川省,成都市,,生活服务;物流速递;物流速递
103.855826,30.443486,京东(花源配送站点),成都市新津区仁和街47号,四川省,成都市,,生活服务;物流速递;物流速递
103.786885,30.413982,宅急送(新津营业厅),新平镇劳动街112号,四川省,成都市,,生活服务;物流速递;物流速递
103.885826,30.380518,新津中通,金华镇银杏路48号,四川省,成都市,,生活服务;物流速递;物流速递
103.833613,30.388582,德邦(岷江大道营业部),岷江大道三段67号,四川省,成都市,,生活服务;物流速递;物流速递
103.895884,30.380072,德邦,金华镇亿邦机电城,四川省,成都市,,生活服务;物流速递;物流速递
103.803527,30.425900,韵达,平岗路332号334号,四川省,成都市,,生活服务;物流速递;物流速递
103.804434,30.427851,顺丰速运(兴园5路),兴园5路,四川省,成都市,,生活服务;物流速递;物流速递
103.887920,30.485526,菜鸟驿站(金秋乐园店),花源镇白云路295号金秋乐园白云大道295号,四川省,成都市,花源街道,生活服务;物流速递;物流速递
103.811267,30.484844,快邮驿站,[],四川省,成都市,,生活服务;物流速递;物流速递
103.855821,30.443473,京东成都花源营业部,成都市新津县花桥镇仁和街43号,四川省,成都市,,生活服务;物流速递;物流速递
103.811287,30.485107,菜鸟驿站,兴义镇兴盛街131号,四川省,成都市,,生活服务;物流速递;物流速递
103.854365,30.446752,妈妈驿站,政通街,四川省,成都市,,生活服务;物流速递;物流速递
103.920352,30.383255,普兴分拨中心,养廉街,四川省,成都市,,生活服务;物流速递;物流速递
103.899658,30.405291,妈妈驿站,普兴东街(新津县普兴初中西南侧约100米),四川省,成都市,,生活服务;物流速递;物流速递
103.900452,30.396858,顺丰速运,[],四川省,成都市,,生活服务;物流速递;物流速递
103.755412,30.489855,耀户饲料配送中心,帅公馆街与文井西巷交叉路口西侧,四川省,成都市,,生活服务;物流速递;物流速递
103.805594,30.426798,OK Express UNION,[],四川省,成都市,,生活服务;物流速递;物流速递
103.780932,30.460068,酒席配送,吴店街与新文路交叉路口西侧,四川省,成都市,,生活服务;生活服务场所;生活服务场所
103.796913,30.427299,新津秋华食品,五津镇儒林路576号,四川省,成都市,,生活服务;物流速递;物流速递
103.814458,30.439874,韵达新津区服务站,至兴园6路80号,四川省,成都市,,生活服务;物流速递;物流速递
103.866870,30.384099,菜鸟驿站,黄津路(岳店社区西侧),四川省,成都市,,生活服务;物流速递;物流速递
103.804479,30.421681,普通货运信息配载,平岗路(欧郡南侧约100米),四川省,成都市,五津街道,生活服务;物流速递;物流速递
103.748890,30.491735,成都弘发货运有限公司,XA3851,四川省,成都市,,生活服务;物流速递;物流速递
103.833129,30.388221,壹米滴答,岷江大道三段58号附近,四川省,成都市,,生活服务;物流速递;物流速递
103.805231,30.426378,顺心捷达新津五津店,兴园五路337号附16-17号,四川省,成都市,,生活服务;物流速递;物流速递
103.785422,30.412600,妈妈驿站,京昆线,四川省,成都市,新平,生活服务;物流速递;物流速递
103.800533,30.416817,良伟货运部,扁担街16号附近,四川省,成都市,五津街道,生活服务;物流速递;物流速递
103.751060,30.395399,菜鸟驿站(安西镇店),安西镇安西街80号时尚造型对面菜鸟驿站,四川省,成都市,,生活服务;物流速递;物流速递
103.885030,30.478668,菜鸟驿站(成职院创业街),花源大道310号成都职业技术学院花源校区,四川省,成都市,花源街道,生活服务;物流速递;物流速递
103.882355,30.486661,菜鸟驿站(白云路4号店),花源街道白云路4号,四川省,成都市,花源街道,生活服务;物流速递;物流速递
103.797980,30.424971,韵达EXPRESS园区代理点,儒林路,四川省,成都市,五津街道,生活服务;物流速递;物流速递
103.854436,30.446760,菜鸟驿站(政通街83号店),政通街83号,四川省,成都市,,生活服务;物流速递;物流速递
103.804666,30.427815,壹米滴答新津安西营业部,五津街道古家村3组34号,四川省,成都市,,生活服务;物流速递;物流速递
103.804825,30.407360,新津区生态鲜奶配送中心,文昌路34附近,四川省,成都市,,生活服务;物流速递;物流速递
103.854713,30.444612,中国体育彩票,花桥镇中学路7号,四川省,成都市,,生活服务;物流速递;物流速递|生活服务;彩票彩券销售点;彩票彩券销售点
103.920530,30.382924,普兴铁路货场,普兴镇,四川省,成都市,,生活服务;物流速递;物流仓储场地
103.883720,30.487769,菜鸟驿站,花源镇白云大道115号,四川省,成都市,花源街道,生活服务;物流速递;物流速递
103.744940,30.341130,菜鸟驿站,永商镇和平街63号,四川省,成都市,,生活服务;物流速递;物流速递
103.804271,30.428887,马帮传奇·盛世前程,兴园五路与希望西路交叉路口往南约100米,四川省,成都市,,生活服务;物流速递;物流速递
103.860172,30.446394,菜鸟驿站(金桥街177号店),金桥街177号,四川省,成都市,,生活服务;物流速递;物流速递
103.885834,30.380540,菜鸟驿站(银杏路124号店),普兴街道银杏路124号,四川省,成都市,,生活服务;物流速递;物流速递
103.816241,30.424931,壹米滴答,瑞通路229号附近,四川省,成都市,,生活服务;物流速递;物流速递|购物服务;购物相关场所;购物相关场所
103.883282,30.480227,菜鸟驿站(竹苑大道47号店),花源街道竹苑大道47号菜鸟驿站,四川省,成都市,花源街道,生活服务;物流速递;物流速递
103.881308,30.464912,菜鸟驿站(金科廊桥水乡店),花源街道兴普大道241号,四川省,成都市,,生活服务;物流速递;物流速递
103.915459,30.394745,天府新区公路货物集散中心,新普路附近,四川省,成都市,,生活服务;物流速递;物流速递
103.806474,30.426312,菜鸟驿站(成都颐和雅郡店),五津街道兴园五路176号,四川省,成都市,,生活服务;物流速递;物流速递
103.804580,30.428781,新津县三志配送服务部代办,兴园5路附近,四川省,成都市,,生活服务;物流速递;物流速递
103.879395,30.497256,菜鸟驿站(花园老街201号店),花源街道花园老街201号(梦璐旁边),四川省,成都市,,生活服务;物流速递;物流速递
103.887842,30.486975,菜鸟驿站(成艺大学后校门店),白云大道与花源大道交叉路口东侧(金秋乐园西北侧),四川省,成都市,花源街道,生活服务;物流速递;物流速递
103.888502,30.486764,顺丰速运,花源镇龙翔四街32号,四川省,成都市,花源街道,生活服务;生活服务场所;生活服务场所
103.808457,30.426936,新津诚兴食品配送,温州路148附近,四川省,成都市,,生活服务;物流速递;物流速递
103.917520,30.382376,普兴货运站,养廉街(普兴站东侧约150米),四川省,成都市,,生活服务;生活服务场所;生活服务场所
103.814535,30.483002,兴义配送中心,三新路114号附近,四川省,成都市,,生活服务;生活服务场所;生活服务场所
103.808383,30.426958,惠盈配送中心,五津镇内温州路148号,四川省,成都市,,生活服务;生活服务场所;生活服务场所
103.857861,30.446853,双茂配送中心,长绍街171附134附近,四川省,成都市,,生活服务;生活服务场所;生活服务场所|购物服务;购物相关场所;购物相关场所
103.821829,30.423045,菜鸟驿站(成都新津海悦豪庭店),五津街道瑞东路102号海悦豪庭一期,四川省,成都市,,生活服务;物流速递;物流速递
103.815750,30.432250,菜鸟驿站(成都新筑鼎峰15栋店),五津街道新筑鼎峰后大门15栋1单元,四川省,成都市,,生活服务;物流速递;物流速递
103.835890,30.382490,菜鸟驿站(成都新津罗山新居店),"邓双镇岷山大道三段366号,罗山新居小区",四川省,成都市,,生活服务;物流速递;物流速递
103.814102,30.419829,菜鸟驿站(成都新津九龙公寓店),瑞园路149号-附1附近,四川省,成都市,五津街道,生活服务;物流速递;物流速递
103.868420,30.384290,菜鸟驿站(成都新津岳店小区店),金华镇岳店小区,四川省,成都市,,生活服务;物流速递;物流速递
103.824619,30.392280,菜鸟驿站(成都新津芝芝花园店),邓双镇芝芝路路8号成都农商银行旁,四川省,成都市,,生活服务;物流速递;物流速递
103.798275,30.413406,菜鸟驿站(成都新津江山多娇店),五津街道西顺河街398号江山多娇86栋三单元物业服务中心,四川省,成都市,,生活服务;物流速递;物流速递
103.898340,30.406806,久酒粮配送,普兴西街14号附近,四川省,成都市,,生活服务;生活服务场所;生活服务场所
103.900200,30.377554,中国沃尔玛生鲜配送中心,[],四川省,成都市,,生活服务;物流速递;物流速递
103.835460,30.418730,菜鸟驿站(成都新津棉花沱小区店),花桥镇棉花沱北路81号,四川省,成都市,,生活服务;物流速递;物流速递
103.837029,30.421512,菜鸟驿站(成都新津棉花沱小区店),棉花沱北路(棉花沱社区),四川省,成都市,,生活服务;物流速递;物流速递
103.911410,30.380820,菜鸟驿站(成都新津养瑞苑小区店),普兴镇养信街养瑞苑小区六栋二单元101室,四川省,成都市,,生活服务;物流速递;物流速递
103.750165,30.395492,菜鸟驿站(成都新津安西街80号店),安西街,四川省,成都市,,生活服务;物流速递;物流速递
103.757630,30.487630,菜鸟驿站(成都新津文井街152号店),文井乡文井街152号(文井乡卫生院对面),四川省,成都市,,生活服务;物流速递;物流速递
103.882757,30.484175,菜鸟驿站(花源街道宜兴茶楼95号店),花源街道府西路95号,四川省,成都市,花源街道,生活服务;物流速递;物流速递
103.885149,30.406093,菜鸟驿站(成都新津天府城邦四期店),普兴镇骑龙湖三路恒大天府城邦四期34栋底商107号,四川省,成都市,,生活服务;物流速递;物流速递
103.891570,30.403429,菜鸟驿站(成都新津恒大天府城邦店),成都市新津县普兴镇骑龙湖三路323,四川省,成都市,,生活服务;物流速递;物流速递
103.801277,30.407779,菜鸟驿站(成都新津望江安置小区店),永商镇望滨路111号,四川省,成都市,,生活服务;物流速递;物流速递
103.887480,30.486060,菜鸟驿站(成都新津花源龙祥路8号店),花源镇龙祥路8号,四川省,成都市,花源街道,生活服务;物流速递;物流速递
103.882340,30.478890,菜鸟驿站(成都职业技术学院花源校区),花源镇成都职业技术学院创业街菜鸟驿站,四川省,成都市,花源街道,生活服务;物流速递;物流速递
103.812013,30.435623,菜鸟驿站(成都新津龙王渡二期13栋店),五津街道兴园三路龙王渡二期13栋1单元1号,四川省,成都市,,生活服务;物流速递;物流速递
103.812096,30.484186,菜鸟驿站(成都新津兴义斑竹林183号店),兴义镇斑竹林街183号,四川省,成都市,,生活服务;物流速递;物流速递
103.894540,30.410200,菜鸟驿站(成都普兴镇安置房5期10栋店),普兴镇普兴西街42附2号,四川省,成都市,,生活服务;物流速递;物流速递
103.805185,30.482264,菜鸟驿站(成都新津兴义歇马店街95号店),兴义镇歇马店街95号,四川省,成都市,,生活服务;物流速递;物流速递
103.887299,30.380267,菜鸟驿站(成都新津金华镇宝峰路23号店),金华镇宝峰路23号店,四川省,成都市,,生活服务;物流速递;物流速递
103.818230,30.428235,菜鸟驿站(成都新津隆鑫印象城邦正门店),五津街道兴园3路6号隆鑫印象城邦,四川省,成都市,,生活服务;物流速递;物流速递
103.882810,30.476610,菜鸟驿站(成都新津柳河苑2栋1单元1号店),花源镇兴普大道柳河苑,四川省,成都市,花源街道,生活服务;物流速递;物流速递
103.883257,30.474807,菜鸟驿站(成都新津优博淘花源商业广场店),花源镇柳河村优博淘华源1-123,四川省,成都市,,生活服务;物流速递;物流速递
103.811610,30.426324,成都新津红祥汽车运输有限公司,五津镇希望路111号,四川省,成都市,五津街道,生活服务;物流速递;物流速递
103.804889,30.419162,华美配送,平岗路和谐商务旅馆旁,四川省,成都市,五津街道,生活服务;生活服务场所;生活服务场所
103.919906,30.382998,铁路货运(新津货运站营业厅),普兴镇养正养方街新津站东300米,四川省,成都市,,生活服务;物流速递;物流速递
103.478469,30.403907,邮政速递物流公司(邛崃市分公司),东星大道453号,四川省,成都市,临邛,生活服务;邮局;邮政速递
103.477816,30.403981,邛崃市邮政局,东星大道443号,四川省,成都市,临邛,生活服务;邮局;邮局
103.477619,30.404002,中国邮政集团公司(邛崃市分公司),东星大道443号,四川省,成都市,临邛,公司企业;公司;公司
103.350722,30.413211,中国邮政包裹快递代收点,马湖街,四川省,成都市,,生活服务;邮局;邮政速递
103.336071,30.342415,邛崃市平乐邮政支局,迎宾大道226号附近,四川省,成都市,,生活服务;邮局;邮局
103.698101,30.398244,中国邮政,黄塔街,四川省,成都市,,生活服务;邮局;邮局
103.635241,30.376028,中国邮政,正街(高埂中学东北侧约50米),四川省,成都市,,生活服务;邮局;邮局
103.419040,30.335340,中国邮政,金龙街与龙潭街交叉路口西北侧,四川省,成都市,,生活服务;邮局;邮局
103.339365,30.500633,邛崃市大同邮政代办所,大同乡富民街86号,四川省,成都市,,生活服务;邮局;邮局
103.450922,30.477985,中国邮政便民服务站,桑园大桥,四川省,成都市,,生活服务;邮局;邮局
103.504413,30.381382,邛崃市宝林邮政代办所,宝塔社区桥南街113号,四川省,成都市,,生活服务;邮局;邮局
103.671344,30.353323,邛崃市牟礼邮政代办所,新建街377号,四川省,成都市,牟礼村,生活服务;邮局;邮局
103.158867,30.323640,邛崃市高何邮政代办所,高何镇上天街96号,四川省,成都市,,生活服务;邮局;邮局
103.419912,30.522789,邛崃市茶园邮政代办所,茶园乡茶西路111号,四川省,成都市,,生活服务;邮局;邮局
103.180832,30.408820,邛崃市南宝邮政代办所,南宝乡南宝街12号,四川省,成都市,,生活服务;邮局;邮局
103.260033,30.402601,邛崃市油榨邮政代办所,南宝山镇桃花社区新街81号附2号,四川省,成都市,,生活服务;邮局;邮局
103.686023,30.304313,邛崃市回龙邮政代办所,回龙镇正街64号,四川省,成都市,,生活服务;邮局;邮局
103.287668,30.312206,邛崃市道佐邮政代办所,道佐乡东街45号,四川省,成都市,,生活服务;邮局;邮局
103.584094,30.387735,邛崃市固驿邮政代办所,卷洞桥街201附近,四川省,成都市,固驿街道,生活服务;邮局;邮局
103.291106,30.264407,邛崃市临济邮政代办所,临济镇临济街12号,四川省,成都市,临济,生活服务;邮局;邮局
103.496299,30.452615,邛崃市君平邮政代办所,桑园镇童桥街114号,四川省,成都市,,生活服务;邮局;邮局
103.454491,30.389360,邛崃市南河邮政代办所,临邛镇大东街120号,四川省,成都市,临邛,生活服务;邮局;邮局
103.668623,30.348404,中国邮政便民服务站,新建街,四川省,成都市,牟礼村,生活服务;生活服务场所;生活服务场所
103.444907,30.384941,中国邮政便民服务站,[],四川省,成都市,,生活服务;生活服务场所;生活服务场所
103.174883,30.301876,中国邮政便民服务站,寿高路,四川省,成都市,,生活服务;生活服务场所;生活服务场所
103.451620,30.442006,中国邮政便民服务站,[],四川省,成都市,,生活服务;生活服务场所;生活服务场所
103.673800,30.352123,中国邮政便民服务站,和平街,四川省,成都市,牟礼村,生活服务;生活服务场所;生活服务场所
103.349625,30.411517,中国邮政便民服务站,马湖街,四川省,成都市,,生活服务;生活服务场所;生活服务场所
103.155397,30.241230,中国邮政村邮站,[],四川省,成都市,,生活服务;生活服务场所;生活服务场所
103.414245,30.376797,邛崃市孔明邮政代办所,太阳社区6组,四川省,成都市,,生活服务;邮局;邮局
103.350705,30.413181,邛崃市马湖邮政代办所,水口镇马湖街123号,四川省,成都市,,生活服务;邮局;邮局
103.712257,30.342045,邛崃市永丰邮政代办所,牟礼镇永丰正街54号,四川省,成都市,,生活服务;邮局;邮局
103.350644,30.379583,中国邮政便民服务部,下坝北街与平乐镇东街交叉路口往西北约150米,四川省,成都市,,生活服务;生活服务场所;生活服务场所
103.478396,30.403952,中国邮政(邛崃市东星邮政支局),东星大道453号,四川省,成都市,临邛,生活服务;邮局;邮政速递
103.459968,30.412347,邛崃市南岳街邮政支局,南岳街43号,四川省,成都市,临邛,生活服务;邮局;邮局
103.651531,30.347627,邛崃市新迎街邮政支局,牟礼镇兴贤新果街131-133号,四川省,成都市,,生活服务;邮局;邮局
103.176224,30.301313,天台邮政代办所,天台镇天台街142号,四川省,成都市,,生活服务;邮局;邮局
103.429756,30.457301,邛崃市西桥邮政代办所,临邛镇桥新街110号,四川省,成都市,,生活服务;邮局;邮局
103.492306,30.449790,中国邮政(君平邮政代办所),童桥街,四川省,成都市,,生活服务;邮局;邮局
103.660764,30.457809,邛崃市付安邮政代办所,冉义镇付庵街19号,四川省,成都市,,生活服务;邮局;邮局
103.240270,30.382212,邛崃市火井邮政支局,火井镇河南街167号,四川省,成都市,火井镇,生活服务;邮局;邮局
103.421556,30.337556,邛崃市卧龙邮政支局,鹤山镇天华新社区新街15号,四川省,成都市,,生活服务;邮局;邮局
103.540597,30.403459,中国邮政(邛崃市前进邮政代办所),前进镇前兴街117号,四川省,成都市,前进,生活服务;邮局;邮局
103.300435,30.449529,邛崃市水口邮政支局,水口镇邛水路86号,四川省,成都市,,生活服务;邮局;邮局
103.675765,30.399595,邛崃市泉水邮政支局,金泉大道101-113号,四川省,成都市,,生活服务;邮局;邮局
103.623443,30.399951,邛崃市高埂邮政支局,高埂镇金桥街1号,四川省,成都市,高埂,生活服务;邮局;邮局
103.633116,30.376613,邛崃市三中邮政代办所,高埂镇学府街20号(高埂中学对面),四川省,成都市,,生活服务;邮局;邮局
103.474030,30.408506,邛崃市文南路邮政所,临邛街道办文南路28号,四川省,成都市,临邛,生活服务;邮局;邮局
103.699731,30.392402,邛崃市羊安邮政支局,羊安街211号,四川省,成都市,,生活服务;邮局;邮局
103.325690,30.306556,邛崃市石头邮政代办所,临济镇青华社区14组67号,四川省,成都市,,生活服务;邮局;邮局
103.351734,30.378604,邛崃市下坝邮政代办所,下坝乡东街1号,四川省,成都市,,生活服务;邮局;邮局
103.574988,30.341687,新安邮政代办所,固驿镇新安街350号,四川省,成都市,,生活服务;邮局;邮局
103.292843,30.262938,雅安市廖场邮政代办所,廖场乡政府街12号,四川省,成都市,,生活服务;邮局;邮局
103.461146,30.473601,邛崃市桑园邮政支局,桑园镇交通街164号附9号,四川省,成都市,,生活服务;邮局;邮局
103.459007,30.476879,中国邮政(成温邛高速辅路店),桑园镇318国道辅路近成温邛高速辅路,四川省,成都市,,生活服务;邮局;邮局
103.459578,30.396994,菜鸟驿站(司马大道恒耘移动店610031014),临邛镇司马大道480号附1(司马大道恒耘移动店邮政自提点),四川省,成都市,,生活服务;物流速递;物流速递
103.240536,30.382473,菜鸟驿站(成都火井镇店),火井镇河南街30号邮政储蓄斜对面,四川省,成都市,火井镇,生活服务;物流速递;物流速递
103.622370,30.400080,菜鸟驿站(成都高埂街道店),金桥街1号(高埂邮政支局),四川省,成都市,,生活服务;物流速递;物流速递
104.413168,30.856500,四川省邮政速递物流有限公司(金堂县分公司),金航街11号,四川省,成都市,,生活服务;邮局;邮政速递
104.413803,30.856287,中国邮政24小时自助服务,滨江路一段630号附近,四川省,成都市,,生活服务;生活服务场所;生活服务场所
104.415801,30.802697,邮政快递代办点,云绣大道(延长石油壳牌加油站西侧约100米),四川省,成都市,,生活服务;物流速递;物流速递
104.408792,30.882563,中国邮政便民服务,[],四川省,成都市,,生活服务;生活服务场所;生活服务场所
104.756253,30.509283,中国邮政,云合镇政府1层,四川省,成都市,,生活服务;邮局;邮局
104.418740,30.827512,中国邮政,迎宾大道二段(香龙山),四川省,成都市,,生活服务;邮局;邮局
104.413896,30.856411,金航路邮政支局,万安街与金航街交叉口西南50米,四川省,成都市,,生活服务;邮局;邮局
104.639131,30.828633,福兴邮政支局,福兴镇金兴街227-237号,四川省,成都市,,生活服务;邮局;邮局
104.788934,30.569065,又新邮政营业所,又新镇新乐东街5号,四川省,成都市,,生活服务;邮局;邮局
104.840514,30.557584,永乐邮政所,永乐村2组33号,四川省,成都市,,生活服务;邮局;邮局
104.838389,30.522162,土桥邮政支局,土桥镇土桥大道18-26号,四川省,成都市,,生活服务;邮局;邮局
104.421402,30.920331,官仓邮政代办所,官仓镇中孚社区办公室,四川省,成都市,,生活服务;邮局;邮局
104.638320,30.760243,三溪邮政所,三溪镇上正街9-11号,四川省,成都市,,生活服务;邮局;邮局
104.482850,30.608354,五凤邮政代办所,五凤镇小凤街36号,四川省,成都市,,生活服务;邮局;邮局
104.792118,30.627580,中国邮政广兴营业所,广兴镇保庵街41-47号,四川省,成都市,,生活服务;邮局;邮局
104.597022,30.857694,中国邮政便民服务站,三金路,四川省,成都市,,生活服务;邮局;邮局
104.434324,30.847866,金堂县韩滩邮政所,韩滩新龙路4号,四川省,成都市,,生活服务;邮局;邮局
104.482819,30.608383,中国邮政便民服务站,小凤街107号,四川省,成都市,,生活服务;生活服务场所;生活服务场所
104.465740,30.840338,中国邮政便民服务站,来幸路,四川省,成都市,,生活服务;生活服务场所;生活服务场所
104.436850,30.856179,中国邮政(幸福路邮政所),幸福路141-149号,四川省,成都市,,生活服务;邮局;邮局
104.575177,30.814712,金堂县赵家邮政局,赵家镇荷塘街169到175号,四川省,成都市,,生活服务;邮局;邮局
104.776847,30.686219,转龙邮政代办所,转龙镇莲花横街14-16号,四川省,成都市,,生活服务;邮局;邮局
104.638828,30.620760,平桥邮政代办所,兴平街64至66号,四川省,成都市,,生活服务;邮局;邮局
104.409057,30.850707,中国邮政(迎宾大道邮政所),赵镇迎宾大道一段111-113号金海岸天府花园水城19号楼5号,四川省,成都市,,生活服务;邮局;邮局
104.406763,30.862190,中国邮政(金沙街邮政所),金沙街234号附1号-附2号,四川省,成都市,,生活服务;邮局;邮局
104.699916,30.780705,中国邮政(金龙邮政所),金龙镇瓦窑街374号,四川省,成都市,,生活服务;邮局;邮局
104.698857,30.688764,中国邮政(金堂县隆盛邮政所),隆盛镇新平街12号,四川省,成都市,,生活服务;邮局;邮局
104.730746,30.629200,中国邮政(竹篙邮政支局),竹篙镇上正街714-716号,四川省,成都市,,生活服务;邮局;邮局
104.702829,30.598014,中国邮政(青松邮政所),竹篙镇青松街232号,四川省,成都市,,生活服务;邮局;邮局
104.756429,30.509247,金堂县云合邮政代办所,云合镇老街72号附1号,四川省,成都市,,生活服务;邮局;邮局
104.559887,30.711972,金堂县淮州大道邮政所,淮州大道36-42号,四川省,成都市,,生活服务;邮局;邮局
104.581267,30.669504,邮政服务(三农白果乡配送店),清明街10西南方向130米,四川省,成都市,,生活服务;生活服务场所;生活服务场所
104.836627,30.523742,中国邮政(金乐邮政所),[],四川省,成都市,,生活服务;邮局;邮局
104.552621,30.714412,中国邮政(宝龙新城邮政所),淮口镇兴淮大道57,四川省,成都市,,生活服务;邮局;邮局
104.627639,30.686639,中国邮政(高板邮政所),高板镇万顺街259至267号,四川省,成都市,高板,生活服务;邮局;邮局
104.385019,30.912614,中国邮政(金堂县清江邮政所),火盆路99号,四川省,成都市,,生活服务;邮局;邮局
104.541931,30.667284,白果邮政所(莲花街),白果镇莲花街10-14号,四川省,成都市,,生活服务;邮局;邮局
104.465485,30.865774,金堂县栖贤邮政代办所,希望街181号(近金堂县栖贤乡人民政府),四川省,成都市,,生活服务;邮局;邮局
104.431369,30.854048,中国邮政(智能包裹柜),赵镇新建路1号正东方向30米,四川省,成都市,,生活服务;邮局;邮局
104.413629,30.856327,中国邮政(金堂县分公司园区揽投站),万安街与金航街交叉口西南50米,四川省,成都市,,生活服务;邮局;邮政速递
104.515001,30.911929,中国邮政(尖山村村邮站),盐尖路东50米,四川省,成都市,,生活服务;邮局;邮局
104.421564,30.920310,中国邮政(安家街店),官仓镇安家街,四川省,成都市,,生活服务;邮局;邮局
104.456288,30.844731,金堂县三星邮政代办所,天星街416号,四川省,成都市,,生活服务;邮局;邮局
103.835754,30.693542,EMS(暂停营业),凤溪大道中段14号,四川省,成都市,凤溪大道,生活服务;邮局;邮政速递
103.794176,30.686174,中国邮政速递物流公司温江区分公司(西北门),天府街西段77号,四川省,成都市,,通行设施;临街院门;临街院正门
103.794168,30.686140,成都市天府邮政所,天府街西段69号,四川省,成都市,,生活服务;邮局;邮局
103.863534,30.703943,中国邮政快递,惠民路211号四川农业大学近邻宝快递服务中心,四川省,成都市,公平,生活服务;邮局;邮政速递
103.906984,30.728679,中国邮政快递驿站,皇姑路与隆兴街交叉路口往西北约50米(芙蓉花开),四川省,成都市,,生活服务;物流速递;物流速递
103.840440,30.705015,中国邮政,白马庙街与临江路交叉路口西侧(爱家天地-A区),四川省,成都市,万春,生活服务;邮局;邮局
103.832789,30.684468,中国邮政,两河路西段511号附近,四川省,成都市,柳城,生活服务;邮局;邮局
103.807109,30.642071,中国邮政便民服务,太极大道99西南50米,四川省,成都市,金马,生活服务;生活服务场所;生活服务场所
103.750000,30.811470,中国邮政,[],四川省,成都市,,生活服务;邮局;邮局
103.803564,30.641150,成都市金马邮政支局,金马镇太极大道288号,四川省,成都市,金马,生活服务;邮局;邮局
103.752328,30.811509,成都市寿安邮政支局,寿安镇吴家场社区吉安街46号,四川省,成都市,,生活服务;邮局;邮局
103.809969,30.740469,踏水邮政代办所,[],四川省,成都市,,生活服务;邮局;邮局
103.857000,30.681276,成都市海科邮政代办所,海科大厦103号,四川省,成都市,,生活服务;邮局;邮局
103.868330,30.669130,中国邮政涌泉便民服务点,五福路339号外商铺8栋11号,四川省,成都市,,生活服务;邮局;邮局
103.907006,30.728646,成都市永宁邮政代办所,永宁镇皇姑路129号,四川省,成都市,,生活服务;邮局;邮局
103.841877,30.689710,成都市向阳路邮政支局,柳城街道凤溪大道中段95号,四川省,成都市,凤溪大道,生活服务;邮局;邮局
103.750887,30.776372,通平邮政所,寿安镇团结桥社区通柳中街22,四川省,成都市,,生活服务;邮局;邮局
103.772129,30.671351,永盛邮政支局,永盛镇兴达路860号,四川省,成都市,,生活服务;邮局;邮局
103.816422,30.681719,成都市西南财大柳林校区邮政代办所,柳台大道东段555西南财经大学柳林校区,四川省,成都市,,生活服务;邮局;邮局
103.836307,30.724182,成都市万春邮政支局,天乡路一段2451号,四川省,成都市,万春,生活服务;邮局;邮局
103.827665,30.673767,成都师范学院邮政代办所,海科东路99号,四川省,成都市,,生活服务;邮局;邮局
103.804974,30.683696,中国邮政(锦绣大道),锦绣大道北段附近,四川省,成都市,,生活服务;邮局;邮政速递
103.841853,30.689714,中国邮政(凤溪大道中段),凤溪大道中段95号,四川省,成都市,凤溪大道,生活服务;邮局;邮局
103.773804,30.662746,中国邮政(便秘服务站),尚石路南段,四川省,成都市,,生活服务;生活服务场所;生活服务场所
103.870505,30.703755,成都市公平邮政支局,天乡路一段377-383号附近,四川省,成都市,公平,生活服务;邮局;邮局
103.774821,30.751070,成都市和盛邮政支局,和盛镇和兴街19号,四川省,成都市,和盛,生活服务;邮局;邮局
103.907013,30.728645,中国邮政(永福街店),永福街13号,四川省,成都市,,生活服务;邮局;邮局
103.836662,30.698288,成都市东大街邮政所,东大街12号附1附4-附6,四川省,成都市,柳城,生活服务;邮局;邮局
104.041784,30.602422,邮政速递物流公司(高新分公司),重庆老火锅王(新北店)新乐南街177号,四川省,成都市,,生活服务;邮局;邮政速递
103.977905,30.629408,中国邮政速递物流(武兴揽投分部),武兴四路18-附3号附近,四川省,成都市,,生活服务;物流速递;物流速递
103.994919,30.652814,中国邮政速递物流,晋阳街,四川省,成都市,,生活服务;物流速递;物流速递
104.063802,30.534831,中国邮政速递物流,德华路333号谢威中心A座,四川省,成都市,,生活服务;邮局;邮政速递
104.042335,30.542848,中国邮政速递物流,荣华南路附60号保利心语二期楼下,四川省,成都市,,生活服务;邮局;邮政速递
104.022954,30.644862,中国邮政速递物流公司(成都市青羊分公司),二环路西一段94号,四川省,成都市,双楠,生活服务;物流速递;物流速递
104.028098,30.620614,中国邮政速递物流成都市分公司长益营业部,红牌楼长益街317号,四川省,成都市,,生活服务;邮局;邮政速递
104.041739,30.602412,中国邮政速递物流股份有限公司新乐营业部,新乐南街175-181号附近,四川省,成都市,,生活服务;邮局;邮政速递
104.041738,30.602410,中国邮政速递物流股份有限公司紫荆营业部,[],四川省,成都市,,生活服务;邮局;邮局
104.041770,30.602413,邮政快递,新乐南街187-191,四川省,成都市,,生活服务;邮局;邮政速递
104.022981,30.644807,中国邮政速递物流公司青羊分公司(西南门),二环路西一段94号,四川省,成都市,双楠,通行设施;临街院门;临街院正门
104.023658,30.644954,中共中国邮政速递物流股份有限公司青羊分公司支部委员会,二环路西一段94附3号附近,四川省,成都市,双楠,政府机构及社会团体;政府机关;政府机关相关
104.022839,30.645103,成都市双楠邮政支局,二环路西一段94号附2-6号,四川省,成都市,双楠,生活服务;邮局;邮局
104.057478,30.576012,成都市石羊场邮政所,锦城大道790-2栋附5号,四川省,成都市,,生活服务;邮局;邮局
104.038862,30.565641,中国邮政EMS,富华北路(万科·公园5号),四川省,成都市,,生活服务;物流速递;物流速递
104.042304,30.542909,中国邮政EMS,高新区富华南路1576号保利心语二期一楼铺面,四川省,成都市,,生活服务;邮局;邮政速递
104.056408,30.635231,中国邮政EMS(小天西街),小天西街8号附9号,四川省,成都市,小天竺,生活服务;邮局;邮政速递
104.042286,30.561492,中国邮政EMS(装修中),[],四川省,成都市,,生活服务;邮局;邮政速递
104.057492,30.576055,ems孵化园投递站,锦城大道790号附104号,四川省,成都市,,生活服务;物流速递;物流速递
104.072673,30.598597,中邮速递易和平共配中心,天和西一街13(天和国际),四川省,成都市,桂溪,生活服务;邮局;邮政速递
103.997312,30.600769,中国邮政(簇桥邮政支局),簇桥中街166号附40号,四川省,成都市,,生活服务;邮局;邮政速递
103.978227,30.627652,成都市武侯工业园邮政所,武兴四路15号附6号,四川省,成都市,,生活服务;邮局;邮局
104.057480,30.576010,全球邮政特快专递(孵化园揽投站),锦城大道790号2栋201,四川省,成都市,,生活服务;物流速递;物流速递
104.008973,30.649288,中国邮政,龙安街5号-附33附近,四川省,成都市,双楠,生活服务;邮局;邮局
104.044753,30.557213,中国邮政,荣华北路与盛安街交叉路口往东南约50米,四川省,成都市,,生活服务;邮局;邮局
104.063638,30.534875,中国邮政,天府五街德华路333号,四川省,成都市,,生活服务;邮局;邮局
104.039318,30.607148,中国邮政,新义西街103号附近,四川省,成都市,神仙树,生活服务;邮局;邮局
104.056333,30.635445,中国邮政,小天西街8号附9号,四川省,成都市,小天竺,生活服务;邮局;邮局
104.033694,30.644595,中国邮政,双元街35号附近,四川省,成都市,双楠,生活服务;邮局;邮局
104.060781,30.631972,中国邮政,玉林北街1号附7号,四川省,成都市,玉林,生活服务;邮局;邮局
103.980198,30.621431,中国邮政,双楠大道武兴路段,四川省,成都市,,生活服务;邮局;邮局
103.983129,30.603309,中国邮政,金履一路218号优博广场1栋1楼,四川省,成都市,,生活服务;邮局;邮局
104.069194,30.621611,中国邮政,跳伞街道二环路南二段21号附6号,四川省,成都市,跳伞塔,生活服务;邮局;邮局
104.066049,30.543142,中国邮政,天府四街66号航兴国际亚朵酒店楼下,四川省,成都市,,生活服务;邮局;邮政速递
104.040344,30.639288,中国邮政,高升桥北街1号成都A区1栋1单元1层,四川省,成都市,高升桥,生活服务;邮局;邮局
104.050923,30.632893,成都市衣冠庙邮政支局,永丰路6号附1号,四川省,成都市,衣冠庙,生活服务;邮局;邮局
104.070951,30.632243,成都市科分院邮政所,人民南路四段9号,四川省,成都市,跳伞塔,生活服务;邮局;邮局
103.983240,30.648094,成都市机投邮政支局,草金东路15号,四川省,成都市,,生活服务;邮局;邮局
104.066662,30.642392,成都市锦江大桥邮政支局,人民南路三段15号附6号,四川省,成都市,小天竺,生活服务;邮局;邮局
104.004041,30.640206,成都市晋吉北路邮政所,晋吉北路66号附28-29号,四川省,成都市,,生活服务;邮局;邮局
103.968392,30.605391,成都市金花邮政所,金花街1号附7-附9号,四川省,成都市,,生活服务;邮局;邮局
104.054237,30.613321,成都市紫荆东路邮政支局,紫竹南一街3号紫荆美熙广场,四川省,成都市,紫荆,生活服务;邮局;邮局
104.021443,30.636267,中国邮政成都市红牌楼投递部,栖霞路9号魔方公寓铺面,四川省,成都市,双楠,生活服务;生活服务场所;生活服务场所
104.076170,30.593360,成都市天久北巷邮政代办所,天久北巷102号,四川省,成都市,,生活服务;邮局;邮局
104.061730,30.626495,成都市玉林小区邮政所,玉林横街1号附5号,四川省,成都市,玉林,生活服务;邮局;邮局
104.066661,30.642434,中国邮政便民服务站,人民南路三段15号附6号,四川省,成都市,小天竺,生活服务;邮局;邮局
103.968286,30.614240,中国邮政易邮柜,双凤五路,四川省,成都市,,生活服务;生活服务场所;生活服务场所
104.055669,30.542595,成都市天府四街邮政所,高新区天府四街588号,四川省,成都市,,生活服务;邮局;邮局
104.078885,30.616678,成都市航空路邮政支局,航空路19号附2号,四川省,成都市,桂溪,生活服务;邮局;邮局
104.072724,30.610801,成都市长寿路邮政所,长寿苑西街10号,四川省,成都市,桂溪,生活服务;邮局;邮局
104.071645,30.540775,中国邮政四川省成都市高新区天府软件园(1号取件点),天华二路219号天府软件园C区,四川省,成都市,,生活服务;物流速递;物流速递
103.997830,30.602012,成都市簇桥邮政支局,簇桥中街171号附20-21号,四川省,成都市,,生活服务;邮局;邮局
104.066117,30.543472,中国邮政(萃华路投递部),天府四街66号航兴国际三号楼亚朵酒店楼下,四川省,成都市,,生活服务;邮局;邮局
104.074536,30.643514,成都市致民路邮政所,新南支路14号附16号,四川省,成都市,小天竺,生活服务;邮局;邮局
104.026445,30.626414,成都市核桃堰路邮政支局,核桃堰路39-41号,四川省,成都市,,生活服务;邮局;邮局
104.072662,30.627700,成都市棕北小区邮政代办所,锦苑巷27号,四川省,成都市,跳伞塔,生活服务;邮局;邮局
104.070512,30.550706,成都市成都天府软件园邮政所,世纪城路天府软件园A1座1层,四川省,成都市,,生活服务;邮局;邮局
104.084544,30.632508,成都市四川大学邮政支局,一环路南1段24号四川大学望江校区,四川省,成都市,,生活服务;邮局;邮局
104.049195,30.639763,成都市西南民族大学邮政所,一环路南四段16号西南民族大学档案馆,四川省,成都市,,生活服务;邮局;邮局
104.071696,30.540919,中国邮政(天府软件园C区8幢附1楼快件取件处),桂溪街道天华二路219号天府软件园C区C8楼附1楼,四川省,成都市,,生活服务;邮局;邮政速递
104.037224,30.624149,中国邮政(成都市科园营揽投部),科园二路31号,四川省,成都市,肖家河,生活服务;邮局;邮政速递
103.983190,30.602987,中国邮政(金履路投递部),金履一路,四川省,成都市,,生活服务;邮局;邮政速递
103.983252,30.648161,中国邮政(机投邮政支局),草金东路15,四川省,成都市,机投桥/机投,生活服务;邮局;邮局
104.033729,30.556040,成都市大源邮政支局,大源北二街40-46号,四川省,成都市,,生活服务;邮局;邮局
103.972249,30.587297,成都市簇马工业园邮政所,簇马路三段8号附6号,四川省,成都市,,生活服务;邮局;邮局
104.059091,30.646574,成都市染靛街邮政所,浆洗街29号附3号,四川省,成都市,,生活服务;邮局;邮局
104.009444,30.611842,成都市聚龙路邮政所,成双大道北段135附近,四川省,成都市,,生活服务;邮局;邮局
104.056351,30.635336,中国邮政(小天投递部),玉林街道小天南街8号附2号,四川省,成都市,小天竺,生活服务;物流速递;物流速递
104.069193,30.621578,中国邮政(火车南站分部),二环路南二段附近,四川省,成都市,,生活服务;邮局;邮政速递
103.980389,30.648518,中国邮政(机投投递部),机投桥街道草金南路20号,四川省,成都市,机投桥/机投,生活服务;邮局;邮政速递
104.078846,30.616663,中国邮政(火车南站投递部),航空路19号附2号,四川省,成都市,桂溪,生活服务;邮局;邮政速递
104.037280,30.592489,中国邮政(新园营业部),新园南三路76号附1号,四川省,成都市,,生活服务;生活服务场所;生活服务场所
104.041451,30.612493,菜鸟驿站(成都紫瑞大道200号店),紫瑞大道190号(链家维多利亚店Y邮政自提点),四川省,成都市,神仙树,生活服务;物流速递;物流速递
104.006157,30.631538,菜鸟驿站(移动高成中粮祥厅610043705),太平园中六路590号(移动高成中粮祥厅邮政自提点),四川省,成都市,,生活服务;物流速递;物流速递
103.993155,30.643093,菜鸟驿站(成都兴元嘉园店),机投桥街道果堰街8号附9号链家兴元嘉园店邮政,四川省,成都市,龙湖金楠天街,生活服务;物流速递;物流速递
103.968403,30.605399,菜鸟驿站(成都江安河畔店),金花街1号附79号(金花邮政所),四川省,成都市,,生活服务;物流速递;物流速递
104.077989,30.642542,菜鸟驿站(全家龙江路店),龙江路19号附59号(链家龙江店邮政自提点),四川省,成都市,小天竺,生活服务;物流速递;物流速递
104.041625,30.647760,菜鸟驿站,成都体育学院内,四川省,成都市,,生活服务;物流速递;物流速递
104.030184,30.648722,菜鸟驿站,大石西路66号柏仕晶舍101号(移动浣花营业厅邮政自提点),四川省,成都市,双楠,生活服务;物流速递;物流速递
104.005756,30.638497,菜鸟驿站,晋吉南路287号(移动金讯广夏小区厅邮政自提点),四川省,成都市,,生活服务;物流速递;物流速递
104.072890,30.610850,莱鸟驿站,长寿路7号附61号,四川省,成都市,桂溪,生活服务;物流速递;物流速递
103.926941,30.561619,中国邮政速递物流(双流区速递品牌店),长顺路4段115号,四川省,成都市,东升,生活服务;物流速递;物流速递
103.967415,30.555048,中国邮政速递物流西南集散中心,口岸路612,四川省,成都市,,生活服务;邮局;邮政速递
103.966780,30.555101,中国邮政速递物流股份有限公司成都集散处理中心,航枢大道566号中国邮政,四川省,成都市,,生活服务;邮局;邮政速递
103.999575,30.570720,四川省邮政速递物流有限公司双流分公司,黄河中路119号,四川省,成都市,,生活服务;邮局;邮政速递
104.105313,30.549624,中国邮政速递物流成都软件园营业部,安和路3012号龙祥佳苑3期,四川省,成都市,中和,生活服务;邮局;邮政速递
104.004096,30.564274,四川省邮政速递服务有限公司,航空港黄河中路149号,四川省,成都市,,生活服务;邮局;邮政速递|生活服务;物流速递;物流速递|公司企业;工厂;工厂
103.965111,30.555411,圆通速递物流集散中心,航枢大道566号中国邮政,四川省,成都市,,生活服务;物流速递;物流速递
103.978020,30.563131,速递易,西航港星月路69号大成郡西区,四川省,成都市,,生活服务;生活服务场所;生活服务场所
103.968312,30.554473,中国邮政速递物流成都·西南集散中心(东南门),西航港口岸路610,四川省,成都市,,通行设施;临街院门;临街院门
103.967115,30.553747,中国邮政速递物流成都西南集散中心(西南门),口岸路与航枢一路交叉口西北100米,四川省,成都市,,通行设施;临街院门;临街院门
103.999675,30.570818,四川省邮政速递物流有限公司双流分公司(东北门),黄河中路二段132附近,四川省,成都市,,通行设施;临街院门;临街院门
103.993708,30.490279,邮政快递,黄龙大道,四川省,成都市,,生活服务;物流速递;物流速递
103.965110,30.555479,中国邮政速递物流股份有限公司成都集散处理中心(西北门),航枢一路与航枢大道交叉口东北200米,四川省,成都市,,通行设施;临街院门;临街院正门
103.965100,30.555438,中国邮政集团有限公司成都邮区中心局航空邮件处理中心,航空物流园区航枢大道566号,四川省,成都市,,生活服务;邮局;邮政速递
104.008279,30.573227,中国邮政快递柜,机场路土桥段顺风路195号,四川省,成都市,,生活服务;邮局;邮政速递
104.003819,30.564523,成都国际ems集散处理中心,黄河中路一段149号,四川省,成都市,白家,生活服务;物流速递;物流速递
103.859383,30.640297,中国邮政便民服务,黄温路与刘柑路交叉路口往东约100米,四川省,成都市,,生活服务;生活服务场所;生活服务场所
104.003892,30.533434,成都市350邮政所,光电大道1号附近,四川省,成都市,,生活服务;邮局;邮局
104.010750,30.551078,中国邮政,黄河南路33号附近,四川省,成都市,,生活服务;邮局;邮局
103.912937,30.620700,中国邮政,锦泉上街与鸿雁路交叉路口西北侧(泉水颐园),四川省,成都市,九江,生活服务;邮局;邮局
104.078261,30.506484,中国邮政,悦和二街与雅和南二路交叉路口往东约150米,四川省,成都市,,生活服务;邮局;邮局
103.911669,30.617190,中国邮政,双九路二段,四川省,成都市,九江,生活服务;邮局;邮局
104.060041,30.502250,中国邮政集团公司成都市华阳邮政投递部,正东中街88号院内,四川省,成都市,,生活服务;邮局;邮局
104.094220,30.548380,中国邮政,中和街道中和大道三段239号,四川省,成都市,中和,生活服务;邮局;邮局
104.088319,30.552309,中国邮政,[],四川省,成都市,,生活服务;邮局;邮局
103.915531,30.583834,中国邮政,航鹰东路,四川省,成都市,东升,生活服务;邮局;邮局
104.201092,30.433267,太平邮政所,太平镇庆西门街,四川省,成都市,,生活服务;邮局;邮局
103.996467,30.481522,公兴邮政所,荷韵路112号,四川省,成都市,,生活服务;邮局;邮局
103.952553,30.494612,黄甲邮政所,黄甲镇黄瓦街165号,四川省,成都市,,生活服务;邮局;邮局
104.004085,30.564265,四川中邮物流有限责任公司,黄河中路一段389号,四川省,成都市,,生活服务;邮局;邮政速递|生活服务;物流速递;物流速递
104.056828,30.374349,煎茶邮政代办所,天府新区清溪路一段181号,四川省,成都市,,生活服务;邮局;邮局
103.831205,30.575174,成都市金桥邮政代办所,绕镇路北100米,四川省,成都市,金桥,生活服务;邮局;邮局
104.051602,30.505949,正西街邮政所,正西街109-113号,四川省,成都市,,生活服务;邮局;邮局
104.175417,30.392515,成都市合江邮政代办所,教师街108号,四川省,成都市,合江街道,生活服务;邮局;邮局
104.040557,30.438837,成都市正兴邮政支局,正兴镇广东街105号,四川省,成都市,,生活服务;邮局;邮局
104.088455,30.558309,成都市中和邮政所,中和街道太平街36-38,四川省,成都市,中和,生活服务;邮局;邮局
103.923963,30.622976,成都市蛟龙工业港邮政代办所,平德加油站斜对面,四川省,成都市,九江,生活服务;邮局;邮局
103.882765,30.526055,成都市黄水邮政支局,黄水镇玉龙北街19号,四川省,成都市,黄水,生活服务;邮局;邮局
103.987165,30.408511,成都市永安邮政支局,南通路286号,四川省,成都市,永安镇,生活服务;邮局;邮局
103.912373,30.619863,成都市九江邮政支局,鸿雁路319号附近(九江邮政支局邮政自提点),四川省,成都市,九江,生活服务;邮局;邮局
104.027273,30.306831,成都市籍田邮政所,籍田镇东街东段62号,四川省,成都市,籍田街道,生活服务;邮局;邮局
104.056152,30.506114,成都市华阳邮政支局,正北上街32-36,四川省,成都市,,生活服务;邮局;邮局
103.912322,30.501497,成都市胜利邮政代办所,瞿上城路云燕小区附近,四川省,成都市,,生活服务;邮局;邮局
104.046489,30.508197,中国邮政易邮柜,华阳镇协和上街102号,四川省,成都市,,生活服务;邮局;邮局
103.916715,30.568615,棠中路邮政所,东升镇棠中路二段103号,四川省,成都市,东升,生活服务;邮局;邮局
103.999627,30.570717,成都市航空港邮政支局,航空港黄河中路二段123号,四川省,成都市,,生活服务;邮局;邮局
103.926889,30.561546,中国邮政(双流区邮政局),东升镇长顺路四段113号,四川省,成都市,东升,生活服务;邮局;邮局
103.926880,30.561562,成都市长顺路邮政所,长顺路四段109-111号,四川省,成都市,东升,生活服务;邮局;邮局
103.859398,30.642143,成都市柑梓邮政支局,杨柳东路东50米,四川省,成都市,,生活服务;邮局;邮局
103.859547,30.642791,中国邮政菜鸟驿站邮件自提点(柑梓邮政支局),双流区人民医院柳林分院附近,四川省,成都市,,生活服务;物流速递;物流速递
104.051667,30.505949,中国邮政(成都市正西街邮政所),天府新区正西街111号至113号,四川省,成都市,,生活服务;邮局;邮局
104.149869,30.352123,中国邮政(成都市永兴邮政支局),枫叶苑小区西(黄金桥路东),四川省,成都市,永兴街道,生活服务;邮局;邮局
104.146983,30.354752,永兴邮政支局,[],四川省,成都市,永兴街道,生活服务;邮局;邮局
104.121853,30.281939,大林邮政代办所,大林镇中山路231号,四川省,成都市,大林,生活服务;邮局;邮局
104.046487,30.508220,锦江路邮政所,华阳镇协和上街102-106,四川省,成都市,,生活服务;邮局;邮局
104.148692,30.527985,中国邮政(新兴邮政代办所),新兴镇农商银行旁四维街一段3号,四川省,成都市,,生活服务;邮局;邮局
103.984923,30.576671,中国邮政(常乐邮政所),西航港街道锦华路三段78号,四川省,成都市,,生活服务;邮局;邮局
103.991847,30.546035,文星邮政支局,西航港长城路二段384号,四川省,成都市,,生活服务;邮局;邮局
103.994452,30.553944,成都市川大江安邮政代办所,区川大路2段2号四川大学江安校学生宿舍西园11舍,四川省,成都市,,生活服务;邮局;邮局
103.935525,30.584818,中国邮政易邮柜24小时自助服务,康安路,四川省,成都市,东升,生活服务;邮局;邮政速递
104.154533,30.469151,白沙邮政代办所,白沙镇白沙街315号,四川省,成都市,白沙街道,生活服务;邮局;邮局
103.874524,30.584129,成都市彭镇邮政支局,邮电北路与邮电路交叉口西50米,四川省,成都市,,生活服务;邮局;邮局
103.922595,30.574033,成都市顺城街邮政所,东升镇顺城街22、24号,四川省,成都市,东升,生活服务;邮局;邮局
104.106927,30.413379,兴隆邮政代办所,兴隆镇瓦窑南二街210号,四川省,成都市,,生活服务;邮局;邮局
103.969738,30.317221,黄龙溪邮政代办所,黄龙溪镇川龙街54号,四川省,成都市,,生活服务;邮局;邮局
103.984436,30.505598,中国邮政(食堂),空港四路1537号,四川省,成都市,,生活服务;邮局;邮局
103.950926,30.633850,中国邮政(建设中),石鼓路24号附近,四川省,成都市,九江,生活服务;邮局;邮局
103.965809,30.570260,成都市机场邮政所,机场东一路31号,四川省,成都市,,生活服务;邮局;邮局
103.923361,30.572486,成都市淳化街邮政支局,淳化街58-64号,四川省,成都市,东升,生活服务;邮局;邮局
104.094151,30.548403,中国邮政(会龙揽投部),中和街道中和一街6号祥和家园铺面,四川省,成都市,中和,生活服务;邮局;邮政速递
104.091731,30.555263,中国邮政(中和投递部),柳荫街学院路130号,四川省,成都市,中和,生活服务;邮局;邮局
103.911302,30.620797,菜鸟驿站(九江邮政支局610299009),九江镇鸿雁路256号(九江邮政支局邮政自提点),四川省,成都市,九江,生活服务;物流速递;物流速递
103.974779,30.558439,中国外运长航,西南航空港口岸路155号,四川省,成都市,,生活服务;物流速递;物流速递|公司企业;公司;公司
104.045066,30.754225,四川凉山州邮政速递物流公司,晓初滨河路与高堆路交叉口南200米,四川省,成都市,安靖,生活服务;物流速递;物流速递
103.937305,30.768603,中国邮政成都市郫都区邮政速递物流公司(郫都区分公司),红光镇西区大道199号成都模具工业园,四川省,成都市,,生活服务;邮局;邮政速递
103.941452,30.783341,中国邮政速递郫都北港营业部,红佳路167-175号,四川省,成都市,红光,生活服务;邮局;邮政速递|生活服务;物流速递;物流速递
103.831420,30.813729,中国邮政包裹快递代收点,郫花路与顺宏路交叉口西北150米,四川省,成都市,,生活服务;邮局;邮政速递
103.900983,30.788936,中国邮政代收点,郫都区郫都区郫筒镇创智东二路68号绿地国际花都1期,四川省,成都市,,生活服务;邮局;邮局|生活服务;物流速递;物流速递
103.823970,30.852045,成都市永兴邮政代办所,郫都区下街与飞跃街交叉口西50米,四川省,成都市,,生活服务;邮局;邮局
103.880546,30.804702,中国邮政,郫筒镇望丛中路3-4号望丛祠内,四川省,成都市,郫筒,生活服务;邮局;邮局
103.984959,30.758468,中国邮政,泰山大道犀浦61号,四川省,成都市,,生活服务;邮局;邮局
103.893154,30.805992,中国邮政便民服务,城东巷148西60米,四川省,成都市,郫筒,生活服务;生活服务场所;生活服务场所
103.909556,30.850388,中国邮政便民服务,成环路,四川省,成都市,,生活服务;生活服务场所;生活服务场所
103.858079,30.931681,中国邮政便民服务,成都市郫都区,四川省,成都市,,生活服务;生活服务场所;生活服务场所
103.773491,30.934549,中国邮政便民服务,[],四川省,成都市,,生活服务;生活服务场所;生活服务场所
103.853940,30.773924,成都市寿增路邮政代办所,郫都区寿增路180号,四川省,成都市,,生活服务;邮局;邮局
103.941441,30.783320,中国邮政,红佳路185附近,四川省,成都市,红光,生活服务;邮局;邮局
103.821656,30.895880,中国邮政,[],四川省,成都市,,生活服务;邮局;邮局
103.919225,30.864567,中国邮政,水乡街353号,四川省,成都市,,生活服务;邮局;邮局
103.952041,30.746542,中国邮政,高新西区西芯大道26号,四川省,成都市,,生活服务;邮局;邮局
103.856350,30.778710,中国邮政,胜利南街22号(富华苑西北),四川省,成都市,,生活服务;邮局;邮局
103.871332,30.923695,中国邮政便民服务,[],四川省,成都市,,生活服务;生活服务场所;生活服务场所
103.771237,30.889819,中国邮政便民服务,唐玉路与兰磨线交叉路口往西南约50米,四川省,成都市,,生活服务;生活服务场所;生活服务场所
104.027659,30.755155,中国邮政便民服务,正义路1号-附226号26栋-附1西南50米,四川省,成都市,安靖,生活服务;生活服务场所;生活服务场所
103.885866,30.902777,中国邮政便民服务,成都市郫都区东方红路(邻里花间东北侧),四川省,成都市,,生活服务;生活服务场所;生活服务场所
103.929861,30.756904,电子科技大学邮政所,郫都区犀浦镇西源大道2006号电子科大清河水校区内,四川省,成都市,,生活服务;邮局;邮局
103.879275,30.901491,成都市唐元邮政代办所,郫都区杨柳堰路95号,四川省,成都市,,生活服务;邮局;邮局
103.926119,30.738696,成都市合作邮政代办所,顺清街277-279附近,四川省,成都市,,生活服务;邮局;邮局
103.920402,30.802148,合作天勤路邮政代办所,郫都区天勤路1062号1064号,四川省,成都市,,生活服务;邮局;邮局
103.918947,30.872620,三道堰邮政支局,三道堰镇永宁北路196号198号,四川省,成都市,,生活服务;邮局;邮局
103.831388,30.813733,成都市清河邮政代办所,友爱镇释迦桥下街72号,四川省,成都市,,生活服务;邮局;邮局
103.770322,30.889350,新胜邮政代办所,郫都区平乐路上段69,四川省,成都市,,生活服务;邮局;邮局
103.872122,30.826442,中国邮政快邮驿站,成都市郫都区,四川省,成都市,,生活服务;物流速递;物流速递
103.865997,30.885558,中国邮政便民服务站,成都市郫都区唐太路(新民场小学校东侧约50米),四川省,成都市,新民场,生活服务;生活服务场所;生活服务场所
103.973604,30.751944,中国邮政易邮柜,犀浦街道下街368号,四川省,成都市,犀浦,生活服务;邮局;邮政速递
103.758756,30.858983,成都市花园邮政代办所,花园镇文化路250号,四川省,成都市,,生活服务;邮局;邮局
103.866101,30.885517,成都市新民邮政代办所,郫都区新民场镇北街154号,四川省,成都市,新民场,生活服务;邮局;邮局
103.796291,30.823538,成都市友爱邮政代办所,友爱镇三元场正街99号,四川省,成都市,友爱镇,生活服务;邮局;邮局
103.980631,30.817492,中国邮政(郫都区团结邮政所),靖源下街471号22栋附10,四川省,成都市,,生活服务;邮局;邮局
103.980514,30.817445,团结邮政支局,郫都区团结镇下街471号22栋附8号,四川省,成都市,,生活服务;邮局;邮局
104.017594,30.765588,安靖邮政所,郫都区安靖镇靖兴街125号,四川省,成都市,安靖,生活服务;邮局;邮局
103.886132,30.809600,成都市西大街邮政支局,郫都区西大街45号,四川省,成都市,郫筒,生活服务;邮局;邮局
103.797338,30.871406,成都市安德邮政支局,彭温路92号,四川省,成都市,安德街道,生活服务;邮局;邮局
103.888560,30.788558,成都市成都工业学院邮政代办所,中信大道与蜀信东路交叉口西南150米成都工业学院长虹会堂附近,四川省,成都市,,生活服务;邮局;邮局
103.950075,30.724173,成都市四川大学锦城学院邮政所,高新西区西源大道1号,四川省,成都市,,生活服务;邮局;邮局
103.973604,30.751944,成都市西区花园邮政所(暂停营业),犀浦镇下街368号,四川省,成都市,犀浦,生活服务;邮局;邮局
103.825411,30.929471,成都市唐昌邮政支局,唐昌镇北大街209号,四川省,成都市,唐昌,生活服务;邮局;邮局
103.853915,30.773879,寿增路邮政所,郫都区德源寿增路176号180号,四川省,成都市,,生活服务;邮局;邮局
103.923875,30.782506,成都市托普邮政代办所,郫都区西区大道2000号托普大学内,四川省,成都市,,生活服务;邮局;邮局
103.925343,30.890908,成都市古城邮政代办所,古城镇蜀母巷29号,四川省,成都市,,生活服务;邮局;邮局
103.887259,30.803759,成都市和乐巷邮政所,郫都区和乐巷117号,四川省,成都市,郫筒,金融保险服务;银行;中国邮政储蓄银行
103.942787,30.773664,中国邮政(红光街道邮政支局),广场路13附2,四川省,成都市,红光,生活服务;邮局;邮局
103.971073,30.756293,成都市犀浦邮政支局,犀湖街74-84,四川省,成都市,犀浦,生活服务;邮局;邮局
103.880577,30.814811,成都市西大街邮政所,郫都区西大街435号,四川省,成都市,郫筒,生活服务;邮局;邮局
103.984946,30.758469,西南交大邮政所,犀安路999号西南交大一食堂旁,四川省,成都市,,生活服务;邮局;邮局
103.968036,30.729021,国腾学院邮政代办所,郫都区犀浦镇百叶路1号,四川省,成都市,,生活服务;邮局;邮局
103.879358,30.901465,中国邮政(唐昌镇代办投递点),杨柳堰路95号,四川省,成都市,,生活服务;邮局;邮局
104.017630,30.765743,中国邮政(靖兴街),安靖镇安靖下街36号,四川省,成都市,安靖,生活服务;邮局;邮政速递
104.050295,30.682197,中国邮政速递物流,一环路北一段99号环球广场,四川省,成都市,,生活服务;邮局;邮政速递
104.046924,30.703264,中国邮政速递物流,星辰东二街与顺星街交叉路口往南约50米,四川省,成都市,九里堤,生活服务;物流速递;物流速递
104.079804,30.715738,中国邮政速递物流,双耀一路与双瑞二路交叉路口往西约50米,四川省,成都市,,生活服务;物流速递;物流速递
104.037251,30.710414,中国邮政速递,交大路260附近,四川省,成都市,,生活服务;邮局;邮政速递
104.087689,30.690489,速递易,解放路一段154号(高笋塘街)香山苑9栋1单元,四川省,成都市,驷马桥,生活服务;物流速递;物流速递
104.085621,30.686804,成都市解放路邮政所,解放路一段90号,四川省,成都市,驷马桥,生活服务;邮局;邮局
104.006458,30.705694,邮政快递柜,蜀跃路2号泰逸美景1栋,四川省,成都市,,生活服务;生活服务场所;生活服务场所
104.048782,30.667749,邮政快递(经典2000店),西安中路62号,四川省,成都市,,生活服务;物流速递;物流速递
104.120068,30.764796,中国邮政快递,马觉寺路430号,四川省,成都市,天回,生活服务;邮局;邮政速递|生活服务;物流速递;物流速递
104.073206,30.679297,中国邮政包裹快递收寄,星辉西路16号附14号中国邮政,四川省,成都市,城隍庙,生活服务;邮局;邮政速递
104.028124,30.727765,成都市府河星城邮政代办所,西华大道608号府河星城70栋馨苑,四川省,成都市,,生活服务;邮局;邮局
104.060853,30.687471,中国邮政(火车北站投递部),府河桥东路府河一号(生鲜商品快递柜或代理点),四川省,成都市,,生活服务;生活服务场所;生活服务场所
104.068626,30.685701,成都市人民北路邮政所,一环路北二段34号附5号-6号,四川省,成都市,,生活服务;邮局;邮局
104.013405,30.695794,中国邮政邮件自提点(菜鸟驿站),蜀明路西侧,四川省,成都市,,生活服务;物流速递;物流速递
104.002840,30.709264,中国邮政,兴盛东路10号附近,四川省,成都市,金泉,生活服务;邮局;邮局
104.086562,30.693129,中国邮政,二环路北三段106-5号,四川省,成都市,驷马桥,生活服务;邮局;邮政速递
104.064976,30.707899,中国邮政,蓉北商贸大道48号蓝光中央天地2栋附150号,四川省,成都市,五块石,生活服务;邮局;邮局
104.033837,30.678255,中国邮政,抚琴西路214号安居巷内,四川省,成都市,抚琴,生活服务;邮局;邮政速递
104.079735,30.678083,丰巢邮政,解放路二段凤凰大厦,四川省,成都市,解放路,生活服务;物流速递;物流速递
104.088429,30.791086,成都市聚霞路邮政所,国际商贸城中药材市场一层6-1-13号,四川省,成都市,,生活服务;邮局;邮局
104.090221,30.684588,成都市李家沱邮政支局,树蓓街9号,四川省,成都市,驷马桥,生活服务;邮局;邮局
104.001242,30.723597,成都市土桥邮政所,金周路附近,四川省,成都市,金泉,生活服务;邮局;邮局
104.047560,30.734227,中国邮政古柏经营部,洞两路,四川省,成都市,,生活服务;邮局;邮局
104.037201,30.710483,中国邮政集团有限公司交大营业部,交大路,四川省,成都市,,生活服务;邮局;邮政速递
104.029251,30.684719,中国邮政易邮柜,蜀通街33号机械大厦1层,四川省,成都市,金沙,生活服务;物流速递;物流速递
104.059727,30.680491,成都市新二村邮政代办所,西体路9号附16号,四川省,成都市,,生活服务;邮局;邮局
104.050757,30.692969,成都市邮政局代理业务局,沙湾路71号,四川省,成都市,九里堤,生活服务;邮局;邮局
104.079742,30.797607,全球邮政特快专递,国际商贸城三区一楼50号门,四川省,成都市,,生活服务;物流速递;物流速递
104.040336,30.706539,成都市交大路邮政支局,交大路210号6栋1单元1楼附4号,四川省,成都市,,生活服务;邮局;邮局
104.073181,30.679300,中国邮政(星辉西路),星辉西路16附14号,四川省,成都市,城隍庙,生活服务;邮局;邮政速递
104.072073,30.695732,成都市火车北站邮政所,公交路3号附2号,四川省,成都市,,生活服务;邮局;邮局
104.035059,30.689312,中国邮政(五里墩邮政所),五里墩支路66号,四川省,成都市,营门口,生活服务;邮局;邮局
103.949320,30.775696,中国邮政(西华大学邮政所),红光镇西华大道9999号西华大学内,四川省,成都市,红光,生活服务;邮局;邮局
104.026932,30.697972,茶店子邮政支局,茶店子正街114号,四川省,成都市,,生活服务;邮局;邮局
104.080020,30.678968,成都市簸箕街邮政所,花圃路2号附1-4、13号,四川省,成都市,解放路,生活服务;邮局;邮局
104.086751,30.676013,成都市马鞍东路邮政支局,马鞍东路21号附2号,四川省,成都市,驷马桥,生活服务;邮局;邮局
104.051055,30.692453,中国邮政(沙湾邮政支局),沙湾路73号,四川省,成都市,九里堤,生活服务;邮局;邮局
104.035059,30.689312,成都市五里墩邮政所,五里墩东路与五里墩支路交叉口西50米,四川省,成都市,金沙,生活服务;邮局;邮局
104.117841,30.761739,成都市天回镇邮政支局,天新路45-55号,四川省,成都市,天回,生活服务;邮局;邮局
104.002244,30.702582,成都市蜀西环街邮政支局,蜀西环街66号附21号,四川省,成都市,金泉,生活服务;邮局;邮局
103.949356,30.775686,西华大学邮政支局,红光镇西华大道9999号西华大学内,四川省,成都市,红光,生活服务;邮局;邮局
104.047464,30.678590,成都市花牌坊街邮政支局,花牌坊街40号附1-4号,四川省,成都市,,生活服务;邮局;邮局
103.981919,30.720301,中国邮政(中海小邮局),蜀西路253号中海海科大厦B座1楼大厅,四川省,成都市,中海国际,生活服务;邮局;邮局
104.002852,30.709242,中国邮政(茶店子营业部),[],四川省,成都市,,生活服务;邮局;邮局
104.002984,30.723938,中国邮政(金泉营揽投部),金周路218号2栋1-8,四川省,成都市,金泉,生活服务;邮局;邮政速递
104.117746,30.761802,中国邮政(天回镇投递部),天新路57号,四川省,成都市,天回,生活服务;邮局;邮政速递
104.046095,30.690717,菜鸟驿站(成都金牛区金沙北二路2号店),金沙路135号附1-2号(移动诚信金沙路厅邮政自提点),四川省,成都市,营门口,生活服务;物流速递;物流速递
104.020667,30.689174,菜鸟驿站(成都锦城苑店),蜀汉路289号附25-26号(一品天下邮政所),四川省,成都市,黄忠村,生活服务;物流速递;物流速递
104.049914,30.669565,菜鸟驿站(十二桥路邮政支局610072001),西安路街道十二桥路23号,四川省,成都市,,生活服务;物流速递;物流速递
104.059990,30.723490,菜鸟驿站(成都花满庭8栋1单元202号店),洞子口路333号附33号(链家花满庭店邮政自提点),四川省,成都市,沙河源,生活服务;物流速递;物流速递
104.090983,30.685271,菜鸟驿站(树蓓巷42号店),树蓓街9号(李家沱邮政支局邮政自提点),四川省,成都市,李家沱,生活服务;物流速递;物流速递
104.054689,30.693412,菜鸟驿站(链家锦西国际店612000121),圃园北路1号(链家锦西国际店邮政自提点),四川省,成都市,九里堤,生活服务;物流速递;物流速递
104.245404,30.545526,中国邮政速递物流,柏合镇东航路528号,四川省,成都市,,生活服务;物流速递;物流速递
104.243405,30.562191,中国邮政速递物流,兴源街66号附近,四川省,成都市,龙泉,生活服务;物流速递;物流速递
104.264876,30.559893,中国邮政速递物流有限公司龙泉驿区分公司,驿都东路91号,四川省,成都市,航天北路,生活服务;邮局;邮政速递|生活服务;物流速递;物流速递
104.317890,30.539413,邮政快递,[],四川省,成都市,,生活服务;邮局;邮政速递
104.235115,30.651622,韵达快递超市,西河镇药王庙街25号(西河邮政对面),四川省,成都市,,生活服务;物流速递;物流速递
104.243350,30.561642,中国邮政公司龙泉驿区处理中心,兴源上街66号,四川省,成都市,龙泉,生活服务;生活服务场所;生活服务场所
104.171370,30.566330,中国邮政,经开区南一路(龙华小学校西北侧约100米),四川省,成都市,,生活服务;邮局;邮局
104.161912,30.557212,中国邮政,车城西五路与经开区南四路交叉路口往东北约50米,四川省,成都市,,生活服务;邮局;邮局
104.190174,30.660046,中国邮政,大草坪路与清水河街交叉路口北侧(成大二期B区),四川省,成都市,,生活服务;邮局;邮局
104.267131,30.547139,中国邮政,静和街,四川省,成都市,龙泉,生活服务;邮局;邮局
104.325941,30.670807,中国邮政便民服务站,土莲路,四川省,成都市,,生活服务;生活服务场所;生活服务场所
104.344918,30.690330,成都市洪安邮政代办所,成环路与文安街交叉口东南50米,四川省,成都市,,生活服务;邮局;邮局
104.277813,30.571477,省团校邮政代办所,龙泉街办长顺路65号,四川省,成都市,龙泉,生活服务;邮局;邮局
104.290602,30.683362,成都市黄土邮政代办所,人和街与育才街交叉口西南50米,四川省,成都市,,生活服务;邮局;邮局
104.185810,30.651834,成都市十陵成大邮政所,江华路4号,四川省,成都市,,生活服务;邮局;邮局
104.264579,30.559897,成都市驿都东路邮政支局,龙泉街道驿都东路91号,四川省,成都市,龙泉,生活服务;邮局;邮局
104.176775,30.648327,成都市十陵邮政支局,十陵下街22-28号,四川省,成都市,,生活服务;邮局;邮局
104.305783,30.601268,成都市同安邮政支局,锦绣路174附8号,四川省,成都市,同安,生活服务;邮局;邮局
104.317932,30.539422,成都市山泉邮政代办所,中街60号,四川省,成都市,,生活服务;邮局;邮局
104.235515,30.651479,成都市西河邮政支局,药王庙街2-12,四川省,成都市,,生活服务;邮局;邮局
104.246899,30.569440,成都市北泉路邮政所,北泉路712附近,四川省,成都市,龙泉,生活服务;邮局;邮局
104.195846,30.584452,成都市大面邮政支局,树德大街6号,四川省,成都市,,生活服务;邮局;邮局
104.205550,30.503928,成都市柏合邮政支局,新街49号,四川省,成都市,,生活服务;邮局;邮局
104.320740,30.640206,成都市洛带邮政支局,洛带镇三峨街12号,四川省,成都市,,生活服务;邮局;邮局
104.356847,30.513241,茶店邮政代办所,茶店镇政府内,四川省,成都市,,生活服务;邮局;邮局
104.270020,30.554968,长柏路邮政所,长柏路107号,四川省,成都市,龙泉,生活服务;邮局;邮局
104.262017,30.563101,旭东街邮政所,龙泉街办旭东街32号,四川省,成都市,龙泉,生活服务;邮局;邮局
104.276302,30.578959,旅游学院邮政代办所,红岭路459号,四川省,成都市,,生活服务;邮局;邮局
104.278153,30.562808,成都市文明街邮政所,公园路一段146号,四川省,成都市,龙泉,生活服务;邮局;邮局
104.305406,30.606364,中国邮政(成都信息工程大学龙泉校区邮政服务部),[],四川省,成都市,同安,生活服务;邮局;邮局
104.196618,30.565115,川师成龙校区邮政代办所,大面街道成龙大道二段1819号,四川省,成都市,,生活服务;邮局;邮局
104.263060,30.645656,西平邮局,西平社区天和街8号,四川省,成都市,,生活服务;生活服务场所;生活服务场所
104.317496,30.539323,菜鸟驿站(成都山泉镇中街84号店),山泉镇中街84号山泉邮政旁,四川省,成都市,,生活服务;物流速递;物流速递
104.252378,30.569918,菜鸟驿站(成都怡和新城D区店),怡和新城D区16栋附11号远成通讯(怡和新城D区便民站邮政自提点),四川省,成都市,龙泉,生活服务;物流速递;物流速递
104.305786,30.601276,菜鸟驿站(同安投递610103001),锦秀路二段174号(同安投递邮政自提点),四川省,成都市,同安,生活服务;物流速递;物流速递
104.147184,30.816912,中国邮政速递物流公司(新都区分公司),香城大道63号,四川省,成都市,,生活服务;邮局;邮政速递
104.183658,30.825681,中国邮政速递,梦溪路1号,四川省,成都市,,生活服务;物流速递;物流速递
104.181837,30.795784,邮政EMS,工业大道东段981号飞奥创业园内,四川省,成都市,,生活服务;物流速递;物流速递
104.133692,30.793085,红运超市邮政快递,毗桥村物流大道天旭假日大酒店,四川省,成都市,,生活服务;邮局;邮局
103.963214,30.860746,菜鸟驿站快递物流综合服务,新繁镇龙安社区桥南街111号(龙安社区便民站邮政自提点),四川省,成都市,,生活服务;物流速递;物流速递
104.064773,30.820016,斑竹园邮政支局,斑竹园街道五一街207号,四川省,成都市,,生活服务;邮局;邮局
104.014116,30.871973,中国邮政便民服务,华阳镇街道正北街22号,四川省,成都市,新繁,生活服务;生活服务场所;生活服务场所
104.059477,30.848042,中国邮政,XA37(新崇路),四川省,成都市,,生活服务;邮局;邮局
104.149955,30.832741,中国邮政,运力大道(恒大御府),四川省,成都市,,生活服务;邮局;邮局
104.157927,30.753848,中国邮政,Y024(叠秀路),四川省,成都市,,生活服务;邮局;邮局
103.998549,30.892813,中国邮政,新繁大道与成彭路交叉路口往西约50米,四川省,成都市,,生活服务;邮局;邮局
104.061540,30.810951,中国邮政,南岸路与新丰路交叉路口南侧(成都银巢酒店),四川省,成都市,斑竹园,生活服务;邮局;邮局
104.069772,30.818079,中国邮政,斑竹园镇文锦街270-272号,四川省,成都市,斑竹园,生活服务;邮局;邮局
104.142753,30.820860,中国邮政,新都镇桂香路一巷106号,四川省,成都市,,生活服务;邮局;邮政速递
104.154092,30.896656,中国邮政,军屯镇文昌街204号小剪刀专业美发,四川省,成都市,,生活服务;邮局;邮局
104.160076,30.826740,中国邮政邮件自提点(菜鸟驿站),[],四川省,成都市,,生活服务;邮局;邮政速递
104.024344,30.900594,中国邮政便民服务,新九路,四川省,成都市,,生活服务;生活服务场所;生活服务场所
104.038770,30.772394,中国邮政便民服务,王桥路,四川省,成都市,,生活服务;生活服务场所;生活服务场所
104.149452,30.817481,全球邮政特快专递(新崇路店),新都镇宝光大道南段132号,四川省,成都市,,生活服务;邮局;邮局
104.178689,30.819816,成都市石油大学邮政所,蜀龙大道中段1088号1栋一层1-4号,四川省,成都市,,生活服务;邮局;邮局
104.154248,30.896627,成都市军屯邮政代办所,军屯镇正兴街40号,四川省,成都市,,生活服务;邮局;邮局
104.038094,30.940176,中国邮政便民服务站,北街与西街交叉路口西北侧,四川省,成都市,,生活服务;生活服务场所;生活服务场所
104.060393,30.849789,成都市竹友邮政代办所,斑竹园镇竹友西街121号,四川省,成都市,,生活服务;邮局;邮局
104.210063,30.735797,成都市木兰邮政代办所,木兰镇同兴街112号,四川省,成都市,,生活服务;邮局;邮局
103.989627,30.914386,成都市利济邮政代办所,利济社区济兴南街67号,四川省,成都市,,生活服务;邮局;邮局
104.099048,30.891352,成都市新民邮政支局,大成街57-61号,四川省,成都市,,生活服务;邮局;邮局
104.133432,30.777784,成都市三河邮政支局,三河街道三河大道48-52号,四川省,成都市,三河,生活服务;邮局;邮局
104.018071,30.874051,成都市新繁邮政支局,正西街12号,四川省,成都市,新繁,生活服务;邮局;邮局
104.231378,30.786475,成都市泰兴邮政支局,泰兴镇将军西街6号,四川省,成都市,,生活服务;邮局;邮局
104.224713,30.839089,中国邮政便民服务站,[],四川省,成都市,,生活服务;生活服务场所;生活服务场所
104.125249,30.855600,成都市马家邮政代办所,马家镇升庵中街8号,四川省,成都市,,生活服务;邮局;邮局
104.030627,30.934357,成都市清流邮政代办所,清流镇新九路3506号政务中心内,四川省,成都市,,生活服务;邮局;邮局
103.990539,30.848141,成都市龙藏寺邮政代办所,新繁镇荣军路83号,四川省,成都市,,生活服务;邮局;邮局
104.149400,30.817373,成都市电子路邮政支局,宝光大道南段136号,四川省,成都市,,生活服务;邮局;邮局
104.051078,30.763421,成都市大丰邮政支局,大丰街道新街140号,四川省,成都市,,生活服务;邮局;邮局
104.233814,30.785319,中国邮政泰兴邮政支局投递部,泰北街,四川省,成都市,,生活服务;邮局;邮政速递
103.965015,30.861253,成都市龙安邮政代办所,新繁镇龙安社区桥北街62号,四川省,成都市,,生活服务;邮局;邮局
104.013997,30.871889,中国邮政(爱莲春邮政所),新繁镇爱莲春街13号,四川省,成都市,新繁,生活服务;邮局;邮局
104.028042,30.813728,邮政(龙桥支行),S105(南街),四川省,成都市,龙桥,生活服务;邮局;邮局
104.273603,30.726444,成都市石板滩邮政支局,石板滩镇东风东街72-76号,四川省,成都市,石板滩街道,生活服务;邮局;邮局
104.028071,30.813748,成都市龙桥邮政支局,龙桥镇南街350-352号,四川省,成都市,龙桥,生活服务;邮局;邮局
104.125089,30.855363,中国邮政(马家代办所),升庵中街8号,四川省,成都市,,生活服务;邮局;邮局
104.068000,30.762270,菜鸟驿站(龙翔通讯移动店610599062),大丰镇达令港小区内4栋2单元1楼(龙翔通讯移动店邮政自提点),四川省,成都市,,生活服务;物流速递;物流速递
104.011664,30.884246,菜鸟驿站,新凡镇金地路金地三期32号金地三期千百惠副食超市邮政自提点,四川省,成都市,新繁,生活服务;物流速递;物流速递
104.111350,30.665832,邮政速递,双桥子街道光明馨苑东区20栋,四川省,成都市,建设路,生活服务;物流速递;物流速递
104.163821,30.695832,中国邮政速递物流,华甸路,四川省,成都市,龙潭寺,生活服务;邮局;邮政速递
104.096763,30.659001,成都邮政速递局营销中心二分部,双林路342号,四川省,成都市,猛追湾,生活服务;邮局;邮政速递
104.077129,30.703930,四川省成都邮政运输分局,八里桥路191号,四川省,成都市,,生活服务;邮局;邮政速递
104.107546,30.681135,成都市桃蹊路邮政支局,桃蹊路70号附1-2,四川省,成都市,建设路,生活服务;邮局;邮局
104.106962,30.681256,中国邮政泸州老窖,桃蹊路70号附6号,四川省,成都市,建设路,生活服务;邮局;邮政速递
104.106891,30.682448,全球邮政特快专递桃蹊路(西南门),桃蹊路70号,四川省,成都市,建设路,通行设施;临街院门;临街院门
104.166539,30.716147,中国邮政便民服务,同乐西一巷与同乐北二巷交叉路口往西约50米,四川省,成都市,龙潭,生活服务;生活服务场所;生活服务场所
104.108282,30.699082,成都市建设北路邮政代办所,致顺路61号,四川省,成都市,青龙,生活服务;邮局;邮局
104.143319,30.682088,中国邮政,华林二路50-附2号附近,四川省,成都市,二仙桥,生活服务;邮局;邮局
104.106292,30.713646,中国邮政成都市荆竹投递部,荆竹中路252号,四川省,成都市,,生活服务;物流速递;物流速递
104.158484,30.627966,中国邮政邮件自提点(菜鸟驿站),和美东路177号附24,四川省,成都市,,生活服务;物流速递;物流速递
104.108757,30.673479,中国邮政邮件自提点(菜鸟驿站),二环路东二段474号,四川省,成都市,建设路,生活服务;邮局;邮局
104.102110,30.702051,中国邮政,昭觉寺横路24号西100米,四川省,成都市,驷马桥,生活服务;邮局;邮局
104.114824,30.708544,中国邮政,龙绵街与东荆路交叉路口往东约50米(首创光和城),四川省,成都市,青龙,生活服务;邮局;邮局
104.106309,30.713644,中国邮政,荆竹中路252号,四川省,成都市,,生活服务;邮局;邮局
104.124013,30.643147,联合小区邮政支局,竞成路1号,四川省,成都市,万年场,生活服务;邮局;邮局
104.115658,30.662822,成都市杉板桥邮政代办所(装修中),杉板桥路52-附12号,四川省,成都市,建设路,生活服务;邮局;邮局
104.167523,30.692814,成都市龙潭寺邮政支局,成宏路2号附1-2,四川省,成都市,龙潭寺,生活服务;邮局;邮局
104.128791,30.654198,中国邮政易邮柜,东浦路与跳蹬河南路交叉路口往西南约150米,四川省,成都市,跳蹬河,生活服务;邮局;邮局
104.096922,30.658927,猛追湾邮政支局,双林路338号,四川省,成都市,双林路,生活服务;邮局;邮局
104.105626,30.645874,成都市双桥子邮政支局,水碾河路21号,四川省,成都市,双桥子,生活服务;邮局;邮局
104.107769,30.681230,全球邮政特快专递,桃蹊路70号附2号,四川省,成都市,建设路,生活服务;邮局;邮政速递
104.076605,30.703996,藏成公司,五块石八里桥路191号邮政运输局里面,四川省,成都市,五块石,生活服务;物流速递;物流速递
104.124008,30.643171,成都市竞成路邮政支局,长天路3号10幢3单元7号,四川省,成都市,五桂桥,生活服务;邮局;邮局
104.100916,30.668155,成都市建设路邮政支局,建设路53号附1-3,四川省,成都市,建设路,生活服务;邮局;邮局
104.113061,30.690459,成都市八里庄邮政代办所,八里庄路22号,四川省,成都市,二仙桥,生活服务;邮局;邮局
104.165199,30.705996,中国邮政(龙潭寺邮政支局),龙潭街道火神庙路19号,四川省,成都市,龙潭,生活服务;邮局;邮政速递
104.105573,30.701616,成都市青龙场邮政支局,昭觉寺横路99号附13号,四川省,成都市,青龙,生活服务;邮局;邮局
104.143540,30.654848,中国邮政(长融街投递站),长融街28号9-5-104号,四川省,成都市,保和,生活服务;邮局;邮政速递
104.092350,30.690869,中国邮政(青龙场投递部),二环路北四段41号附4号,四川省,成都市,驷马桥,生活服务;邮局;邮政速递
104.105386,30.645961,中国集邮(双桥子邮政支局),经华南路76号蜀都惠园水碾河21号,四川省,成都市,双桥子,生活服务;邮局;邮局|生活服务;物流速递;物流速递|购物服务;专卖店;专营店
104.155384,30.682232,菜鸟驿站(成都理工大学综合服务中心店),二仙桥街道民兴路966号,四川省,成都市,,生活服务;物流速递;物流速递
104.095175,30.706343,菜鸟驿站(成都兴元华盛二期商铺168号店),驷马桥羊子山西路69号链家华盛店邮政,四川省,成都市,驷马桥,生活服务;物流速递;物流速递
104.075218,30.652440,中国邮政速递物流,走马街42号附2号,四川省,成都市,东大街,生活服务;邮局;邮局
104.134148,30.613056,中国邮政速递物流,国槐街1264附近,四川省,成都市,成龙路,生活服务;邮局;邮政速递
104.076888,30.660910,四川省邮政速递局,暑袜北一街25号附3号,四川省,成都市,太升路,政府机构及社会团体;政府机关;省直辖市级政府及事业单位|生活服务;邮局;邮局
104.077513,30.661954,邮政支局,暑袜北一街25号附1号,四川省,成都市,太升路,生活服务;邮局;邮政速递|公司企业;公司;公司
104.103956,30.637367,中国邮政EMS,海椒市横街19-21号,四川省,成都市,牛市口,生活服务;邮局;邮政速递
104.077216,30.661295,成都市暑袜街邮政支局,暑袜北一街25附6,四川省,成都市,太升路,生活服务;邮局;邮局
104.139803,30.595280,邮政智能柜,国香街780号卓锦城6期紫郡12栋1楼,四川省,成都市,成龙路,生活服务;物流速递;物流速递
104.096784,30.603823,中国邮政EMS,琉璃一街76号6栋附2-3号,四川省,成都市,柳江,生活服务;邮局;邮局
104.103824,30.637176,中国邮政(海椒市投递部),海椒市横街3-5号,四川省,成都市,海椒市,生活服务;邮局;邮政速递
104.077801,30.661986,中国邮政集团公司成都市分公司(东南门),署袜北一街25附6,四川省,成都市,太升路,通行设施;临街院门;临街院正门
104.077305,30.662078,四川省邮政保险代理局,暑袜北一街25附6,四川省,成都市,太升路,公司企业;公司;公司
104.096797,30.603906,全球邮政特快专递(柳江新居五期东南),琉璃一街76号6栋附2-3号,四川省,成都市,柳江,生活服务;邮局;邮政速递
104.127321,30.604233,中国邮政(蓝谷地里外店),水杉街201号蓝谷地里外商业广场1层,四川省,成都市,成龙路,生活服务;物流速递;物流速递
104.085858,30.650308,成都市天福街邮政支局,天仙桥北路6号附1号,四川省,成都市,大慈寺,生活服务;邮局;邮局
104.096534,30.589000,中国邮政,包江桥新居锦馨家园a区7号楼榕声路135号,四川省,成都市,,生活服务;邮局;邮局
104.119176,30.611682,中国邮政,菱安路109号,四川省,成都市,川师/四川师大,生活服务;邮局;邮局
104.095401,30.596791,中国邮政,琉璃路1667号附近,四川省,成都市,,生活服务;邮局;邮政速递
104.099714,30.617091,东光小区邮政支局,锦华路一段275号20栋附13号,四川省,成都市,东光,生活服务;邮局;邮局
104.089179,30.603886,中国邮政胜利乡投递部,翠风路400号,四川省,成都市,柳江,生活服务;物流速递;物流速递|生活服务;邮局;邮局
104.122671,30.613321,成都市四川师大邮政所,静安路5号四川师范大学,四川省,成都市,川师/四川师大,生活服务;邮局;邮局
104.090826,30.659956,中道街邮政代办所,中道街118号,四川省,成都市,,生活服务;邮局;邮局
104.097941,30.627135,中国邮政(龙舟南路邮政支局),龙舟路59号,四川省,成都市,龙舟路,生活服务;邮局;邮局
104.077256,30.660848,全球邮政特快专递,暑袜北一街24号附2号,四川省,成都市,太升路,生活服务;邮局;邮政速递
104.095418,30.601764,成都市科创路邮政所,[],四川省,成都市,柳江,生活服务;邮局;邮局
104.096537,30.588995,成都市榕声路邮政所,榕声路135号,四川省,成都市,,生活服务;邮局;邮局
104.090520,30.603410,中国邮政(科创路邮政所),科创路180号,四川省,成都市,柳江,生活服务;邮局;邮局
104.111864,30.617746,成都市静渝路邮政所,静渝路48号,四川省,成都市,净居寺,生活服务;邮局;邮局
104.119260,30.611674,中国邮政(静安路分部),菱安路109号,四川省,成都市,川师/四川师大,生活服务;邮局;邮局
104.091001,30.639181,成都市顺江路邮政所,顺江路33号,四川省,成都市,,生活服务;邮局;邮局
104.079251,30.646200,中国邮政成都市大川巷营揽投部,滨江东路172号附11号(满城房产旁边),四川省,成都市,东大街,生活服务;邮局;邮政速递|生活服务;物流速递;物流速递
104.075240,30.652433,成都市走马街邮政支局,走马街42号锦城大厦,四川省,成都市,东大街,生活服务;邮局;邮局
104.105543,30.640826,成都市牛市口邮政所,牛市口路5号,四川省,成都市,双桥子,生活服务;邮局;邮局
104.095146,30.601763,中国邮政(胜利乡营揽投部),琉璃路1355、1357号,四川省,成都市,柳江,生活服务;邮局;邮政速递
104.133407,30.613039,中国邮政(国槐街支局),国槐街1153-1155号,四川省,成都市,成龙路,生活服务;邮局;邮局
104.133362,30.612979,成都市国槐街邮政支局,国槐街1153-1155号,四川省,成都市,成龙路,生活服务;邮局;邮局
104.095424,30.601769,中国邮政(琉璃场投递部),琉璃路1355号,四川省,成都市,柳江,生活服务;邮局;邮政速递
104.103861,30.637088,邮件自提点,海椒市横街9号附近,四川省,成都市,海椒市,生活服务;邮局;邮局
104.117503,30.616255,菜鸟驿站(成都万科城市花园彩域7期店),狮子山街道花园街145号,四川省,成都市,,生活服务;物流速递;物流速递
104.095670,30.613910,菜鸟驿站(成都翡翠城四期店),华润路144号(链家翡翠城东店邮政自提点),四川省,成都市,,生活服务;物流速递;物流速递
103.988280,30.664523,邮政速递物流公司贝森揽投部,东坡街道绿杨路340号,四川省,成都市,光华,生活服务;邮局;邮政速递
104.052233,30.656506,四川省邮政速递物流有限公司(汪家拐揽投站),小南街109号西府少城附2号,四川省,成都市,小南街,生活服务;邮局;邮政速递
103.961933,30.689663,邮政速递物流公司青羊区分公司成飞揽投站,成飞大道文光路106号,四川省,成都市,黄田坝,生活服务;邮局;邮政速递
103.989583,30.665385,全球邮政特快专递(贝森揽投部),成都市青羊区东坡北三路536号,四川省,成都市,光华,生活服务;邮局;邮政速递
104.055630,30.667322,成都市奎星楼邮政代办所,奎星楼街3号,四川省,成都市,长顺街,生活服务;邮局;邮局
104.078667,30.673065,中国邮政快递-包裹国内标快收寄点,东珠市街66号附8号,四川省,成都市,,生活服务;物流速递;物流速递
104.060537,30.654673,中国邮政邮件自提点(菜鸟驿站),文翁路145号,四川省,成都市,汪家拐,生活服务;邮局;邮局
104.063132,30.654433,成都市人民南路邮政代办所,陕西街89-91号,四川省,成都市,,生活服务;邮局;邮局
103.969267,30.669768,中国邮政邮件自提点(菜鸟驿站),光华北一路与光华大道一段交叉路口向北约50米,四川省,成都市,,生活服务;物流速递;物流速递
103.989458,30.689432,中国邮政,清源二路与董家店路交叉路口北侧(海亮爱金沙),四川省,成都市,,生活服务;邮局;邮局
103.983876,30.666050,中国邮政,月华路,四川省,成都市,,生活服务;邮局;邮局
103.979190,30.665627,中国邮政,培风东街266号附近,四川省,成都市,,生活服务;邮局;邮局
104.059309,30.675456,中国邮政,西城角巷4号附2号,四川省,成都市,新华西路,生活服务;邮局;邮局
103.989601,30.665290,苏坡桥邮政所,东坡北三路534号,四川省,成都市,光华,生活服务;邮局;邮局
103.926762,30.699606,文家场邮政所,文康路82号,四川省,成都市,,生活服务;邮局;邮局
104.080690,30.668486,中国邮政易邮柜,兴禅寺街19号,四川省,成都市,太升路,生活服务;邮局;邮政速递
104.006525,30.679276,中国邮政易邮柜,金阳路118号附近,四川省,成都市,金沙,生活服务;生活服务场所;生活服务场所
104.076647,30.668747,成都市德盛路邮政支局,德盛路77号,四川省,成都市,德盛路,生活服务;邮局;邮局
104.070749,30.677785,成都市武都路邮政支局,武都路4号附3-5号,四川省,成都市,,生活服务;邮局;邮局
104.015080,30.673324,中国邮政(成都市双锦路营揽投部),双锦路51号附3号,四川省,成都市,清江,生活服务;邮局;邮政速递
104.062157,30.650146,下南大街邮政所,下南大街6号,四川省,成都市,,生活服务;邮局;邮局
104.018113,30.679321,同盛路邮政所,锦翠北路10号,四川省,成都市,金沙,生活服务;邮局;邮局
104.076717,30.671852,府青路邮政支局,府青东街1号,四川省,成都市,,生活服务;邮局;邮局
104.061076,30.670999,成都市八宝街邮政支局,八宝街88号附2号,四川省,成都市,,生活服务;邮局;邮局
104.061241,30.649249,中国邮政(天府绿洲邮政所),下南大街2号天府绿洲811,四川省,成都市,,生活服务;邮局;邮局
104.013903,30.663174,成都市光华村邮政支局,光华村街44号附1号,四川省,成都市,青羊大道,生活服务;邮局;邮局
104.086892,30.667557,成都市红星街邮政所,莹华寺街11号,四川省,成都市,红星路,生活服务;邮局;邮局
104.060521,30.654701,成都市陕西街邮政支局,文翁路147号,四川省,成都市,小南街,生活服务;邮局;邮局
104.045704,30.651923,大石东路邮政支局,大石东路11-附17号,四川省,成都市,,生活服务;邮局;邮局
104.060296,30.664442,成都市东城根街邮政所,东城根中街1号附12号,四川省,成都市,长顺街,生活服务;邮局;邮局
103.964807,30.697237,成都市黄田坝邮政支局,经一路263-271号,四川省,成都市,黄田坝,生活服务;邮局;邮局
104.054770,30.658062,中国邮政(蜀华街投递部),蜀华街16号,四川省,成都市,汪家拐,生活服务;邮局;邮政速递
103.961933,30.689665,中国邮政(成飞营业部),黄田坝英国小镇文光路104号,四川省,成都市,黄田坝,生活服务;邮局;邮政速递
103.984086,30.679229,菜鸟驿站(链家翠微清波店612000191),苏坡街道金福路419号8栋架空层(链家翠微清波店邮政自提点),四川省,成都市,,生活服务;物流速递;物流速递
104.076979,30.671804,菜鸟驿站(成都时代印象3栋店),北东街1号(链家时代店邮政自提点),四川省,成都市,,生活服务;物流速递;物流速递
104.057014,30.660112,熊猫邮局(少城路分店),少城路43号,四川省,成都市,长顺街,生活服务;邮局;邮局|餐饮服务;冷饮店;冷饮店
104.052514,30.653628,菜鸟驿站(链家冠城花园店612000196店),小南街123号5栋1楼10号(链家冠城花园店邮政自提点),四川省,成都市,小南街,生活服务;物流速递;物流速递
